[{ "id": 167, "department_code": "01", "insee_code": "01184", "zip_code": "01250", "name": "Hautecourt-Romanèche", "slug": "hautecourt romaneche", "gps_lat": 46.16252535947712, "gps_lng": 5.42673124183006 }, { "id": 168, "department_code": "01", "insee_code": "01185", "zip_code": "01110", "name": "Hauteville-Lompnes", "slug": "hauteville lompnes", "gps_lat": 45.96466010869565, "gps_lng": 5.57219201086956 }, { "id": 169, "department_code": "01", "insee_code": "01186", "zip_code": "01110", "name": "Hostiaz", "slug": "hostiaz", "gps_lat": 45.9053051633987, "gps_lng": 5.53591575163399 }, { "id": 170, "department_code": "01", "insee_code": "01187", "zip_code": "01260", "name": "Haut Valromey", "slug": "haut valromey", "gps_lat": 46.03629094707519, "gps_lng": 5.67748 }, { "id": 764, "department_code": "02", "insee_code": "02366", "zip_code": "02510", "name": "Hannapes", "slug": "hannapes", "gps_lat": 49.97629165289256, "gps_lng": 3.6197319834710697 }, { "id": 765, "department_code": "02", "insee_code": "02367", "zip_code": "02480", "name": "Happencourt", "slug": "happencourt", "gps_lat": 49.7749355882353, "gps_lng": 3.18418191176471 }, { "id": 766, "department_code": "02", "insee_code": "02368", "zip_code": "02600", "name": "Haramont", "slug": "haramont", "gps_lat": 49.28791480392156, "gps_lng": 3.01607446078431 }, { "id": 767, "department_code": "02", "insee_code": "02369", "zip_code": "02140", "name": "Harcigny", "slug": "harcigny", "gps_lat": 49.80300102564104, "gps_lng": 3.9761432051282 }, { "id": 768, "department_code": "02", "insee_code": "02370", "zip_code": "02420", "name": "Hargicourt", "slug": "hargicourt", "gps_lat": 49.96470646464648, "gps_lng": 3.18705575757576 }, { "id": 769, "department_code": "02", "insee_code": "02371", "zip_code": "02100", "name": "Harly", "slug": "harly", "gps_lat": 49.84127412698413, "gps_lng": 3.33398301587301 }, { "id": 770, "department_code": "02", "insee_code": "02372", "zip_code": "02210", "name": "Hartennes-et-Taux", "slug": "hartennes et taux", "gps_lat": 49.28290787878789, "gps_lng": 3.36111686868687 }, { "id": 771, "department_code": "02", "insee_code": "02373", "zip_code": "02140", "name": "Hary", "slug": "hary", "gps_lat": 49.8051020338983, "gps_lng": 3.90784838983051 }, { "id": 773, "department_code": "02", "insee_code": "02375", "zip_code": "02810", "name": "Hautevesnes", "slug": "hautevesnes", "gps_lat": 49.10442891891891, "gps_lng": 3.23452986486486 }, { "id": 774, "department_code": "02", "insee_code": "02376", "zip_code": "02120", "name": "Hauteville", "slug": "hauteville", "gps_lat": 49.88648734374999, "gps_lng": 3.5265734374999997 }, { "id": 775, "department_code": "02", "insee_code": "02377", "zip_code": "02140", "name": "Haution", "slug": "haution", "gps_lat": 49.87437574074075, "gps_lng": 3.82916833333333 }, { "id": 778, "department_code": "02", "insee_code": "02380", "zip_code": "02440", "name": "Hinacourt", "slug": "hinacourt", "gps_lat": 49.74417765957447, "gps_lng": 3.29674063829787 }, { "id": 779, "department_code": "02", "insee_code": "02381", "zip_code": "02500", "name": "Hirson", "slug": "hirson", "gps_lat": 49.94794197604791, "gps_lng": 4.10174988023952 }, { "id": 780, "department_code": "02", "insee_code": "02382", "zip_code": "02760", "name": "Holnon", "slug": "holnon", "gps_lat": 49.86224303030304, "gps_lng": 3.19620181818182 }, { "id": 781, "department_code": "02", "insee_code": "02383", "zip_code": "02720", "name": "Homblières", "slug": "homblieres", "gps_lat": 49.85193000000002, "gps_lng": 3.37598586206897 }, { "id": 782, "department_code": "02", "insee_code": "02384", "zip_code": "02140", "name": "Houry", "slug": "houry", "gps_lat": 49.78365781818182, "gps_lng": 3.8525325454545403 }, { "id": 783, "department_code": "02", "insee_code": "02385", "zip_code": "02250", "name": "Housset", "slug": "housset", "gps_lat": 49.79492958333332, "gps_lng": 3.69449591666667 }, { "id": 1343, "department_code": "03", "insee_code": "03126", "zip_code": "03270", "name": "Hauterive", "slug": "hauterive", "gps_lat": 46.07781194805196, "gps_lng": 3.43408454545454 }, { "id": 1344, "department_code": "03", "insee_code": "03127", "zip_code": "03190", "name": "Hérisson", "slug": "herisson", "gps_lat": 46.52056236151603, "gps_lng": 2.7138073469387702 }, { "id": 1345, "department_code": "03", "insee_code": "03128", "zip_code": "03380", "name": "Huriel", "slug": "huriel", "gps_lat": 46.37496819672132, "gps_lng": 2.48596213114754 }, { "id": 1346, "department_code": "03", "insee_code": "03129", "zip_code": "03600", "name": "Hyds", "slug": "hyds", "gps_lat": 46.27295875502009, "gps_lng": 2.82712473895582 }, { "id": 1374, "department_code": "03", "insee_code": "03158", "zip_code": "03190", "name": "Haut-Bocage", "slug": "haut bocage", "gps_lat": 46.47072222535209, "gps_lng": 2.6735901408450697 }, { "id": 1682, "department_code": "04", "insee_code": "04177", "zip_code": "04380", "name": "Hautes-Duyes", "slug": "hautes duyes", "gps_lat": 44.19325540229885, "gps_lng": 6.17099459770115 }, { "id": 2602, "department_code": "08", "insee_code": "08205", "zip_code": "08430", "name": "Hagnicourt", "slug": "hagnicourt", "gps_lat": 49.613466, "gps_lng": 4.58922971428571 }, { "id": 2603, "department_code": "08", "insee_code": "08206", "zip_code": "08090", "name": "Ham-les-Moines", "slug": "ham les moines", "gps_lat": 49.79568864077671, "gps_lng": 4.59045242718447 }, { "id": 2604, "department_code": "08", "insee_code": "08207", "zip_code": "08600", "name": "Ham-sur-Meuse", "slug": "ham sur meuse", "gps_lat": 50.09196604651164, "gps_lng": 4.78365860465116 }, { "id": 2605, "department_code": "08", "insee_code": "08208", "zip_code": "08290", "name": "Hannappes", "slug": "hannappes", "gps_lat": 49.82318626262625, "gps_lng": 4.23964818181818 }, { "id": 2606, "department_code": "08", "insee_code": "08209", "zip_code": "08160", "name": "Hannogne-Saint-Martin", "slug": "hannogne saint martin", "gps_lat": 49.67364226950353, "gps_lng": 4.83492042553192 }, { "id": 2607, "department_code": "08", "insee_code": "08210", "zip_code": "08220", "name": "Hannogne-Saint-Rémy", "slug": "hannogne saint remy", "gps_lat": 49.603454875, "gps_lng": 4.13646875 }, { "id": 2608, "department_code": "08", "insee_code": "08211", "zip_code": "08450", "name": "Haraucourt", "slug": "haraucourt", "gps_lat": 49.62076131386861, "gps_lng": 4.95298423357664 }, { "id": 2609, "department_code": "08", "insee_code": "08212", "zip_code": "08150", "name": "Harcy", "slug": "harcy", "gps_lat": 49.85010373056996, "gps_lng": 4.56304616580311 }, { "id": 2610, "department_code": "08", "insee_code": "08214", "zip_code": "08170", "name": "Hargnies", "slug": "hargnies", "gps_lat": 50.01011245370372, "gps_lng": 4.78674560185185 }, { "id": 2611, "department_code": "08", "insee_code": "08215", "zip_code": "08240", "name": "Harricourt", "slug": "harricourt", "gps_lat": 49.44087404255318, "gps_lng": 4.92264691489362 }, { "id": 2612, "department_code": "08", "insee_code": "08216", "zip_code": "08090", "name": "Haudrecy", "slug": "haudrecy", "gps_lat": 49.7855496153846, "gps_lng": 4.61373596153846 }, { "id": 2613, "department_code": "08", "insee_code": "08217", "zip_code": "08800", "name": "Haulmé", "slug": "haulme", "gps_lat": 49.85963732142859, "gps_lng": 4.79399732142857 }, { "id": 2615, "department_code": "08", "insee_code": "08219", "zip_code": "08300", "name": "Hauteville", "slug": "hauteville", "gps_lat": 49.58101928571431, "gps_lng": 4.30077428571429 }, { "id": 2616, "department_code": "08", "insee_code": "08220", "zip_code": "08310", "name": "Hauviné", "slug": "hauvine", "gps_lat": 49.31287097826085, "gps_lng": 4.41776010869565 }, { "id": 2617, "department_code": "08", "insee_code": "08222", "zip_code": "08170", "name": "Haybes", "slug": "haybes", "gps_lat": 49.9965986592179, "gps_lng": 4.73341770949721 }, { "id": 2618, "department_code": "08", "insee_code": "08223", "zip_code": "08370", "name": "Herbeuval", "slug": "herbeuval", "gps_lat": 49.60219371212122, "gps_lng": 5.35332992424242 }, { "id": 2619, "department_code": "08", "insee_code": "08225", "zip_code": "08360", "name": "Herpy-l'Arlésienne", "slug": "herpy l arlesienne", "gps_lat": 49.52293853658537, "gps_lng": 4.19310890243903 }, { "id": 2620, "department_code": "08", "insee_code": "08226", "zip_code": "08320", "name": "Hierges", "slug": "hierges", "gps_lat": 50.0968414, "gps_lng": 4.7355134 }, { "id": 2622, "department_code": "08", "insee_code": "08229", "zip_code": "08190", "name": "Houdilcourt", "slug": "houdilcourt", "gps_lat": 49.42901222222222, "gps_lng": 4.12633083333333 }, { "id": 2623, "department_code": "08", "insee_code": "08230", "zip_code": "08090", "name": "Houldizy", "slug": "houldizy", "gps_lat": 49.80905607142857, "gps_lng": 4.66371892857143 }, { "id": 3363, "department_code": "10", "insee_code": "10171", "zip_code": "10500", "name": "Hampigny", "slug": "hampigny", "gps_lat": 48.46333554621849, "gps_lng": 4.60673201680672 }, { "id": 3364, "department_code": "10", "insee_code": "10172", "zip_code": "10700", "name": "Herbisse", "slug": "herbisse", "gps_lat": 48.61337857142857, "gps_lng": 4.12300301587302 }, { "id": 3798, "department_code": "11", "insee_code": "11172", "zip_code": "11200", "name": "Homps", "slug": "homps", "gps_lat": 43.26611, "gps_lng": 2.72338307692308 }, { "id": 3799, "department_code": "11", "insee_code": "11173", "zip_code": "11240", "name": "Hounoux", "slug": "hounoux", "gps_lat": 43.13344736486489, "gps_lng": 2.00294175675676 }, { "id": 4175, "department_code": "12", "insee_code": "12116", "zip_code": "12460", "name": "Huparlac", "slug": "huparlac", "gps_lat": 44.71341876254179, "gps_lng": 2.75454414715719 }, { "id": 4746, "department_code": "14", "insee_code": "14325", "zip_code": "14880", "name": "Hermanville-sur-Mer", "slug": "hermanville sur mer", "gps_lat": 49.28080014084508, "gps_lng": -0.32189253521127004 }, { "id": 4747, "department_code": "14", "insee_code": "14326", "zip_code": "14100", "name": "Hermival-les-Vaux", "slug": "hermival les vaux", "gps_lat": 49.16695510791367, "gps_lng": 0.29459611510791 }, { "id": 4748, "department_code": "14", "insee_code": "14327", "zip_code": "14200", "name": "Hérouville-Saint-Clair", "slug": "herouville saint clair", "gps_lat": 49.20731949152541, "gps_lng": -0.33028338983051 }, { "id": 4749, "department_code": "14", "insee_code": "14328", "zip_code": "14850", "name": "Hérouvillette", "slug": "herouvillette", "gps_lat": 49.2161256, "gps_lng": -0.25624786666667 }, { "id": 4750, "department_code": "14", "insee_code": "14329", "zip_code": "14430", "name": "Heuland", "slug": "heuland", "gps_lat": 49.25867884210528, "gps_lng": -0.003588842105260004 }, { "id": 4752, "department_code": "14", "insee_code": "14333", "zip_code": "14600", "name": "Honfleur", "slug": "honfleur", "gps_lat": 49.41003465968584, "gps_lng": 0.22986743455497 }, { "id": 4754, "department_code": "14", "insee_code": "14335", "zip_code": "14430", "name": "Hotot-en-Auge", "slug": "hotot en auge", "gps_lat": 49.17656764705884, "gps_lng": -0.06781455882353005 }, { "id": 4755, "department_code": "14", "insee_code": "14336", "zip_code": "14250", "name": "Hottot-les-Bagues", "slug": "hottot les bagues", "gps_lat": 49.14557806201551, "gps_lng": -0.64931914728682 }, { "id": 4757, "department_code": "14", "insee_code": "14338", "zip_code": "14510", "name": "Houlgate", "slug": "houlgate", "gps_lat": 49.29527987654321, "gps_lng": -0.06357543209877003 }, { "id": 4758, "department_code": "14", "insee_code": "14339", "zip_code": "14540", "name": "Hubert-Folie", "slug": "hubert folie", "gps_lat": 49.128071, "gps_lng": -0.3154585 }, { "id": 5454, "department_code": "16", "insee_code": "16163", "zip_code": "16290", "name": "Hiersac", "slug": "hiersac", "gps_lat": 45.67315903225808, "gps_lng": 0.00690623655914 }, { "id": 5455, "department_code": "16", "insee_code": "16164", "zip_code": "16490", "name": "Hiesse", "slug": "hiesse", "gps_lat": 46.05218105960262, "gps_lng": 0.57680874172185 }, { "id": 5456, "department_code": "16", "insee_code": "16165", "zip_code": "16200", "name": "Houlette", "slug": "houlette", "gps_lat": 45.7595895, "gps_lng": -0.21076874999999995 }, { "id": 5865, "department_code": "17", "insee_code": "17188", "zip_code": "17160", "name": "Haimps", "slug": "haimps", "gps_lat": 45.86085892307696, "gps_lng": -0.25107100000000004 }, { "id": 5866, "department_code": "17", "insee_code": "17189", "zip_code": "17320", "name": "Hiers-Brouage", "slug": "hiers brouage", "gps_lat": 45.84476369458128, "gps_lng": -1.0538870443349801 }, { "id": 6262, "department_code": "18", "insee_code": "18109", "zip_code": "18250", "name": "Henrichemont", "slug": "henrichemont", "gps_lat": 47.29500897959182, "gps_lng": 2.54286523809524 }, { "id": 6263, "department_code": "18", "insee_code": "18110", "zip_code": "18140", "name": "Herry", "slug": "herry", "gps_lat": 47.22858935999999, "gps_lng": 2.925354 }, { "id": 6264, "department_code": "18", "insee_code": "18111", "zip_code": "18250", "name": "Humbligny", "slug": "humbligny", "gps_lat": 47.26343141843973, "gps_lng": 2.64579843971631 }, { "id": 6536, "department_code": "19", "insee_code": "19091", "zip_code": "19400", "name": "Hautefage", "slug": "hautefage", "gps_lat": 45.09305085106384, "gps_lng": 1.98810659574468 }, { "id": 7038, "department_code": "21", "insee_code": "21314", "zip_code": "21150", "name": "Hauteroche", "slug": "hauteroche", "gps_lat": 47.48889635294116, "gps_lng": 4.56665429411765 }, { "id": 7039, "department_code": "21", "insee_code": "21315", "zip_code": "21121", "name": "Hauteville-lès-Dijon", "slug": "hauteville les dijon", "gps_lat": 47.376443125, "gps_lng": 4.98467125 }, { "id": 7040, "department_code": "21", "insee_code": "21316", "zip_code": "21270", "name": "Heuilley-sur-Saône", "slug": "heuilley sur saone", "gps_lat": 47.33640629032256, "gps_lng": 5.46420556451613 }, { "id": 7501, "department_code": "22", "insee_code": "22075", "zip_code": "22600", "name": "Hémonstoir", "slug": "hemonstoir", "gps_lat": 48.15686698412699, "gps_lng": -2.84425693121693 }, { "id": 7502, "department_code": "22", "insee_code": "22076", "zip_code": "22550", "name": "Hénanbihen", "slug": "henanbihen", "gps_lat": 48.55749741444869, "gps_lng": -2.3766183269962 }, { "id": 7503, "department_code": "22", "insee_code": "22077", "zip_code": "22400", "name": "Hénansal", "slug": "henansal", "gps_lat": 48.53541828402366, "gps_lng": -2.43610082840237 }, { "id": 7504, "department_code": "22", "insee_code": "22078", "zip_code": "22450", "name": "Hengoat", "slug": "hengoat", "gps_lat": 48.74807701388887, "gps_lng": -3.20008534722222 }, { "id": 7505, "department_code": "22", "insee_code": "22079", "zip_code": "22150", "name": "Hénon", "slug": "henon", "gps_lat": 48.38792690476189, "gps_lng": -2.68092404761905 }, { "id": 7506, "department_code": "22", "insee_code": "22081", "zip_code": "22120", "name": "Hillion", "slug": "hillion", "gps_lat": 48.5058100383142, "gps_lng": -2.6482983908046 }, { "id": 8229, "department_code": "24", "insee_code": "24209", "zip_code": "24300", "name": "Hautefaye", "slug": "hautefaye", "gps_lat": 45.53702194915255, "gps_lng": 0.51081677966102 }, { "id": 8230, "department_code": "24", "insee_code": "24210", "zip_code": "24390", "name": "Hautefort", "slug": "hautefort", "gps_lat": 45.25909325259517, "gps_lng": 1.14016373702422 }, { "id": 8846, "department_code": "25", "insee_code": "25303", "zip_code": "25650", "name": "Hauterive-la-Fresse", "slug": "hauterive la fresse", "gps_lat": 46.96537471910112, "gps_lng": 6.45411528089888 }, { "id": 8847, "department_code": "25", "insee_code": "25304", "zip_code": "25310", "name": "Hérimoncourt", "slug": "herimoncourt", "gps_lat": 47.43542839285715, "gps_lng": 6.88411892857143 }, { "id": 8852, "department_code": "25", "insee_code": "25309", "zip_code": "25300", "name": "Houtaud", "slug": "houtaud", "gps_lat": 46.91558147058824, "gps_lng": 6.29595647058824 }, { "id": 8853, "department_code": "25", "insee_code": "25310", "zip_code": "25680", "name": "Huanne-Montmartin", "slug": "huanne montmartin", "gps_lat": 47.43141771428572, "gps_lng": 6.34161533333333 }, { "id": 8854, "department_code": "25", "insee_code": "25311", "zip_code": "25250", "name": "Hyémondans", "slug": "hyemondans", "gps_lat": 47.38674747899159, "gps_lng": 6.64091773109244 }, { "id": 8855, "department_code": "25", "insee_code": "25312", "zip_code": "25110", "name": "Hyèvre-Magny", "slug": "hyevre magny", "gps_lat": 47.36165155555555, "gps_lng": 6.42863911111111 }, { "id": 8856, "department_code": "25", "insee_code": "25313", "zip_code": "25110", "name": "Hyèvre-Paroisse", "slug": "hyevre paroisse", "gps_lat": 47.37345757894736, "gps_lng": 6.430522 }, { "id": 9294, "department_code": "26", "insee_code": "26148", "zip_code": "26390", "name": "Hauterives", "slug": "hauterives", "gps_lat": 45.25059668478259, "gps_lng": 5.03672277173913 }, { "id": 9295, "department_code": "26", "insee_code": "26149", "zip_code": "26730", "name": "Hostun", "slug": "hostun", "gps_lat": 45.03240652173913, "gps_lng": 5.19540076086957 }, { "id": 9788, "department_code": "27", "insee_code": "27310", "zip_code": "27150", "name": "Hacqueville", "slug": "hacqueville", "gps_lat": 49.27906148936169, "gps_lng": 1.5620204255319199 }, { "id": 9789, "department_code": "27", "insee_code": "27311", "zip_code": "27800", "name": "Harcourt", "slug": "harcourt", "gps_lat": 49.1686614893617, "gps_lng": 0.77164063829787 }, { "id": 9790, "department_code": "27", "insee_code": "27312", "zip_code": "27120", "name": "Hardencourt-Cocherel", "slug": "hardencourt cocherel", "gps_lat": 49.04123743589743, "gps_lng": 1.31334564102564 }, { "id": 9792, "department_code": "27", "insee_code": "27315", "zip_code": "27700", "name": "Harquency", "slug": "harquency", "gps_lat": 49.24800638709675, "gps_lng": 1.49800477419355 }, { "id": 9793, "department_code": "27", "insee_code": "27316", "zip_code": "27350", "name": "Hauville", "slug": "hauville", "gps_lat": 49.39340236641221, "gps_lng": 0.7702320610687 }, { "id": 9801, "department_code": "27", "insee_code": "27324", "zip_code": "27150", "name": "Hébécourt", "slug": "hebecourt", "gps_lat": 49.35809181818183, "gps_lng": 1.72213818181818 }, { "id": 9802, "department_code": "27", "insee_code": "27325", "zip_code": "27800", "name": "Hecmanville", "slug": "hecmanville", "gps_lat": 49.17397, "gps_lng": 0.66263783333333 }, { "id": 9803, "department_code": "27", "insee_code": "27326", "zip_code": "27120", "name": "Hécourt", "slug": "hecourt", "gps_lat": 48.98841932773109, "gps_lng": 1.42565588235294 }, { "id": 9804, "department_code": "27", "insee_code": "27327", "zip_code": "27110", "name": "Hectomare", "slug": "hectomare", "gps_lat": 49.18859078947371, "gps_lng": 0.94610552631579 }, { "id": 9805, "department_code": "27", "insee_code": "27329", "zip_code": "27700", "name": "Hennezis", "slug": "hennezis", "gps_lat": 49.18551297297297, "gps_lng": 1.46181981981982 }, { "id": 9806, "department_code": "27", "insee_code": "27330", "zip_code": "27430", "name": "Herqueville", "slug": "herqueville", "gps_lat": 49.24403024390243, "gps_lng": 1.27274073170732 }, { "id": 9807, "department_code": "27", "insee_code": "27331", "zip_code": "27630", "name": "Heubécourt-Haricourt", "slug": "heubecourt haricourt", "gps_lat": 49.1315571875, "gps_lng": 1.56702072916667 }, { "id": 9808, "department_code": "27", "insee_code": "27332", "zip_code": "27400", "name": "Heudebouville", "slug": "heudebouville", "gps_lat": 49.19377, "gps_lng": 1.239786 }, { "id": 9809, "department_code": "27", "insee_code": "27332", "zip_code": "27600", "name": "Heudebouville", "slug": "heudebouville", "gps_lat": 49.19377, "gps_lng": 1.239786 }, { "id": 9810, "department_code": "27", "insee_code": "27333", "zip_code": "27860", "name": "Heudicourt", "slug": "heudicourt", "gps_lat": 49.33068585714285, "gps_lng": 1.65999542857143 }, { "id": 9811, "department_code": "27", "insee_code": "27334", "zip_code": "27230", "name": "Heudreville-en-Lieuvin", "slug": "heudreville en lieuvin", "gps_lat": 49.19228474358973, "gps_lng": 0.49588102564103 }, { "id": 9812, "department_code": "27", "insee_code": "27335", "zip_code": "27400", "name": "Heudreville-sur-Eure", "slug": "heudreville sur eure", "gps_lat": 49.13102286624203, "gps_lng": 1.18345197452229 }, { "id": 9814, "department_code": "27", "insee_code": "27337", "zip_code": "27700", "name": "Heuqueville", "slug": "heuqueville", "gps_lat": 49.28656656862743, "gps_lng": 1.32312303921569 }, { "id": 9816, "department_code": "27", "insee_code": "27339", "zip_code": "27400", "name": "Hondouville", "slug": "hondouville", "gps_lat": 49.14318166666667, "gps_lng": 1.11758157407407 }, { "id": 9817, "department_code": "27", "insee_code": "27340", "zip_code": "27310", "name": "Honguemare-Guenouville", "slug": "honguemare guenouville", "gps_lat": 49.37966299999999, "gps_lng": 0.820982125 }, { "id": 9819, "department_code": "27", "insee_code": "27342", "zip_code": "27400", "name": "Houetteville", "slug": "houetteville", "gps_lat": 49.13122272727274, "gps_lng": 1.09348818181818 }, { "id": 9820, "department_code": "27", "insee_code": "27343", "zip_code": "27120", "name": "Houlbec-Cocherel", "slug": "houlbec cocherel", "gps_lat": 49.06365849557521, "gps_lng": 1.35944300884956 }, { "id": 9822, "department_code": "27", "insee_code": "27346", "zip_code": "27440", "name": "Houville-en-Vexin", "slug": "houville en vexin", "gps_lat": 49.29775381818182, "gps_lng": 1.36000145454545 }, { "id": 9823, "department_code": "27", "insee_code": "27347", "zip_code": "27930", "name": "Huest", "slug": "huest", "gps_lat": 49.03703999999999, "gps_lng": 1.2064530927835 }, { "id": 10301, "department_code": "28", "insee_code": "28191", "zip_code": "28130", "name": "Hanches", "slug": "hanches", "gps_lat": 48.60121078014184, "gps_lng": 1.65026858156028 }, { "id": 10302, "department_code": "28", "insee_code": "28192", "zip_code": "28480", "name": "Happonvilliers", "slug": "happonvilliers", "gps_lat": 48.33300743718593, "gps_lng": 1.10045688442211 }, { "id": 10303, "department_code": "28", "insee_code": "28193", "zip_code": "28410", "name": "Havelu", "slug": "havelu", "gps_lat": 48.78634904761905, "gps_lng": 1.53621404761905 }, { "id": 10304, "department_code": "28", "insee_code": "28194", "zip_code": "28700", "name": "Houville-la-Branche", "slug": "houville la branche", "gps_lat": 48.4425539189189, "gps_lng": 1.63637648648649 }, { "id": 10305, "department_code": "28", "insee_code": "28195", "zip_code": "28130", "name": "Houx", "slug": "houx", "gps_lat": 48.56502534246575, "gps_lng": 1.6203406849315098 }, { "id": 10584, "department_code": "29", "insee_code": "29078", "zip_code": "29460", "name": "Hanvec", "slug": "hanvec", "gps_lat": 48.32825678294574, "gps_lng": -4.1497287403100795 }, { "id": 10585, "department_code": "29", "insee_code": "29079", "zip_code": "29670", "name": "Henvic", "slug": "henvic", "gps_lat": 48.63373915492957, "gps_lng": -3.92956823943662 }, { "id": 10586, "department_code": "29", "insee_code": "29080", "zip_code": "29460", "name": "Hôpital-Camfrout", "slug": "hopital camfrout", "gps_lat": 48.32227027149321, "gps_lng": -4.24639692307692 }, { "id": 10587, "department_code": "29", "insee_code": "29081", "zip_code": "29690", "name": "Huelgoat", "slug": "huelgoat", "gps_lat": 48.36660485148516, "gps_lng": -3.75790584158416 }, { "id": 11751, "department_code": "31", "insee_code": "31236", "zip_code": "31160", "name": "Herran", "slug": "herran", "gps_lat": 42.97343547368421, "gps_lng": 0.88170715789474 }, { "id": 11752, "department_code": "31", "insee_code": "31237", "zip_code": "31260", "name": "His", "slug": "his", "gps_lat": 43.06170666666667, "gps_lng": 0.96407444444444 }, { "id": 11753, "department_code": "31", "insee_code": "31238", "zip_code": "31210", "name": "Huos", "slug": "huos", "gps_lat": 43.06665522727273, "gps_lng": 0.5995225 }, { "id": 12260, "department_code": "32", "insee_code": "32152", "zip_code": "32730", "name": "Haget", "slug": "haget", "gps_lat": 43.41911512345682, "gps_lng": 0.16043487654321 }, { "id": 12261, "department_code": "32", "insee_code": "32153", "zip_code": "32550", "name": "Haulies", "slug": "haulies", "gps_lat": 43.55630660550458, "gps_lng": 0.66720458715596 }, { "id": 12262, "department_code": "32", "insee_code": "32154", "zip_code": "32120", "name": "Homps", "slug": "homps", "gps_lat": 43.81201767326735, "gps_lng": 0.84444861386139 }, { "id": 12774, "department_code": "33", "insee_code": "33201", "zip_code": "33550", "name": "Haux", "slug": "haux", "gps_lat": 44.73736601398602, "gps_lng": -0.36648440559441 }, { "id": 12775, "department_code": "33", "insee_code": "33202", "zip_code": "33125", "name": "Hostens", "slug": "hostens", "gps_lat": 44.49182992907801, "gps_lng": -0.67116602836879 }, { "id": 12776, "department_code": "33", "insee_code": "33203", "zip_code": "33990", "name": "Hourtin", "slug": "hourtin", "gps_lat": 45.18604217391304, "gps_lng": -1.097128 }, { "id": 12777, "department_code": "33", "insee_code": "33204", "zip_code": "33190", "name": "Hure", "slug": "hure", "gps_lat": 44.53639940298508, "gps_lng": -0.0007208955223899638 }, { "id": 13234, "department_code": "34", "insee_code": "34119", "zip_code": "34600", "name": "Hérépian", "slug": "herepian", "gps_lat": 43.59396802197802, "gps_lng": 3.11599450549451 }, { "id": 13586, "department_code": "35", "insee_code": "35130", "zip_code": "35630", "name": "Hédé-Bazouges", "slug": "hede bazouges", "gps_lat": 48.30115203947366, "gps_lng": -1.77903868421053 }, { "id": 13588, "department_code": "35", "insee_code": "35132", "zip_code": "35120", "name": "Hirel", "slug": "hirel", "gps_lat": 48.59643136986303, "gps_lng": -1.81982993150685 }, { "id": 13896, "department_code": "36", "insee_code": "36086", "zip_code": "36180", "name": "Heugnes", "slug": "heugnes", "gps_lat": 47.03803072580646, "gps_lng": 1.38847596774194 }, { "id": 14165, "department_code": "37", "insee_code": "37117", "zip_code": "37340", "name": "Hommes", "slug": "hommes", "gps_lat": 47.4241280625, "gps_lng": 0.2777728125 }, { "id": 14166, "department_code": "37", "insee_code": "37118", "zip_code": "37420", "name": "Huismes", "slug": "huismes", "gps_lat": 47.23074651898734, "gps_lng": 0.25599082278481 }, { "id": 14495, "department_code": "38", "insee_code": "38188", "zip_code": "38320", "name": "Herbeys", "slug": "herbeys", "gps_lat": 45.14264731343284, "gps_lng": 5.79880194029851 }, { "id": 14496, "department_code": "38", "insee_code": "38189", "zip_code": "38540", "name": "Heyrieux", "slug": "heyrieux", "gps_lat": 45.63226577777777, "gps_lng": 5.05693644444444 }, { "id": 14497, "department_code": "38", "insee_code": "38190", "zip_code": "38118", "name": "Hières-sur-Amby", "slug": "hieres sur amby", "gps_lat": 45.79800391666665, "gps_lng": 5.29932058333334 }, { "id": 14498, "department_code": "38", "insee_code": "38191", "zip_code": "38750", "name": "Huez", "slug": "huez", "gps_lat": 45.09529026666665, "gps_lng": 6.07618733333333 }, { "id": 14499, "department_code": "38", "insee_code": "38192", "zip_code": "38570", "name": "Hurtières", "slug": "hurtieres", "gps_lat": 45.28852672131147, "gps_lng": 5.96528803278688 }, { "id": 15011, "department_code": "39", "insee_code": "39177", "zip_code": "39210", "name": "Hauteroche", "slug": "hauteroche", "gps_lat": 46.7465527, "gps_lng": 5.6022096 }, { "id": 15012, "department_code": "39", "insee_code": "39177", "zip_code": "39570", "name": "Hauteroche", "slug": "hauteroche", "gps_lat": 46.6886029, "gps_lng": 5.6594311 }, { "id": 15086, "department_code": "39", "insee_code": "39265", "zip_code": "39130", "name": "Hautecour", "slug": "hautecour", "gps_lat": 46.56346927710842, "gps_lng": 5.77934698795181 }, { "id": 15178, "department_code": "39", "insee_code": "39368", "zip_code": "39400", "name": "Hauts de Bienne", "slug": "hauts de bienne", "gps_lat": 46.51617708737863, "gps_lng": 5.99634 }, { "id": 15486, "department_code": "40", "insee_code": "40118", "zip_code": "40290", "name": "Habas", "slug": "habas", "gps_lat": 43.55946255605379, "gps_lng": -0.93350210762332 }, { "id": 15487, "department_code": "40", "insee_code": "40119", "zip_code": "40700", "name": "Hagetmau", "slug": "hagetmau", "gps_lat": 43.64719541806017, "gps_lng": -0.5851607357859501 }, { "id": 15488, "department_code": "40", "insee_code": "40120", "zip_code": "40300", "name": "Hastingues", "slug": "hastingues", "gps_lat": 43.51388276785714, "gps_lng": -1.13789508928571 }, { "id": 15489, "department_code": "40", "insee_code": "40121", "zip_code": "40250", "name": "Hauriet", "slug": "hauriet", "gps_lat": 43.73593290909092, "gps_lng": -0.69221272727273 }, { "id": 15490, "department_code": "40", "insee_code": "40122", "zip_code": "40280", "name": "Haut-Mauco", "slug": "haut mauco", "gps_lat": 43.819910729927, "gps_lng": -0.57055562043796 }, { "id": 15491, "department_code": "40", "insee_code": "40123", "zip_code": "40990", "name": "Herm", "slug": "herm", "gps_lat": 43.81751596491227, "gps_lng": -1.14904052631579 }, { "id": 15492, "department_code": "40", "insee_code": "40124", "zip_code": "40310", "name": "Herré", "slug": "herre", "gps_lat": 44.03154788461538, "gps_lng": -0.03796519230769002 }, { "id": 15493, "department_code": "40", "insee_code": "40125", "zip_code": "40180", "name": "Heugas", "slug": "heugas", "gps_lat": 43.6393417768595, "gps_lng": -1.08723516528926 }, { "id": 15494, "department_code": "40", "insee_code": "40126", "zip_code": "40180", "name": "Hinx", "slug": "hinx", "gps_lat": 43.70921072115384, "gps_lng": -0.93088346153846 }, { "id": 15495, "department_code": "40", "insee_code": "40127", "zip_code": "40190", "name": "Hontanx", "slug": "hontanx", "gps_lat": 43.81754576779027, "gps_lng": -0.27017951310861 }, { "id": 15496, "department_code": "40", "insee_code": "40128", "zip_code": "40700", "name": "Horsarrieu", "slug": "horsarrieu", "gps_lat": 43.69164951923076, "gps_lng": -0.6034966346153801 }, { "id": 15793, "department_code": "41", "insee_code": "41101", "zip_code": "41190", "name": "Herbault", "slug": "herbault", "gps_lat": 47.61335291666668, "gps_lng": 1.1500075 }, { "id": 15794, "department_code": "41", "insee_code": "41102", "zip_code": "41800", "name": "Houssay", "slug": "houssay", "gps_lat": 47.74213475862068, "gps_lng": 0.94509531034483 }, { "id": 15795, "department_code": "41", "insee_code": "41103", "zip_code": "41310", "name": "Huisseau-en-Beauce", "slug": "huisseau en beauce", "gps_lat": 47.724734624999996, "gps_lng": 1.01375025 }, { "id": 15796, "department_code": "41", "insee_code": "41104", "zip_code": "41350", "name": "Huisseau-sur-Cosson", "slug": "huisseau sur cosson", "gps_lat": 47.5962906153846, "gps_lng": 1.4439359999999999 }, { "id": 16625, "department_code": "44", "insee_code": "44071", "zip_code": "44115", "name": "Haute-Goulaine", "slug": "haute goulaine", "gps_lat": 47.19647822429905, "gps_lng": -1.41851785046729 }, { "id": 16626, "department_code": "44", "insee_code": "44072", "zip_code": "44410", "name": "Herbignac", "slug": "herbignac", "gps_lat": 47.45100551487419, "gps_lng": -2.31563395881007 }, { "id": 16627, "department_code": "44", "insee_code": "44073", "zip_code": "44810", "name": "Héric", "slug": "heric", "gps_lat": 47.42356537974682, "gps_lng": -1.64648079113924 }, { "id": 16929, "department_code": "45", "insee_code": "45166", "zip_code": "45520", "name": "Huêtre", "slug": "huetre", "gps_lat": 48.02383682926829, "gps_lng": 1.80030731707317 }, { "id": 16930, "department_code": "45", "insee_code": "45167", "zip_code": "45130", "name": "Huisseau-sur-Mauves", "slug": "huisseau sur mauves", "gps_lat": 47.88753784313725, "gps_lng": 1.69084052287582 }, { "id": 17539, "department_code": "47", "insee_code": "47117", "zip_code": "47340", "name": "Hautefage-la-Tour", "slug": "hautefage la tour", "gps_lat": 44.34073445121953, "gps_lng": 0.77729914634146 }, { "id": 17540, "department_code": "47", "insee_code": "47118", "zip_code": "47400", "name": "Hautesvignes", "slug": "hautesvignes", "gps_lat": 44.45981814516131, "gps_lng": 0.3444114516129 }, { "id": 17541, "department_code": "47", "insee_code": "47119", "zip_code": "47420", "name": "Houeillès", "slug": "houeilles", "gps_lat": 44.20643786666667, "gps_lng": 0.06007493333333 }, { "id": 17803, "department_code": "48", "insee_code": "48074", "zip_code": "48150", "name": "Hures-la-Parade", "slug": "hures la parade", "gps_lat": 44.24604437172776, "gps_lng": 3.3807887172774898 }, { "id": 17989, "department_code": "49", "insee_code": "49159", "zip_code": "49430", "name": "Huillé", "slug": "huille", "gps_lat": 47.66100412587414, "gps_lng": -0.31171650349650004 }, { "id": 18298, "department_code": "50", "insee_code": "50228", "zip_code": "50450", "name": "Hambye", "slug": "hambye", "gps_lat": 48.93925740540539, "gps_lng": -1.2654580540540499 }, { "id": 18299, "department_code": "50", "insee_code": "50229", "zip_code": "50730", "name": "Hamelin", "slug": "hamelin", "gps_lat": 48.54272059405941, "gps_lng": -1.22083297029703 }, { "id": 18300, "department_code": "50", "insee_code": "50230", "zip_code": "50690", "name": "Hardinvast", "slug": "hardinvast", "gps_lat": 49.57474851063831, "gps_lng": -1.64487744680851 }, { "id": 18301, "department_code": "50", "insee_code": "50231", "zip_code": "50590", "name": "Hauteville-sur-Mer", "slug": "hauteville sur mer", "gps_lat": 48.97402043478262, "gps_lng": -1.53775913043478 }, { "id": 18302, "department_code": "50", "insee_code": "50232", "zip_code": "50570", "name": "Hauteville-la-Guichard", "slug": "hauteville la guichard", "gps_lat": 49.12380690058478, "gps_lng": -1.30388274853801 }, { "id": 18303, "department_code": "50", "insee_code": "50233", "zip_code": "50390", "name": "Hautteville-Bocage", "slug": "hautteville bocage", "gps_lat": 49.42618072164948, "gps_lng": -1.46867484536082 }, { "id": 18309, "department_code": "50", "insee_code": "50238", "zip_code": "50340", "name": "Héauville", "slug": "heauville", "gps_lat": 49.57292738738738, "gps_lng": -1.81051171171171 }, { "id": 18312, "department_code": "50", "insee_code": "50240", "zip_code": "50340", "name": "Helleville", "slug": "helleville", "gps_lat": 49.56006650485434, "gps_lng": -1.78492514563107 }, { "id": 18313, "department_code": "50", "insee_code": "50241", "zip_code": "50700", "name": "Hémevez", "slug": "hemevez", "gps_lat": 49.46057019801981, "gps_lng": -1.43957673267327 }, { "id": 18314, "department_code": "50", "insee_code": "50243", "zip_code": "50200", "name": "Heugueville-sur-Sienne", "slug": "heugueville sur sienne", "gps_lat": 49.03675755813951, "gps_lng": -1.51010034883721 }, { "id": 18315, "department_code": "50", "insee_code": "50244", "zip_code": "50660", "name": "Hérenguerville", "slug": "herenguerville", "gps_lat": 48.97713641791044, "gps_lng": -1.50192447761194 }, { "id": 18316, "department_code": "50", "insee_code": "50246", "zip_code": "50480", "name": "Hiesville", "slug": "hiesville", "gps_lat": 49.37182227272726, "gps_lng": -1.25592818181818 }, { "id": 18317, "department_code": "50", "insee_code": "50247", "zip_code": "50320", "name": "Hocquigny", "slug": "hocquigny", "gps_lat": 48.80730285714284, "gps_lng": -1.40238702380952 }, { "id": 18318, "department_code": "50", "insee_code": "50251", "zip_code": "50700", "name": "Huberville", "slug": "huberville", "gps_lat": 49.5085091891892, "gps_lng": -1.4330784684684699 }, { "id": 18319, "department_code": "50", "insee_code": "50252", "zip_code": "50510", "name": "Hudimesnil", "slug": "hudimesnil", "gps_lat": 48.86639773255811, "gps_lng": -1.46543 }, { "id": 18320, "department_code": "50", "insee_code": "50253", "zip_code": "50170", "name": "Huisnes-sur-Mer", "slug": "huisnes sur mer", "gps_lat": 48.609110760869584, "gps_lng": -1.44731586956522 }, { "id": 18886, "department_code": "51", "insee_code": "51283", "zip_code": "51800", "name": "Hans", "slug": "hans", "gps_lat": 49.11408365591397, "gps_lng": 4.74743892473118 }, { "id": 18887, "department_code": "51", "insee_code": "51284", "zip_code": "51300", "name": "Haussignémont", "slug": "haussignemont", "gps_lat": 48.71839547169811, "gps_lng": 4.75315377358491 }, { "id": 18888, "department_code": "51", "insee_code": "51285", "zip_code": "51320", "name": "Haussimont", "slug": "haussimont", "gps_lat": 48.75535136986299, "gps_lng": 4.18314424657534 }, { "id": 18889, "department_code": "51", "insee_code": "51286", "zip_code": "51290", "name": "Hauteville", "slug": "hauteville", "gps_lat": 48.63291766917293, "gps_lng": 4.76931954887218 }, { "id": 18890, "department_code": "51", "insee_code": "51287", "zip_code": "51160", "name": "Hautvillers", "slug": "hautvillers", "gps_lat": 49.08468715328468, "gps_lng": 3.94377532846715 }, { "id": 18891, "department_code": "51", "insee_code": "51288", "zip_code": "51300", "name": "Heiltz-le-Hutier", "slug": "heiltz le hutier", "gps_lat": 48.68792890410959, "gps_lng": 4.7772716438356095 }, { "id": 18892, "department_code": "51", "insee_code": "51289", "zip_code": "51340", "name": "Heiltz-le-Maurupt", "slug": "heiltz le maurupt", "gps_lat": 48.79990347670252, "gps_lng": 4.83340075268817 }, { "id": 18893, "department_code": "51", "insee_code": "51290", "zip_code": "51340", "name": "Heiltz-l'Évêque", "slug": "heiltz l eveque", "gps_lat": 48.779712513089, "gps_lng": 4.73494251308901 }, { "id": 18894, "department_code": "51", "insee_code": "51291", "zip_code": "51220", "name": "Hermonville", "slug": "hermonville", "gps_lat": 49.33284971830986, "gps_lng": 3.91803718309859 }, { "id": 18895, "department_code": "51", "insee_code": "51292", "zip_code": "51460", "name": "Herpont", "slug": "herpont", "gps_lat": 48.99109233766234, "gps_lng": 4.73060415584416 }, { "id": 18896, "department_code": "51", "insee_code": "51293", "zip_code": "51110", "name": "Heutrégiville", "slug": "heutregiville", "gps_lat": 49.32091705882353, "gps_lng": 4.26709411764706 }, { "id": 18897, "department_code": "51", "insee_code": "51294", "zip_code": "51140", "name": "Hourges", "slug": "hourges", "gps_lat": 49.28086441860466, "gps_lng": 3.77041069767442 }, { "id": 18898, "department_code": "51", "insee_code": "51295", "zip_code": "51300", "name": "Huiron", "slug": "huiron", "gps_lat": 48.6985037696335, "gps_lng": 4.53624403141361 }, { "id": 18899, "department_code": "51", "insee_code": "51296", "zip_code": "51320", "name": "Humbauville", "slug": "humbauville", "gps_lat": 48.65422504761904, "gps_lng": 4.38511219047619 }, { "id": 19425, "department_code": "52", "insee_code": "52234", "zip_code": "52150", "name": "Hâcourt", "slug": "hacourt", "gps_lat": 48.15895210526315, "gps_lng": 5.57920070175439 }, { "id": 19426, "department_code": "52", "insee_code": "52235", "zip_code": "52100", "name": "Hallignicourt", "slug": "hallignicourt", "gps_lat": 48.6507345528455, "gps_lng": 4.86763609756098 }, { "id": 19427, "department_code": "52", "insee_code": "52237", "zip_code": "52150", "name": "Harréville-les-Chanteurs", "slug": "harreville les chanteurs", "gps_lat": 48.26556442622951, "gps_lng": 5.62535491803279 }, { "id": 19428, "department_code": "52", "insee_code": "52240", "zip_code": "52600", "name": "Heuilley-le-Grand", "slug": "heuilley le grand", "gps_lat": 47.75232371900826, "gps_lng": 5.39343214876033 }, { "id": 19429, "department_code": "52", "insee_code": "52242", "zip_code": "52600", "name": "Haute-Amance", "slug": "haute amance", "gps_lat": 47.84934179878053, "gps_lng": 5.53144597560976 }, { "id": 19430, "department_code": "52", "insee_code": "52243", "zip_code": "52150", "name": "Huilliécourt", "slug": "huilliecourt", "gps_lat": 48.15935756302521, "gps_lng": 5.53096781512605 }, { "id": 19431, "department_code": "52", "insee_code": "52244", "zip_code": "52290", "name": "Humbécourt", "slug": "humbecourt", "gps_lat": 48.57455805555558, "gps_lng": 4.90605425925926 }, { "id": 19432, "department_code": "52", "insee_code": "52245", "zip_code": "52700", "name": "Humberville", "slug": "humberville", "gps_lat": 48.29364176470588, "gps_lng": 5.37864044117647 }, { "id": 19433, "department_code": "52", "insee_code": "52246", "zip_code": "52200", "name": "Humes-Jorquenay", "slug": "humes jorquenay", "gps_lat": 47.90307527173913, "gps_lng": 5.30678260869565 }, { "id": 19771, "department_code": "53", "insee_code": "53113", "zip_code": "53160", "name": "Hambers", "slug": "hambers", "gps_lat": 48.25500934210528, "gps_lng": -0.42510741228070004 }, { "id": 19772, "department_code": "53", "insee_code": "53114", "zip_code": "53640", "name": "Hardanges", "slug": "hardanges", "gps_lat": 48.33379406015037, "gps_lng": -0.40229466165413996 }, { "id": 19773, "department_code": "53", "insee_code": "53115", "zip_code": "53120", "name": "Hercé", "slug": "herce", "gps_lat": 48.42413835227274, "gps_lng": -0.86372755681818 }, { "id": 19775, "department_code": "53", "insee_code": "53117", "zip_code": "53360", "name": "Houssay", "slug": "houssay", "gps_lat": 47.9160253846154, "gps_lng": -0.7426216666666701 }, { "id": 20166, "department_code": "54", "insee_code": "54243", "zip_code": "54120", "name": "Hablainville", "slug": "hablainville", "gps_lat": 48.51623854961833, "gps_lng": 6.71364160305343 }, { "id": 20167, "department_code": "54", "insee_code": "54244", "zip_code": "54470", "name": "Hagéville", "slug": "hageville", "gps_lat": 49.03154630434781, "gps_lng": 5.8597725 }, { "id": 20168, "department_code": "54", "insee_code": "54245", "zip_code": "54290", "name": "Haigneville", "slug": "haigneville", "gps_lat": 48.48276659574471, "gps_lng": 6.34015734042553 }, { "id": 20169, "department_code": "54", "insee_code": "54246", "zip_code": "54450", "name": "Halloville", "slug": "halloville", "gps_lat": 48.55220482758621, "gps_lng": 6.85964931034483 }, { "id": 20170, "department_code": "54", "insee_code": "54247", "zip_code": "54330", "name": "Hammeville", "slug": "hammeville", "gps_lat": 48.49936289156629, "gps_lng": 6.07193168674699 }, { "id": 20171, "department_code": "54", "insee_code": "54248", "zip_code": "54470", "name": "Hamonville", "slug": "hamonville", "gps_lat": 48.82898983050845, "gps_lng": 5.80961059322034 }, { "id": 20172, "department_code": "54", "insee_code": "54249", "zip_code": "54800", "name": "Hannonville-Suzémont", "slug": "hannonville suzemont", "gps_lat": 49.0992682, "gps_lng": 5.8390274 }, { "id": 20173, "department_code": "54", "insee_code": "54250", "zip_code": "54110", "name": "Haraucourt", "slug": "haraucourt", "gps_lat": 48.66398238888893, "gps_lng": 6.35603205555556 }, { "id": 20174, "department_code": "54", "insee_code": "54251", "zip_code": "54450", "name": "Harbouey", "slug": "harbouey", "gps_lat": 48.57089442028985, "gps_lng": 6.89244963768116 }, { "id": 20175, "department_code": "54", "insee_code": "54252", "zip_code": "54740", "name": "Haroué", "slug": "haroue", "gps_lat": 48.47450495145632, "gps_lng": 6.18676640776699 }, { "id": 20176, "department_code": "54", "insee_code": "54253", "zip_code": "54800", "name": "Hatrize", "slug": "hatrize", "gps_lat": 49.19573242105262, "gps_lng": 5.90146821052632 }, { "id": 20177, "department_code": "54", "insee_code": "54254", "zip_code": "54860", "name": "Haucourt-Moulaine", "slug": "haucourt moulaine", "gps_lat": 49.49944199999999, "gps_lng": 5.80891807142857 }, { "id": 20178, "department_code": "54", "insee_code": "54255", "zip_code": "54830", "name": "Haudonville", "slug": "haudonville", "gps_lat": 48.50417813559319, "gps_lng": 6.48204881355933 }, { "id": 20179, "department_code": "54", "insee_code": "54256", "zip_code": "54290", "name": "Haussonville", "slug": "haussonville", "gps_lat": 48.52659715384615, "gps_lng": 6.31928115384615 }, { "id": 20180, "department_code": "54", "insee_code": "54257", "zip_code": "54180", "name": "Heillecourt", "slug": "heillecourt", "gps_lat": 48.64968490909092, "gps_lng": 6.196232 }, { "id": 20181, "department_code": "54", "insee_code": "54258", "zip_code": "54370", "name": "Hénaménil", "slug": "henamenil", "gps_lat": 48.66520413793101, "gps_lng": 6.5672076724138 }, { "id": 20182, "department_code": "54", "insee_code": "54259", "zip_code": "54450", "name": "Herbéviller", "slug": "herbeviller", "gps_lat": 48.55637301775146, "gps_lng": 6.74936295857989 }, { "id": 20183, "department_code": "54", "insee_code": "54260", "zip_code": "54300", "name": "Hériménil", "slug": "herimenil", "gps_lat": 48.55350849999999, "gps_lng": 6.5068906 }, { "id": 20184, "department_code": "54", "insee_code": "54261", "zip_code": "54440", "name": "Herserange", "slug": "herserange", "gps_lat": 49.51885857142858, "gps_lng": 5.79519324675325 }, { "id": 20185, "department_code": "54", "insee_code": "54262", "zip_code": "54370", "name": "Hoéville", "slug": "hoeville", "gps_lat": 48.72075968503935, "gps_lng": 6.43262700787402 }, { "id": 20186, "department_code": "54", "insee_code": "54263", "zip_code": "54310", "name": "Homécourt", "slug": "homecourt", "gps_lat": 49.22240304761907, "gps_lng": 5.99258047619047 }, { "id": 20187, "department_code": "54", "insee_code": "54264", "zip_code": "54330", "name": "Houdelmont", "slug": "houdelmont", "gps_lat": 48.53745333333335, "gps_lng": 6.09420944444444 }, { "id": 20188, "department_code": "54", "insee_code": "54265", "zip_code": "54180", "name": "Houdemont", "slug": "houdemont", "gps_lat": 48.64069464285716, "gps_lng": 6.174275 }, { "id": 20189, "department_code": "54", "insee_code": "54266", "zip_code": "54330", "name": "Houdreville", "slug": "houdreville", "gps_lat": 48.51449081967216, "gps_lng": 6.10204516393443 }, { "id": 20190, "department_code": "54", "insee_code": "54268", "zip_code": "54930", "name": "Housséville", "slug": "housseville", "gps_lat": 48.40837146666667, "gps_lng": 6.11565586666667 }, { "id": 20191, "department_code": "54", "insee_code": "54269", "zip_code": "54110", "name": "Hudiviller", "slug": "hudiviller", "gps_lat": 48.60143981818182, "gps_lng": 6.39048454545454 }, { "id": 20192, "department_code": "54", "insee_code": "54270", "zip_code": "54590", "name": "Hussigny-Godbrange", "slug": "hussigny godbrange", "gps_lat": 49.50135169014086, "gps_lng": 5.84928920187794 }, { "id": 20516, "department_code": "54", "insee_code": "54602", "zip_code": "54620", "name": "Han-devant-Pierrepont", "slug": "han devant pierrepont", "gps_lat": 49.396916, "gps_lng": 5.715201875 }, { "id": 20709, "department_code": "55", "insee_code": "55224", "zip_code": "55000", "name": "Haironville", "slug": "haironville", "gps_lat": 48.68926442176872, "gps_lng": 5.0913362585034 }, { "id": 20710, "department_code": "55", "insee_code": "55225", "zip_code": "55700", "name": "Halles-sous-les-Côtes", "slug": "halles sous les cotes", "gps_lat": 49.44854784615385, "gps_lng": 5.13321246153846 }, { "id": 20711, "department_code": "55", "insee_code": "55226", "zip_code": "55600", "name": "Han-lès-Juvigny", "slug": "han les juvigny", "gps_lat": 49.48042472972975, "gps_lng": 5.33290675675676 }, { "id": 20712, "department_code": "55", "insee_code": "55228", "zip_code": "55210", "name": "Hannonville-sous-les-Côtes", "slug": "hannonville sous les cotes", "gps_lat": 49.0369634532374, "gps_lng": 5.66167136690648 }, { "id": 20713, "department_code": "55", "insee_code": "55229", "zip_code": "55300", "name": "Han-sur-Meuse", "slug": "han sur meuse", "gps_lat": 48.85701150375939, "gps_lng": 5.53966962406015 }, { "id": 20714, "department_code": "55", "insee_code": "55232", "zip_code": "55160", "name": "Harville", "slug": "harville", "gps_lat": 49.09624288659795, "gps_lng": 5.7254986597938196 }, { "id": 20715, "department_code": "55", "insee_code": "55236", "zip_code": "55100", "name": "Haudainville", "slug": "haudainville", "gps_lat": 49.12589030927835, "gps_lng": 5.42348010309278 }, { "id": 20716, "department_code": "55", "insee_code": "55237", "zip_code": "55160", "name": "Haudiomont", "slug": "haudiomont", "gps_lat": 49.11406805825242, "gps_lng": 5.5463810679611605 }, { "id": 20717, "department_code": "55", "insee_code": "55239", "zip_code": "55100", "name": "Haumont-près-Samogneux", "slug": "haumont pres samogneux", "gps_lat": 49.27816057692307, "gps_lng": 5.36743105769231 }, { "id": 20718, "department_code": "55", "insee_code": "55241", "zip_code": "55220", "name": "Heippes", "slug": "heippes", "gps_lat": 48.99801934426229, "gps_lng": 5.27711327868853 }, { "id": 20719, "department_code": "55", "insee_code": "55242", "zip_code": "55160", "name": "Hennemont", "slug": "hennemont", "gps_lat": 49.14313360000001, "gps_lng": 5.66306808 }, { "id": 20720, "department_code": "55", "insee_code": "55243", "zip_code": "55210", "name": "Herbeuville", "slug": "herbeuville", "gps_lat": 49.04966774647889, "gps_lng": 5.64192985915493 }, { "id": 20721, "department_code": "55", "insee_code": "55244", "zip_code": "55400", "name": "Herméville-en-Woëvre", "slug": "hermeville en woevre", "gps_lat": 49.17918504504503, "gps_lng": 5.60077936936937 }, { "id": 20722, "department_code": "55", "insee_code": "55245", "zip_code": "55210", "name": "Heudicourt-sous-les-Côtes", "slug": "heudicourt sous les cotes", "gps_lat": 48.9325278, "gps_lng": 5.6961776 }, { "id": 20723, "department_code": "55", "insee_code": "55246", "zip_code": "55290", "name": "Hévilliers", "slug": "hevilliers", "gps_lat": 48.60128232142857, "gps_lng": 5.32678080357143 }, { "id": 20724, "department_code": "55", "insee_code": "55247", "zip_code": "55130", "name": "Horville-en-Ornois", "slug": "horville en ornois", "gps_lat": 48.48673336734694, "gps_lng": 5.46583316326531 }, { "id": 20725, "department_code": "55", "insee_code": "55248", "zip_code": "55130", "name": "Houdelaincourt", "slug": "houdelaincourt", "gps_lat": 48.55008671052633, "gps_lng": 5.4666689473684205 }, { "id": 21096, "department_code": "56", "insee_code": "56082", "zip_code": "56120", "name": "Helléan", "slug": "hellean", "gps_lat": 47.971572085889576, "gps_lng": -2.4778897546012297 }, { "id": 21097, "department_code": "56", "insee_code": "56083", "zip_code": "56700", "name": "Hennebont", "slug": "hennebont", "gps_lat": 47.80563369942197, "gps_lng": -3.27751774566474 }, { "id": 21099, "department_code": "56", "insee_code": "56085", "zip_code": "56170", "name": "Hœdic", "slug": "hoedic", "gps_lat": 47.33976270588234, "gps_lng": -2.8745842352941198 }, { "id": 21538, "department_code": "57", "insee_code": "57281", "zip_code": "57340", "name": "Haboudange", "slug": "haboudange", "gps_lat": 48.88786237288136, "gps_lng": 6.60736194915254 }, { "id": 21539, "department_code": "57", "insee_code": "57282", "zip_code": "57570", "name": "Hagen", "slug": "hagen", "gps_lat": 49.4970275, "gps_lng": 6.16486460526316 }, { "id": 21540, "department_code": "57", "insee_code": "57283", "zip_code": "57300", "name": "Hagondange", "slug": "hagondange", "gps_lat": 49.24419000000002, "gps_lng": 6.16195263157895 }, { "id": 21541, "department_code": "57", "insee_code": "57284", "zip_code": "57690", "name": "Hallering", "slug": "hallering", "gps_lat": 49.12405124999998, "gps_lng": 6.55667839285714 }, { "id": 21542, "department_code": "57", "insee_code": "57286", "zip_code": "57480", "name": "Halstroff", "slug": "halstroff", "gps_lat": 49.38593700000001, "gps_lng": 6.48192081818182 }, { "id": 21544, "department_code": "57", "insee_code": "57288", "zip_code": "57880", "name": "Ham-sous-Varsberg", "slug": "ham sous varsberg", "gps_lat": 49.18181295238094, "gps_lng": 6.6518400952381 }, { "id": 21545, "department_code": "57", "insee_code": "57289", "zip_code": "57910", "name": "Hambach", "slug": "hambach", "gps_lat": 49.05752843750001, "gps_lng": 7.033849921875 }, { "id": 21546, "department_code": "57", "insee_code": "57290", "zip_code": "57170", "name": "Hampont", "slug": "hampont", "gps_lat": 48.83156803278689, "gps_lng": 6.58734508196721 }, { "id": 21547, "department_code": "57", "insee_code": "57291", "zip_code": "57370", "name": "Hangviller", "slug": "hangviller", "gps_lat": 48.81456144444445, "gps_lng": 7.23469066666667 }, { "id": 21548, "department_code": "57", "insee_code": "57292", "zip_code": "57590", "name": "Hannocourt", "slug": "hannocourt", "gps_lat": 48.91302260869566, "gps_lng": 6.45155521739131 }, { "id": 21549, "department_code": "57", "insee_code": "57293", "zip_code": "57580", "name": "Han-sur-Nied", "slug": "han sur nied", "gps_lat": 48.9911402, "gps_lng": 6.444805 }, { "id": 21550, "department_code": "57", "insee_code": "57294", "zip_code": "57230", "name": "Hanviller", "slug": "hanviller", "gps_lat": 49.09904357142857, "gps_lng": 7.44364461038961 }, { "id": 21551, "department_code": "57", "insee_code": "57295", "zip_code": "57630", "name": "Haraucourt-sur-Seille", "slug": "haraucourt sur seille", "gps_lat": 48.80772737373737, "gps_lng": 6.60676717171717 }, { "id": 21552, "department_code": "57", "insee_code": "57296", "zip_code": "57550", "name": "Hargarten-aux-Mines", "slug": "hargarten aux mines", "gps_lat": 49.22191753246753, "gps_lng": 6.60627376623377 }, { "id": 21553, "department_code": "57", "insee_code": "57297", "zip_code": "57340", "name": "Harprich", "slug": "harprich", "gps_lat": 48.96778752380956, "gps_lng": 6.65489571428572 }, { "id": 21554, "department_code": "57", "insee_code": "57298", "zip_code": "57870", "name": "Harreberg", "slug": "harreberg", "gps_lat": 48.66284508620691, "gps_lng": 7.17077801724138 }, { "id": 21555, "department_code": "57", "insee_code": "57299", "zip_code": "57870", "name": "Hartzviller", "slug": "hartzviller", "gps_lat": 48.67338386666667, "gps_lng": 7.08812413333334 }, { "id": 21556, "department_code": "57", "insee_code": "57300", "zip_code": "57850", "name": "Haselbourg", "slug": "haselbourg", "gps_lat": 48.69042947368425, "gps_lng": 7.22089835526316 }, { "id": 21557, "department_code": "57", "insee_code": "57301", "zip_code": "57230", "name": "Haspelschiedt", "slug": "haspelschiedt", "gps_lat": 49.08384870192306, "gps_lng": 7.48972427884616 }, { "id": 21558, "department_code": "57", "insee_code": "57302", "zip_code": "57790", "name": "Hattigny", "slug": "hattigny", "gps_lat": 48.62910217948721, "gps_lng": 6.96462365384615 }, { "id": 21559, "department_code": "57", "insee_code": "57303", "zip_code": "57280", "name": "Hauconcourt", "slug": "hauconcourt", "gps_lat": 49.21047783505155, "gps_lng": 6.18282072164948 }, { "id": 21560, "department_code": "57", "insee_code": "57304", "zip_code": "57400", "name": "Haut-Clocher", "slug": "haut clocher", "gps_lat": 48.76839057553955, "gps_lng": 6.98583705035972 }, { "id": 21561, "department_code": "57", "insee_code": "57305", "zip_code": "57650", "name": "Havange", "slug": "havange", "gps_lat": 49.389262987013, "gps_lng": 6.00128168831169 }, { "id": 21562, "department_code": "57", "insee_code": "57306", "zip_code": "57700", "name": "Hayange", "slug": "hayange", "gps_lat": 49.33101162921349, "gps_lng": 6.06774106741573 }, { "id": 21563, "department_code": "57", "insee_code": "57307", "zip_code": "57530", "name": "Hayes", "slug": "hayes", "gps_lat": 49.16903174242426, "gps_lng": 6.37772219696969 }, { "id": 21564, "department_code": "57", "insee_code": "57308", "zip_code": "57430", "name": "Hazembourg", "slug": "hazembourg", "gps_lat": 48.96277287671232, "gps_lng": 6.94114383561644 }, { "id": 21565, "department_code": "57", "insee_code": "57309", "zip_code": "57320", "name": "Heining-lès-Bouzonville", "slug": "heining les bouzonville", "gps_lat": 49.30320962025315, "gps_lng": 6.6031846835443 }, { "id": 21566, "department_code": "57", "insee_code": "57310", "zip_code": "57930", "name": "Hellering-lès-Fénétrange", "slug": "hellering les fenetrange", "gps_lat": 48.80806499999999, "gps_lng": 7.06373166666667 }, { "id": 21567, "department_code": "57", "insee_code": "57311", "zip_code": "57660", "name": "Hellimer", "slug": "hellimer", "gps_lat": 48.99224639534884, "gps_lng": 6.83197098837209 }, { "id": 21568, "department_code": "57", "insee_code": "57312", "zip_code": "57220", "name": "Helstroff", "slug": "helstroff", "gps_lat": 49.15391733333334, "gps_lng": 6.480015 }, { "id": 21569, "department_code": "57", "insee_code": "57313", "zip_code": "57690", "name": "Hémilly", "slug": "hemilly", "gps_lat": 49.05019464052288, "gps_lng": 6.48623588235294 }, { "id": 21570, "department_code": "57", "insee_code": "57314", "zip_code": "57830", "name": "Héming", "slug": "heming", "gps_lat": 48.69599074999999, "gps_lng": 6.966095 }, { "id": 21571, "department_code": "57", "insee_code": "57315", "zip_code": "57820", "name": "Henridorff", "slug": "henridorff", "gps_lat": 48.73054405940592, "gps_lng": 7.20911158415842 }, { "id": 21572, "department_code": "57", "insee_code": "57316", "zip_code": "57450", "name": "Henriville", "slug": "henriville", "gps_lat": 49.10157695652174, "gps_lng": 6.85431673913044 }, { "id": 21573, "department_code": "57", "insee_code": "57317", "zip_code": "57635", "name": "Hérange", "slug": "herange", "gps_lat": 48.77724510204081, "gps_lng": 7.17253632653061 }, { "id": 21574, "department_code": "57", "insee_code": "57318", "zip_code": "57790", "name": "Hermelange", "slug": "hermelange", "gps_lat": 48.67732249999999, "gps_lng": 7.01628823529412 }, { "id": 21575, "department_code": "57", "insee_code": "57319", "zip_code": "57580", "name": "Herny", "slug": "herny", "gps_lat": 49.00226033783785, "gps_lng": 6.47895256756756 }, { "id": 21576, "department_code": "57", "insee_code": "57320", "zip_code": "57830", "name": "Hertzing", "slug": "hertzing", "gps_lat": 48.68957403846153, "gps_lng": 6.95505884615385 }, { "id": 21577, "department_code": "57", "insee_code": "57321", "zip_code": "57400", "name": "Hesse", "slug": "hesse", "gps_lat": 48.68483753086419, "gps_lng": 7.05609802469136 }, { "id": 21578, "department_code": "57", "insee_code": "57322", "zip_code": "57320", "name": "Hestroff", "slug": "hestroff", "gps_lat": 49.26398619402985, "gps_lng": 6.42681395522388 }, { "id": 21579, "department_code": "57", "insee_code": "57323", "zip_code": "57330", "name": "Hettange-Grande", "slug": "hettange grande", "gps_lat": 49.41895021276597, "gps_lng": 6.15366191489361 }, { "id": 21580, "department_code": "57", "insee_code": "57324", "zip_code": "57400", "name": "Hilbesheim", "slug": "hilbesheim", "gps_lat": 48.77917223684211, "gps_lng": 7.10373473684211 }, { "id": 21581, "department_code": "57", "insee_code": "57325", "zip_code": "57510", "name": "Hilsprich", "slug": "hilsprich", "gps_lat": 49.00637614379087, "gps_lng": 6.90820758169935 }, { "id": 21582, "department_code": "57", "insee_code": "57326", "zip_code": "57220", "name": "Hinckange", "slug": "hinckange", "gps_lat": 49.18764904761908, "gps_lng": 6.45102373015873 }, { "id": 21583, "department_code": "57", "insee_code": "57328", "zip_code": "57380", "name": "Holacourt", "slug": "holacourt", "gps_lat": 48.97804011764705, "gps_lng": 6.50720164705882 }, { "id": 21584, "department_code": "57", "insee_code": "57329", "zip_code": "57220", "name": "Holling", "slug": "holling", "gps_lat": 49.25794191304347, "gps_lng": 6.49946913043478 }, { "id": 21585, "department_code": "57", "insee_code": "57330", "zip_code": "57510", "name": "Holving", "slug": "holving", "gps_lat": 49.01426063291137, "gps_lng": 6.96879297468354 }, { "id": 21586, "department_code": "57", "insee_code": "57331", "zip_code": "57920", "name": "Hombourg-Budange", "slug": "hombourg budange", "gps_lat": 49.28712993197278, "gps_lng": 6.35684544217687 }, { "id": 21587, "department_code": "57", "insee_code": "57332", "zip_code": "57470", "name": "Hombourg-Haut", "slug": "hombourg haut", "gps_lat": 49.12760447058822, "gps_lng": 6.77759376470588 }, { "id": 21588, "department_code": "57", "insee_code": "57333", "zip_code": "57405", "name": "Hommarting", "slug": "hommarting", "gps_lat": 48.74009410256409, "gps_lng": 7.14250205128205 }, { "id": 21589, "department_code": "57", "insee_code": "57334", "zip_code": "57870", "name": "Hommert", "slug": "hommert", "gps_lat": 48.67654176470588, "gps_lng": 7.17944764705882 }, { "id": 21590, "department_code": "57", "insee_code": "57335", "zip_code": "57670", "name": "Honskirch", "slug": "honskirch", "gps_lat": 48.93975045454545, "gps_lng": 6.96677987012987 }, { "id": 21592, "department_code": "57", "insee_code": "57337", "zip_code": "57510", "name": "Hoste", "slug": "hoste", "gps_lat": 49.05908239436619, "gps_lng": 6.86957049295775 }, { "id": 21593, "department_code": "57", "insee_code": "57338", "zip_code": "57720", "name": "Hottviller", "slug": "hottviller", "gps_lat": 49.07503506944443, "gps_lng": 7.35306840277777 }, { "id": 21594, "department_code": "57", "insee_code": "57339", "zip_code": "57820", "name": "Hultehouse", "slug": "hultehouse", "gps_lat": 48.71798238095239, "gps_lng": 7.26271511904762 }, { "id": 21595, "department_code": "57", "insee_code": "57340", "zip_code": "57990", "name": "Hundling", "slug": "hundling", "gps_lat": 49.10025493333334, "gps_lng": 6.9833288 }, { "id": 21596, "department_code": "57", "insee_code": "57341", "zip_code": "57480", "name": "Hunting", "slug": "hunting", "gps_lat": 49.41267250000001, "gps_lng": 6.3247325 }, { "id": 21624, "department_code": "57", "insee_code": "57371", "zip_code": "57480", "name": "Haute-Kontz", "slug": "haute kontz", "gps_lat": 49.45401852272727, "gps_lng": 6.31070329545454 }, { "id": 21953, "department_code": "57", "insee_code": "57714", "zip_code": "57690", "name": "Haute-Vigneulles", "slug": "haute vigneulles", "gps_lat": 49.09386593406595, "gps_lng": 6.5580578021977995 }, { "id": 22131, "department_code": "58", "insee_code": "58133", "zip_code": "58800", "name": "Héry", "slug": "hery", "gps_lat": 47.26167362637362, "gps_lng": 3.59656527472528 }, { "id": 22587, "department_code": "59", "insee_code": "59278", "zip_code": "59320", "name": "Hallennes-lez-Haubourdin", "slug": "hallennes lez haubourdin", "gps_lat": 50.6100648, "gps_lng": 2.9554909 }, { "id": 22588, "department_code": "59", "insee_code": "59279", "zip_code": "59250", "name": "Halluin", "slug": "halluin", "gps_lat": 50.77109086419754, "gps_lng": 3.12562271604938 }, { "id": 22589, "department_code": "59", "insee_code": "59280", "zip_code": "59151", "name": "Hamel", "slug": "hamel", "gps_lat": 50.28238104166667, "gps_lng": 3.06817270833333 }, { "id": 22590, "department_code": "59", "insee_code": "59281", "zip_code": "59496", "name": "Hantay", "slug": "hantay", "gps_lat": 50.53971711111112, "gps_lng": 2.86983711111111 }, { "id": 22591, "department_code": "59", "insee_code": "59282", "zip_code": "59670", "name": "Hardifort", "slug": "hardifort", "gps_lat": 50.81707467741936, "gps_lng": 2.48052483870968 }, { "id": 22592, "department_code": "59", "insee_code": "59283", "zip_code": "59138", "name": "Hargnies", "slug": "hargnies", "gps_lat": 50.25645536231884, "gps_lng": 3.84347507246377 }, { "id": 22593, "department_code": "59", "insee_code": "59284", "zip_code": "59178", "name": "Hasnon", "slug": "hasnon", "gps_lat": 50.41138545454547, "gps_lng": 3.38695371900826 }, { "id": 22594, "department_code": "59", "insee_code": "59285", "zip_code": "59198", "name": "Haspres", "slug": "haspres", "gps_lat": 50.26689973684212, "gps_lng": 3.41154114035088 }, { "id": 22595, "department_code": "59", "insee_code": "59286", "zip_code": "59320", "name": "Haubourdin", "slug": "haubourdin", "gps_lat": 50.60386533333335, "gps_lng": 2.98584733333333 }, { "id": 22596, "department_code": "59", "insee_code": "59287", "zip_code": "59191", "name": "Haucourt-en-Cambrésis", "slug": "haucourt en cambresis", "gps_lat": 50.10599000000001, "gps_lng": 3.34023196428571 }, { "id": 22597, "department_code": "59", "insee_code": "59288", "zip_code": "59121", "name": "Haulchin", "slug": "haulchin", "gps_lat": 50.31229124999999, "gps_lng": 3.42210556818182 }, { "id": 22598, "department_code": "59", "insee_code": "59289", "zip_code": "59294", "name": "Haussy", "slug": "haussy", "gps_lat": 50.22216160377357, "gps_lng": 3.48193264150943 }, { "id": 22599, "department_code": "59", "insee_code": "59290", "zip_code": "59440", "name": "Haut-Lieu", "slug": "haut lieu", "gps_lat": 50.10516660714284, "gps_lng": 3.91452142857143 }, { "id": 22600, "department_code": "59", "insee_code": "59291", "zip_code": "59330", "name": "Hautmont", "slug": "hautmont", "gps_lat": 50.24525887931031, "gps_lng": 3.91602293103448 }, { "id": 22601, "department_code": "59", "insee_code": "59292", "zip_code": "59255", "name": "Haveluy", "slug": "haveluy", "gps_lat": 50.35466999999998, "gps_lng": 3.40393188118812 }, { "id": 22602, "department_code": "59", "insee_code": "59293", "zip_code": "59660", "name": "Haverskerque", "slug": "haverskerque", "gps_lat": 50.63781375757578, "gps_lng": 2.5446436969697 }, { "id": 22603, "department_code": "59", "insee_code": "59294", "zip_code": "59268", "name": "Haynecourt", "slug": "haynecourt", "gps_lat": 50.21261283018869, "gps_lng": 3.15511132075472 }, { "id": 22604, "department_code": "59", "insee_code": "59295", "zip_code": "59190", "name": "Hazebrouck", "slug": "hazebrouck", "gps_lat": 50.73223890625005, "gps_lng": 2.53771895833333 }, { "id": 22605, "department_code": "59", "insee_code": "59296", "zip_code": "59530", "name": "Hecq", "slug": "hecq", "gps_lat": 50.18150179487179, "gps_lng": 3.65232948717949 }, { "id": 22606, "department_code": "59", "insee_code": "59297", "zip_code": "59171", "name": "Hélesmes", "slug": "helesmes", "gps_lat": 50.37102076388894, "gps_lng": 3.35937027777778 }, { "id": 22607, "department_code": "59", "insee_code": "59299", "zip_code": "59510", "name": "Hem", "slug": "hem", "gps_lat": 50.65397499999998, "gps_lng": 3.19089094594595 }, { "id": 22608, "department_code": "59", "insee_code": "59300", "zip_code": "59247", "name": "Hem-Lenglet", "slug": "hem lenglet", "gps_lat": 50.25322025316455, "gps_lng": 3.22759126582278 }, { "id": 22609, "department_code": "59", "insee_code": "59301", "zip_code": "59199", "name": "Hergnies", "slug": "hergnies", "gps_lat": 50.48751878260867, "gps_lng": 3.53193534782609 }, { "id": 22610, "department_code": "59", "insee_code": "59302", "zip_code": "59195", "name": "Hérin", "slug": "herin", "gps_lat": 50.35678564814815, "gps_lng": 3.44502157407407 }, { "id": 22611, "department_code": "59", "insee_code": "59303", "zip_code": "59134", "name": "Herlies", "slug": "herlies", "gps_lat": 50.58533368421052, "gps_lng": 2.85078697368421 }, { "id": 22612, "department_code": "59", "insee_code": "59304", "zip_code": "59147", "name": "Herrin", "slug": "herrin", "gps_lat": 50.54620000000001, "gps_lng": 2.96587842105263 }, { "id": 22613, "department_code": "59", "insee_code": "59305", "zip_code": "59470", "name": "Herzeele", "slug": "herzeele", "gps_lat": 50.88583803846154, "gps_lng": 2.53242192307692 }, { "id": 22614, "department_code": "59", "insee_code": "59306", "zip_code": "59740", "name": "Hestrud", "slug": "hestrud", "gps_lat": 50.20532254545454, "gps_lng": 4.14392245454545 }, { "id": 22615, "department_code": "59", "insee_code": "59307", "zip_code": "59143", "name": "Holque", "slug": "holque", "gps_lat": 50.85405022727272, "gps_lng": 2.20613136363636 }, { "id": 22616, "department_code": "59", "insee_code": "59308", "zip_code": "59190", "name": "Hondeghem", "slug": "hondeghem", "gps_lat": 50.75299986666667, "gps_lng": 2.51846606666667 }, { "id": 22617, "department_code": "59", "insee_code": "59309", "zip_code": "59122", "name": "Hondschoote", "slug": "hondschoote", "gps_lat": 50.9698101986755, "gps_lng": 2.5862221192053 }, { "id": 22618, "department_code": "59", "insee_code": "59310", "zip_code": "59570", "name": "Hon-Hergies", "slug": "hon hergies", "gps_lat": 50.33659835820897, "gps_lng": 3.81176179104478 }, { "id": 22619, "department_code": "59", "insee_code": "59311", "zip_code": "59980", "name": "Honnechy", "slug": "honnechy", "gps_lat": 50.06991119047617, "gps_lng": 3.48487523809524 }, { "id": 22620, "department_code": "59", "insee_code": "59312", "zip_code": "59266", "name": "Honnecourt-sur-Escaut", "slug": "honnecourt sur escaut", "gps_lat": 50.03203007936508, "gps_lng": 3.20176444444444 }, { "id": 22621, "department_code": "59", "insee_code": "59313", "zip_code": "59111", "name": "Hordain", "slug": "hordain", "gps_lat": 50.26005012987014, "gps_lng": 3.3270593506493498 }, { "id": 22622, "department_code": "59", "insee_code": "59314", "zip_code": "59171", "name": "Hornaing", "slug": "hornaing", "gps_lat": 50.37069276595744, "gps_lng": 3.33619063829787 }, { "id": 22623, "department_code": "59", "insee_code": "59315", "zip_code": "59570", "name": "Houdain-lez-Bavay", "slug": "houdain lez bavay", "gps_lat": 50.33318326241135, "gps_lng": 3.78720014184397 }, { "id": 22624, "department_code": "59", "insee_code": "59316", "zip_code": "59263", "name": "Houplin-Ancoisne", "slug": "houplin ancoisne", "gps_lat": 50.56393661538461, "gps_lng": 3.00120584615385 }, { "id": 22625, "department_code": "59", "insee_code": "59317", "zip_code": "59116", "name": "Houplines", "slug": "houplines", "gps_lat": 50.68496922222221, "gps_lng": 2.92379788888889 }, { "id": 22626, "department_code": "59", "insee_code": "59318", "zip_code": "59470", "name": "Houtkerque", "slug": "houtkerque", "gps_lat": 50.88416957943924, "gps_lng": 2.58639359813084 }, { "id": 22627, "department_code": "59", "insee_code": "59319", "zip_code": "59492", "name": "Hoymille", "slug": "hoymille", "gps_lat": 50.97188905882354, "gps_lng": 2.45040647058824 }, { "id": 23260, "department_code": "60", "insee_code": "60293", "zip_code": "60240", "name": "Hadancourt-le-Haut-Clocher", "slug": "hadancourt le haut clocher", "gps_lat": 49.1917351923077, "gps_lng": 1.84773740384615 }, { "id": 23261, "department_code": "60", "insee_code": "60294", "zip_code": "60490", "name": "Hainvillers", "slug": "hainvillers", "gps_lat": 49.59011409836064, "gps_lng": 2.68062524590164 }, { "id": 23262, "department_code": "60", "insee_code": "60295", "zip_code": "60210", "name": "Halloy", "slug": "halloy", "gps_lat": 49.65371282051281, "gps_lng": 1.9322551282051301 }, { "id": 23263, "department_code": "60", "insee_code": "60296", "zip_code": "60650", "name": "Hannaches", "slug": "hannaches", "gps_lat": 49.50756344537815, "gps_lng": 1.8067543697479 }, { "id": 23265, "department_code": "60", "insee_code": "60298", "zip_code": "60650", "name": "Hanvoile", "slug": "hanvoile", "gps_lat": 49.50860353982301, "gps_lng": 1.87797548672566 }, { "id": 23266, "department_code": "60", "insee_code": "60299", "zip_code": "60120", "name": "Hardivillers", "slug": "hardivillers", "gps_lat": 49.6221229761905, "gps_lng": 2.2295667857142902 }, { "id": 23267, "department_code": "60", "insee_code": "60300", "zip_code": "60240", "name": "Hardivillers-en-Vexin", "slug": "hardivillers en vexin", "gps_lat": 49.31195234375001, "gps_lng": 1.9317125000000002 }, { "id": 23268, "department_code": "60", "insee_code": "60301", "zip_code": "60112", "name": "Haucourt", "slug": "haucourt", "gps_lat": 49.50584424999999, "gps_lng": 1.9303107499999999 }, { "id": 23269, "department_code": "60", "insee_code": "60302", "zip_code": "60510", "name": "Haudivillers", "slug": "haudivillers", "gps_lat": 49.48885453124998, "gps_lng": 2.24532265625 }, { "id": 23270, "department_code": "60", "insee_code": "60303", "zip_code": "60210", "name": "Hautbos", "slug": "hautbos", "gps_lat": 49.62678727272726, "gps_lng": 1.86800472727273 }, { "id": 23271, "department_code": "60", "insee_code": "60304", "zip_code": "60690", "name": "Haute-Épine", "slug": "haute epine", "gps_lat": 49.58337861111113, "gps_lng": 2.01271277777778 }, { "id": 23272, "department_code": "60", "insee_code": "60305", "zip_code": "60350", "name": "Hautefontaine", "slug": "hautefontaine", "gps_lat": 49.36425453125001, "gps_lng": 3.0579734375 }, { "id": 23273, "department_code": "60", "insee_code": "60306", "zip_code": "60380", "name": "Hécourt", "slug": "hecourt", "gps_lat": 49.52335999999998, "gps_lng": 1.78053224299065 }, { "id": 23274, "department_code": "60", "insee_code": "60307", "zip_code": "60250", "name": "Heilles", "slug": "heilles", "gps_lat": 49.33521815533982, "gps_lng": 2.27477650485437 }, { "id": 23275, "department_code": "60", "insee_code": "60308", "zip_code": "60190", "name": "Hémévillers", "slug": "hemevillers", "gps_lat": 49.47182507042253, "gps_lng": 2.67615788732394 }, { "id": 23276, "department_code": "60", "insee_code": "60309", "zip_code": "60119", "name": "Hénonville", "slug": "henonville", "gps_lat": 49.21183536585367, "gps_lng": 2.05317853658537 }, { "id": 23277, "department_code": "60", "insee_code": "60310", "zip_code": "60112", "name": "Herchies", "slug": "herchies", "gps_lat": 49.48486135416665, "gps_lng": 2.00625916666667 }, { "id": 23279, "department_code": "60", "insee_code": "60312", "zip_code": "60380", "name": "Héricourt-sur-Thérain", "slug": "hericourt sur therain", "gps_lat": 49.58696670886076, "gps_lng": 1.76573443037975 }, { "id": 23280, "department_code": "60", "insee_code": "60313", "zip_code": "60370", "name": "Hermes", "slug": "hermes", "gps_lat": 49.35934156716419, "gps_lng": 2.25462768656716 }, { "id": 23281, "department_code": "60", "insee_code": "60314", "zip_code": "60360", "name": "Hétomesnil", "slug": "hetomesnil", "gps_lat": 49.63095846153846, "gps_lng": 2.04467538461538 }, { "id": 23282, "department_code": "60", "insee_code": "60315", "zip_code": "60650", "name": "Hodenc-en-Bray", "slug": "hodenc en bray", "gps_lat": 49.46744046666667, "gps_lng": 1.9146374666666701 }, { "id": 23283, "department_code": "60", "insee_code": "60316", "zip_code": "60430", "name": "Hodenc-l'Évêque", "slug": "hodenc l eveque", "gps_lat": 49.33403392857144, "gps_lng": 2.14096946428571 }, { "id": 23284, "department_code": "60", "insee_code": "60317", "zip_code": "60250", "name": "Hondainville", "slug": "hondainville", "gps_lat": 49.34343357142859, "gps_lng": 2.31042335714286 }, { "id": 23285, "department_code": "60", "insee_code": "60318", "zip_code": "60710", "name": "Houdancourt", "slug": "houdancourt", "gps_lat": 49.33730144927536, "gps_lng": 2.6463637681159398 }, { "id": 23817, "department_code": "61", "insee_code": "61199", "zip_code": "61210", "name": "Habloville", "slug": "habloville", "gps_lat": 48.7907925, "gps_lng": -0.18062386363635996 }, { "id": 23818, "department_code": "61", "insee_code": "61202", "zip_code": "61250", "name": "Hauterive", "slug": "hauterive", "gps_lat": 48.48004214765101, "gps_lng": 0.20493234899329 }, { "id": 23819, "department_code": "61", "insee_code": "61203", "zip_code": "61250", "name": "Héloup", "slug": "heloup", "gps_lat": 48.39596167832168, "gps_lng": 0.03432937062937 }, { "id": 24453, "department_code": "62", "insee_code": "62399", "zip_code": "62123", "name": "Habarcq", "slug": "habarcq", "gps_lat": 50.31235226190475, "gps_lng": 2.60689011904762 }, { "id": 24454, "department_code": "62", "insee_code": "62400", "zip_code": "62940", "name": "Haillicourt", "slug": "haillicourt", "gps_lat": 50.47509478260869, "gps_lng": 2.57818623188406 }, { "id": 24455, "department_code": "62", "insee_code": "62401", "zip_code": "62138", "name": "Haisnes", "slug": "haisnes", "gps_lat": 50.50302438356165, "gps_lng": 2.79494082191781 }, { "id": 24456, "department_code": "62", "insee_code": "62402", "zip_code": "62830", "name": "Halinghen", "slug": "halinghen", "gps_lat": 50.60642626373625, "gps_lng": 1.6838573626373599 }, { "id": 24457, "department_code": "62", "insee_code": "62403", "zip_code": "62570", "name": "Hallines", "slug": "hallines", "gps_lat": 50.70328750000002, "gps_lng": 2.20554153846154 }, { "id": 24458, "department_code": "62", "insee_code": "62404", "zip_code": "62760", "name": "Halloy", "slug": "halloy", "gps_lat": 50.15780549019608, "gps_lng": 2.42076470588235 }, { "id": 24459, "department_code": "62", "insee_code": "62405", "zip_code": "62118", "name": "Hamblain-les-Prés", "slug": "hamblain les pres", "gps_lat": 50.28935353846155, "gps_lng": 2.95555523076923 }, { "id": 24460, "department_code": "62", "insee_code": "62406", "zip_code": "62121", "name": "Hamelincourt", "slug": "hamelincourt", "gps_lat": 50.18423289473684, "gps_lng": 2.79946118421053 }, { "id": 24461, "department_code": "62", "insee_code": "62407", "zip_code": "62190", "name": "Ham-en-Artois", "slug": "ham en artois", "gps_lat": 50.59101649122809, "gps_lng": 2.45535666666667 }, { "id": 24462, "department_code": "62", "insee_code": "62408", "zip_code": "62340", "name": "Hames-Boucres", "slug": "hames boucres", "gps_lat": 50.88803099009902, "gps_lng": 1.85335861386139 }, { "id": 24463, "department_code": "62", "insee_code": "62409", "zip_code": "62111", "name": "Hannescamps", "slug": "hannescamps", "gps_lat": 50.16244215686275, "gps_lng": 2.64357823529412 }, { "id": 24464, "department_code": "62", "insee_code": "62410", "zip_code": "62124", "name": "Haplincourt", "slug": "haplincourt", "gps_lat": 50.09256575757573, "gps_lng": 2.94068924242424 }, { "id": 24465, "department_code": "62", "insee_code": "62411", "zip_code": "62390", "name": "Haravesnes", "slug": "haravesnes", "gps_lat": 50.28472826923075, "gps_lng": 2.12684307692308 }, { "id": 24466, "department_code": "62", "insee_code": "62412", "zip_code": "62132", "name": "Hardinghen", "slug": "hardinghen", "gps_lat": 50.79815165217392, "gps_lng": 1.82473469565217 }, { "id": 24467, "department_code": "62", "insee_code": "62413", "zip_code": "62440", "name": "Harnes", "slug": "harnes", "gps_lat": 50.45060999999998, "gps_lng": 2.9042867532467502 }, { "id": 24468, "department_code": "62", "insee_code": "62414", "zip_code": "62156", "name": "Haucourt", "slug": "haucourt", "gps_lat": 50.23883246376812, "gps_lng": 2.96823826086957 }, { "id": 24469, "department_code": "62", "insee_code": "62415", "zip_code": "62144", "name": "Haute-Avesnes", "slug": "haute avesnes", "gps_lat": 50.32967775510205, "gps_lng": 2.63714816326531 }, { "id": 24470, "department_code": "62", "insee_code": "62416", "zip_code": "62130", "name": "Hautecloque", "slug": "hautecloque", "gps_lat": 50.33358212765958, "gps_lng": 2.31439340425532 }, { "id": 24471, "department_code": "62", "insee_code": "62418", "zip_code": "62810", "name": "Hauteville", "slug": "hauteville", "gps_lat": 50.27120103448276, "gps_lng": 2.56803017241379 }, { "id": 24472, "department_code": "62", "insee_code": "62419", "zip_code": "62850", "name": "Haut-Loquin", "slug": "haut loquin", "gps_lat": 50.73782379746834, "gps_lng": 1.9662235443038 }, { "id": 24473, "department_code": "62", "insee_code": "62421", "zip_code": "62147", "name": "Havrincourt", "slug": "havrincourt", "gps_lat": 50.10034826086958, "gps_lng": 3.07441782608696 }, { "id": 24474, "department_code": "62", "insee_code": "62422", "zip_code": "62111", "name": "Hébuterne", "slug": "hebuterne", "gps_lat": 50.11697854166666, "gps_lng": 2.64750614583333 }, { "id": 24475, "department_code": "62", "insee_code": "62423", "zip_code": "62570", "name": "Helfaut", "slug": "helfaut", "gps_lat": 50.69179733333333, "gps_lng": 2.24864285714286 }, { "id": 24476, "department_code": "62", "insee_code": "62424", "zip_code": "62182", "name": "Hendecourt-lès-Cagnicourt", "slug": "hendecourt les cagnicourt", "gps_lat": 50.21670523076921, "gps_lng": 2.94808876923077 }, { "id": 24477, "department_code": "62", "insee_code": "62425", "zip_code": "62175", "name": "Hendecourt-lès-Ransart", "slug": "hendecourt les ransart", "gps_lat": 50.20901938775511, "gps_lng": 2.73016285714286 }, { "id": 24478, "department_code": "62", "insee_code": "62426", "zip_code": "62128", "name": "Héninel", "slug": "heninel", "gps_lat": 50.23590236363636, "gps_lng": 2.86981781818182 }, { "id": 24479, "department_code": "62", "insee_code": "62427", "zip_code": "62110", "name": "Hénin-Beaumont", "slug": "henin beaumont", "gps_lat": 50.41962437500001, "gps_lng": 2.95738333333333 }, { "id": 24480, "department_code": "62", "insee_code": "62428", "zip_code": "62128", "name": "Hénin-sur-Cojeul", "slug": "henin sur cojeul", "gps_lat": 50.21912190476191, "gps_lng": 2.8397001587301602 }, { "id": 24481, "department_code": "62", "insee_code": "62429", "zip_code": "62142", "name": "Henneveux", "slug": "henneveux", "gps_lat": 50.72594445312499, "gps_lng": 1.8492073437499998 }, { "id": 24482, "department_code": "62", "insee_code": "62430", "zip_code": "62760", "name": "Hénu", "slug": "henu", "gps_lat": 50.157130625, "gps_lng": 2.5330171875 }, { "id": 24483, "department_code": "62", "insee_code": "62432", "zip_code": "62850", "name": "Herbinghen", "slug": "herbinghen", "gps_lat": 50.76307055555557, "gps_lng": 1.8967185555555601 }, { "id": 24484, "department_code": "62", "insee_code": "62433", "zip_code": "62130", "name": "Héricourt", "slug": "hericourt", "gps_lat": 50.33608736842104, "gps_lng": 2.24906184210526 }, { "id": 24486, "department_code": "62", "insee_code": "62435", "zip_code": "62130", "name": "Herlincourt", "slug": "herlincourt", "gps_lat": 50.34359754716982, "gps_lng": 2.29167358490566 }, { "id": 24487, "department_code": "62", "insee_code": "62436", "zip_code": "62130", "name": "Herlin-le-Sec", "slug": "herlin le sec", "gps_lat": 50.35541444444445, "gps_lng": 2.332532 }, { "id": 24488, "department_code": "62", "insee_code": "62437", "zip_code": "62650", "name": "Herly", "slug": "herly", "gps_lat": 50.54327224806204, "gps_lng": 1.98773658914729 }, { "id": 24489, "department_code": "62", "insee_code": "62438", "zip_code": "62690", "name": "Hermaville", "slug": "hermaville", "gps_lat": 50.32601457142859, "gps_lng": 2.58930242857143 }, { "id": 24490, "department_code": "62", "insee_code": "62439", "zip_code": "62132", "name": "Hermelinghen", "slug": "hermelinghen", "gps_lat": 50.80453809523812, "gps_lng": 1.86043714285714 }, { "id": 24491, "department_code": "62", "insee_code": "62440", "zip_code": "62147", "name": "Hermies", "slug": "hermies", "gps_lat": 50.10725715447155, "gps_lng": 3.03620764227642 }, { "id": 24492, "department_code": "62", "insee_code": "62441", "zip_code": "62150", "name": "Hermin", "slug": "hermin", "gps_lat": 50.41476999999999, "gps_lng": 2.55215586956522 }, { "id": 24493, "department_code": "62", "insee_code": "62442", "zip_code": "62130", "name": "Hernicourt", "slug": "hernicourt", "gps_lat": 50.41393130434779, "gps_lng": 2.30296366459627 }, { "id": 24494, "department_code": "62", "insee_code": "62443", "zip_code": "62530", "name": "Hersin-Coupigny", "slug": "hersin coupigny", "gps_lat": 50.44696236842108, "gps_lng": 2.64341298245614 }, { "id": 24495, "department_code": "62", "insee_code": "62444", "zip_code": "62179", "name": "Hervelinghen", "slug": "hervelinghen", "gps_lat": 50.88192452830189, "gps_lng": 1.7184073584905701 }, { "id": 24496, "department_code": "62", "insee_code": "62445", "zip_code": "62196", "name": "Hesdigneul-lès-Béthune", "slug": "hesdigneul les bethune", "gps_lat": 50.49689540540541, "gps_lng": 2.59691108108108 }, { "id": 24497, "department_code": "62", "insee_code": "62446", "zip_code": "62360", "name": "Hesdigneul-lès-Boulogne", "slug": "hesdigneul les boulogne", "gps_lat": 50.65529536842105, "gps_lng": 1.6769216842105301 }, { "id": 24498, "department_code": "62", "insee_code": "62447", "zip_code": "62140", "name": "Hesdin", "slug": "hesdin", "gps_lat": 50.37272581395349, "gps_lng": 2.03724325581395 }, { "id": 24499, "department_code": "62", "insee_code": "62448", "zip_code": "62360", "name": "Hesdin-l'Abbé", "slug": "hesdin l abbe", "gps_lat": 50.66736973214287, "gps_lng": 1.68890508928571 }, { "id": 24500, "department_code": "62", "insee_code": "62449", "zip_code": "62990", "name": "Hesmond", "slug": "hesmond", "gps_lat": 50.46541225165564, "gps_lng": 1.94541198675497 }, { "id": 24501, "department_code": "62", "insee_code": "62450", "zip_code": "62550", "name": "Hestrus", "slug": "hestrus", "gps_lat": 50.44867613861387, "gps_lng": 2.32668594059406 }, { "id": 24502, "department_code": "62", "insee_code": "62451", "zip_code": "62134", "name": "Heuchin", "slug": "heuchin", "gps_lat": 50.48126374999997, "gps_lng": 2.27184259615384 }, { "id": 24503, "department_code": "62", "insee_code": "62452", "zip_code": "62575", "name": "Heuringhem", "slug": "heuringhem", "gps_lat": 50.69300103092783, "gps_lng": 2.2974612371134002 }, { "id": 24504, "department_code": "62", "insee_code": "62453", "zip_code": "62310", "name": "Hézecques", "slug": "hezecques", "gps_lat": 50.53315569444443, "gps_lng": 2.18579333333333 }, { "id": 24505, "department_code": "62", "insee_code": "62454", "zip_code": "62232", "name": "Hinges", "slug": "hinges", "gps_lat": 50.56912719512196, "gps_lng": 2.62548256097561 }, { "id": 24506, "department_code": "62", "insee_code": "62455", "zip_code": "62850", "name": "Hocquinghen", "slug": "hocquinghen", "gps_lat": 50.76487291666666, "gps_lng": 1.9366919444444401 }, { "id": 24507, "department_code": "62", "insee_code": "62456", "zip_code": "62620", "name": "Houchin", "slug": "houchin", "gps_lat": 50.47993350000002, "gps_lng": 2.622218625 }, { "id": 24508, "department_code": "62", "insee_code": "62457", "zip_code": "62150", "name": "Houdain", "slug": "houdain", "gps_lat": 50.45481456140352, "gps_lng": 2.5360978070175397 }, { "id": 24509, "department_code": "62", "insee_code": "62458", "zip_code": "62910", "name": "Houlle", "slug": "houlle", "gps_lat": 50.79864238095239, "gps_lng": 2.17011980952381 }, { "id": 24510, "department_code": "62", "insee_code": "62459", "zip_code": "62270", "name": "Houvin-Houvigneul", "slug": "houvin houvigneul", "gps_lat": 50.29831234375001, "gps_lng": 2.38074890625 }, { "id": 24511, "department_code": "62", "insee_code": "62460", "zip_code": "62630", "name": "Hubersent", "slug": "hubersent", "gps_lat": 50.58147980392156, "gps_lng": 1.74494558823529 }, { "id": 24512, "department_code": "62", "insee_code": "62461", "zip_code": "62140", "name": "Huby-Saint-Leu", "slug": "huby saint leu", "gps_lat": 50.39500876923075, "gps_lng": 2.01856292307692 }, { "id": 24513, "department_code": "62", "insee_code": "62462", "zip_code": "62130", "name": "Huclier", "slug": "huclier", "gps_lat": 50.43788113636362, "gps_lng": 2.35603954545455 }, { "id": 24514, "department_code": "62", "insee_code": "62463", "zip_code": "62650", "name": "Hucqueliers", "slug": "hucqueliers", "gps_lat": 50.5675231707317, "gps_lng": 1.9142303658536601 }, { "id": 24515, "department_code": "62", "insee_code": "62464", "zip_code": "62410", "name": "Hulluch", "slug": "hulluch", "gps_lat": 50.48745493333333, "gps_lng": 2.8134128 }, { "id": 24516, "department_code": "62", "insee_code": "62465", "zip_code": "62158", "name": "Humbercamps", "slug": "humbercamps", "gps_lat": 50.1880924, "gps_lng": 2.5783892 }, { "id": 24517, "department_code": "62", "insee_code": "62466", "zip_code": "62650", "name": "Humbert", "slug": "humbert", "gps_lat": 50.50064348314608, "gps_lng": 1.91128337078652 }, { "id": 24518, "department_code": "62", "insee_code": "62467", "zip_code": "62130", "name": "Humerœuille", "slug": "humeroeuille", "gps_lat": 50.41031051724138, "gps_lng": 2.20866706896552 }, { "id": 24519, "department_code": "62", "insee_code": "62468", "zip_code": "62130", "name": "Humières", "slug": "humieres", "gps_lat": 50.38464544117647, "gps_lng": 2.20578911764706 }, { "id": 25129, "department_code": "63", "insee_code": "63175", "zip_code": "63470", "name": "Herment", "slug": "herment", "gps_lat": 45.76537779411763, "gps_lng": 2.57192044117647 }, { "id": 25130, "department_code": "63", "insee_code": "63176", "zip_code": "63210", "name": "Heume-l'Église", "slug": "heume l eglise", "gps_lat": 45.72579494736843, "gps_lng": 2.72703842105263 }, { "id": 25669, "department_code": "64", "insee_code": "64254", "zip_code": "64370", "name": "Hagetaubin", "slug": "hagetaubin", "gps_lat": 43.51447314553991, "gps_lng": -0.6126009389671401 }, { "id": 25670, "department_code": "64", "insee_code": "64255", "zip_code": "64480", "name": "Halsou", "slug": "halsou", "gps_lat": 43.38925125000001, "gps_lng": -1.40641075 }, { "id": 25671, "department_code": "64", "insee_code": "64256", "zip_code": "64240", "name": "Hasparren", "slug": "hasparren", "gps_lat": 43.40198891111107, "gps_lng": -1.32660793333333 }, { "id": 25672, "department_code": "64", "insee_code": "64257", "zip_code": "64800", "name": "Haut-de-Bosdarros", "slug": "haut de bosdarros", "gps_lat": 43.16734699999999, "gps_lng": -0.32275994117647 }, { "id": 25673, "department_code": "64", "insee_code": "64258", "zip_code": "64470", "name": "Haux", "slug": "haux", "gps_lat": 43.06330194805196, "gps_lng": -0.83295824675325 }, { "id": 25674, "department_code": "64", "insee_code": "64259", "zip_code": "64640", "name": "Hélette", "slug": "helette", "gps_lat": 43.30543084745764, "gps_lng": -1.23752059322034 }, { "id": 25675, "department_code": "64", "insee_code": "64260", "zip_code": "64700", "name": "Hendaye", "slug": "hendaye", "gps_lat": 43.36766612499999, "gps_lng": -1.7580321875 }, { "id": 25676, "department_code": "64", "insee_code": "64261", "zip_code": "64680", "name": "Herrère", "slug": "herrere", "gps_lat": 43.15957400000001, "gps_lng": -0.5487624 }, { "id": 25677, "department_code": "64", "insee_code": "64262", "zip_code": "64160", "name": "Higuères-Souye", "slug": "higueres souye", "gps_lat": 43.37538653543306, "gps_lng": -0.25238834645668995 }, { "id": 25680, "department_code": "64", "insee_code": "64265", "zip_code": "64120", "name": "Hosta", "slug": "hosta", "gps_lat": 43.15907913043478, "gps_lng": -1.09037739130435 }, { "id": 25681, "department_code": "64", "insee_code": "64266", "zip_code": "64420", "name": "Hours", "slug": "hours", "gps_lat": 43.22824016393442, "gps_lng": -0.17199475409835996 }, { "id": 26180, "department_code": "65", "insee_code": "65214", "zip_code": "65230", "name": "Hachan", "slug": "hachan", "gps_lat": 43.28395843137255, "gps_lng": 0.45552803921569 }, { "id": 26181, "department_code": "65", "insee_code": "65215", "zip_code": "65700", "name": "Hagedet", "slug": "hagedet", "gps_lat": 43.51750769230767, "gps_lng": -0.025147538461540053 }, { "id": 26182, "department_code": "65", "insee_code": "65216", "zip_code": "65200", "name": "Hauban", "slug": "hauban", "gps_lat": 43.09976361702128, "gps_lng": 0.16294670212766 }, { "id": 26183, "department_code": "65", "insee_code": "65217", "zip_code": "65150", "name": "Hautaget", "slug": "hautaget", "gps_lat": 43.05782039999999, "gps_lng": 0.455897 }, { "id": 26184, "department_code": "65", "insee_code": "65218", "zip_code": "65250", "name": "Hèches", "slug": "heches", "gps_lat": 42.99734022727273, "gps_lng": 0.38729840909091 }, { "id": 26185, "department_code": "65", "insee_code": "65219", "zip_code": "65700", "name": "Hères", "slug": "heres", "gps_lat": 43.55151932584268, "gps_lng": -0.003824382022470041 }, { "id": 26186, "department_code": "65", "insee_code": "65220", "zip_code": "65380", "name": "Hibarette", "slug": "hibarette", "gps_lat": 43.16343954545454, "gps_lng": 0.03841181818182 }, { "id": 26187, "department_code": "65", "insee_code": "65221", "zip_code": "65200", "name": "Hiis", "slug": "hiis", "gps_lat": 43.13465623376622, "gps_lng": 0.09700337662338 }, { "id": 26188, "department_code": "65", "insee_code": "65222", "zip_code": "65190", "name": "Hitte", "slug": "hitte", "gps_lat": 43.15590318681319, "gps_lng": 0.15966637362637 }, { "id": 26189, "department_code": "65", "insee_code": "65223", "zip_code": "65310", "name": "Horgues", "slug": "horgues", "gps_lat": 43.18982581818182, "gps_lng": 0.07828363636364 }, { "id": 26190, "department_code": "65", "insee_code": "65224", "zip_code": "65330", "name": "Houeydets", "slug": "houeydets", "gps_lat": 43.15439109374998, "gps_lng": 0.354606015625 }, { "id": 26191, "department_code": "65", "insee_code": "65225", "zip_code": "65350", "name": "Hourc", "slug": "hourc", "gps_lat": 43.25049518072289, "gps_lng": 0.17666469879518 }, { "id": 26838, "department_code": "67", "insee_code": "67179", "zip_code": "67700", "name": "Haegen", "slug": "haegen", "gps_lat": 48.69869353448274, "gps_lng": 7.29609202586207 }, { "id": 26839, "department_code": "67", "insee_code": "67180", "zip_code": "67500", "name": "Haguenau", "slug": "haguenau", "gps_lat": 48.84721074815599, "gps_lng": 7.82183126448894 }, { "id": 26840, "department_code": "67", "insee_code": "67181", "zip_code": "67117", "name": "Handschuheim", "slug": "handschuheim", "gps_lat": 48.59919725806451, "gps_lng": 7.57760129032258 }, { "id": 26841, "department_code": "67", "insee_code": "67182", "zip_code": "67980", "name": "Hangenbieten", "slug": "hangenbieten", "gps_lat": 48.55655578947368, "gps_lng": 7.61255421052632 }, { "id": 26842, "department_code": "67", "insee_code": "67183", "zip_code": "67260", "name": "Harskirchen", "slug": "harskirchen", "gps_lat": 48.93076672985782, "gps_lng": 7.02986857819905 }, { "id": 26843, "department_code": "67", "insee_code": "67184", "zip_code": "67690", "name": "Hatten", "slug": "hatten", "gps_lat": 48.90319919117648, "gps_lng": 8.00554132352941 }, { "id": 26844, "department_code": "67", "insee_code": "67185", "zip_code": "67330", "name": "Hattmatt", "slug": "hattmatt", "gps_lat": 48.78879000000002, "gps_lng": 7.42907518181818 }, { "id": 26845, "department_code": "67", "insee_code": "67186", "zip_code": "67360", "name": "Hegeney", "slug": "hegeney", "gps_lat": 48.88549206185567, "gps_lng": 7.73721288659794 }, { "id": 26846, "department_code": "67", "insee_code": "67187", "zip_code": "67390", "name": "Heidolsheim", "slug": "heidolsheim", "gps_lat": 48.2062025, "gps_lng": 7.5099475 }, { "id": 26847, "department_code": "67", "insee_code": "67188", "zip_code": "67190", "name": "Heiligenberg", "slug": "heiligenberg", "gps_lat": 48.5365369117647, "gps_lng": 7.38242529411765 }, { "id": 26848, "department_code": "67", "insee_code": "67189", "zip_code": "67140", "name": "Heiligenstein", "slug": "heiligenstein", "gps_lat": 48.4208463043478, "gps_lng": 7.43968326086957 }, { "id": 26849, "department_code": "67", "insee_code": "67190", "zip_code": "67440", "name": "Hengwiller", "slug": "hengwiller", "gps_lat": 48.67045394736842, "gps_lng": 7.32946631578948 }, { "id": 26850, "department_code": "67", "insee_code": "67191", "zip_code": "67260", "name": "Herbitzheim", "slug": "herbitzheim", "gps_lat": 49.0138979375, "gps_lng": 7.0814793125 }, { "id": 26851, "department_code": "67", "insee_code": "67192", "zip_code": "67230", "name": "Herbsheim", "slug": "herbsheim", "gps_lat": 48.35056500000001, "gps_lng": 7.63228775862069 }, { "id": 26852, "department_code": "67", "insee_code": "67194", "zip_code": "67850", "name": "Herrlisheim", "slug": "herrlisheim", "gps_lat": 48.73485890625001, "gps_lng": 7.905367734375 }, { "id": 26853, "department_code": "67", "insee_code": "67195", "zip_code": "67390", "name": "Hessenheim", "slug": "hessenheim", "gps_lat": 48.20613551020408, "gps_lng": 7.55760612244898 }, { "id": 26854, "department_code": "67", "insee_code": "67196", "zip_code": "67600", "name": "Hilsenheim", "slug": "hilsenheim", "gps_lat": 48.29559281818181, "gps_lng": 7.57141054545455 }, { "id": 26855, "department_code": "67", "insee_code": "67197", "zip_code": "67150", "name": "Hindisheim", "slug": "hindisheim", "gps_lat": 48.46968547169813, "gps_lng": 7.62640905660377 }, { "id": 26856, "department_code": "67", "insee_code": "67198", "zip_code": "67290", "name": "Hinsbourg", "slug": "hinsbourg", "gps_lat": 48.90244808219177, "gps_lng": 7.29393410958904 }, { "id": 26857, "department_code": "67", "insee_code": "67199", "zip_code": "67260", "name": "Hinsingen", "slug": "hinsingen", "gps_lat": 48.95099752577322, "gps_lng": 6.99318896907217 }, { "id": 26858, "department_code": "67", "insee_code": "67200", "zip_code": "67150", "name": "Hipsheim", "slug": "hipsheim", "gps_lat": 48.46517201612904, "gps_lng": 7.68172072580646 }, { "id": 26859, "department_code": "67", "insee_code": "67201", "zip_code": "67320", "name": "Hirschland", "slug": "hirschland", "gps_lat": 48.84259830188682, "gps_lng": 7.12354726415094 }, { "id": 26860, "department_code": "67", "insee_code": "67202", "zip_code": "67270", "name": "Hochfelden", "slug": "hochfelden", "gps_lat": 48.74695049645395, "gps_lng": 7.56174070921986 }, { "id": 26861, "department_code": "67", "insee_code": "67203", "zip_code": "67170", "name": "Hochstett", "slug": "hochstett", "gps_lat": 48.77591450000002, "gps_lng": 7.6759345 }, { "id": 26862, "department_code": "67", "insee_code": "67204", "zip_code": "67800", "name": "Hœnheim", "slug": "hoenheim", "gps_lat": 48.62491100000001, "gps_lng": 7.74816655555556 }, { "id": 26863, "department_code": "67", "insee_code": "67205", "zip_code": "67720", "name": "Hœrdt", "slug": "hoerdt", "gps_lat": 48.69546643678162, "gps_lng": 7.77869379310344 }, { "id": 26864, "department_code": "67", "insee_code": "67206", "zip_code": "67250", "name": "Hoffen", "slug": "hoffen", "gps_lat": 48.93203971631207, "gps_lng": 7.9310760283688 }, { "id": 26865, "department_code": "67", "insee_code": "67208", "zip_code": "67310", "name": "Hohengœft", "slug": "hohengoeft", "gps_lat": 48.6595008219178, "gps_lng": 7.46986150684931 }, { "id": 26866, "department_code": "67", "insee_code": "67209", "zip_code": "67270", "name": "Hohfrankenheim", "slug": "hohfrankenheim", "gps_lat": 48.72745826666667, "gps_lng": 7.57801826666667 }, { "id": 26868, "department_code": "67", "insee_code": "67212", "zip_code": "67810", "name": "Holtzheim", "slug": "holtzheim", "gps_lat": 48.55736607142858, "gps_lng": 7.64469848214286 }, { "id": 26869, "department_code": "67", "insee_code": "67213", "zip_code": "67250", "name": "Hunspach", "slug": "hunspach", "gps_lat": 48.95886137931033, "gps_lng": 7.93453137931035 }, { "id": 26870, "department_code": "67", "insee_code": "67214", "zip_code": "67117", "name": "Hurtigheim", "slug": "hurtigheim", "gps_lat": 48.61693731343283, "gps_lng": 7.60426970149254 }, { "id": 26871, "department_code": "67", "insee_code": "67215", "zip_code": "67270", "name": "Huttendorf", "slug": "huttendorf", "gps_lat": 48.80233052631579, "gps_lng": 7.63513719298246 }, { "id": 26872, "department_code": "67", "insee_code": "67216", "zip_code": "67230", "name": "Huttenheim", "slug": "huttenheim", "gps_lat": 48.35633844660194, "gps_lng": 7.56985106796116 }, { "id": 27304, "department_code": "68", "insee_code": "68118", "zip_code": "68440", "name": "Habsheim", "slug": "habsheim", "gps_lat": 47.72678381578947, "gps_lng": 7.41029 }, { "id": 27305, "department_code": "68", "insee_code": "68119", "zip_code": "68210", "name": "Hagenbach", "slug": "hagenbach", "gps_lat": 47.64635672131146, "gps_lng": 7.16096278688525 }, { "id": 27306, "department_code": "68", "insee_code": "68120", "zip_code": "68220", "name": "Hagenthal-le-Bas", "slug": "hagenthal le bas", "gps_lat": 47.53064854545453, "gps_lng": 7.48144472727273 }, { "id": 27307, "department_code": "68", "insee_code": "68121", "zip_code": "68220", "name": "Hagenthal-le-Haut", "slug": "hagenthal le haut", "gps_lat": 47.51824351351351, "gps_lng": 7.45333621621622 }, { "id": 27308, "department_code": "68", "insee_code": "68122", "zip_code": "68500", "name": "Hartmannswiller", "slug": "hartmannswiller", "gps_lat": 47.8600132051282, "gps_lng": 7.20356423076923 }, { "id": 27309, "department_code": "68", "insee_code": "68123", "zip_code": "68420", "name": "Hattstatt", "slug": "hattstatt", "gps_lat": 48.01512031446543, "gps_lng": 7.27319666666667 }, { "id": 27310, "department_code": "68", "insee_code": "68124", "zip_code": "68130", "name": "Hausgauen", "slug": "hausgauen", "gps_lat": 47.6084109090909, "gps_lng": 7.31815298701298 }, { "id": 27311, "department_code": "68", "insee_code": "68125", "zip_code": "68210", "name": "Hecken", "slug": "hecken", "gps_lat": 47.69284306451613, "gps_lng": 7.11440516129032 }, { "id": 27312, "department_code": "68", "insee_code": "68126", "zip_code": "68220", "name": "Hégenheim", "slug": "hegenheim", "gps_lat": 47.56026448275861, "gps_lng": 7.52474689655172 }, { "id": 27313, "department_code": "68", "insee_code": "68127", "zip_code": "68720", "name": "Heidwiller", "slug": "heidwiller", "gps_lat": 47.65703985074628, "gps_lng": 7.23275388059702 }, { "id": 27314, "department_code": "68", "insee_code": "68128", "zip_code": "68560", "name": "Heimersdorf", "slug": "heimersdorf", "gps_lat": 47.56305982142856, "gps_lng": 7.23746982142857 }, { "id": 27315, "department_code": "68", "insee_code": "68129", "zip_code": "68990", "name": "Heimsbrunn", "slug": "heimsbrunn", "gps_lat": 47.72381373831777, "gps_lng": 7.21814514018692 }, { "id": 27316, "department_code": "68", "insee_code": "68130", "zip_code": "68600", "name": "Heiteren", "slug": "heiteren", "gps_lat": 47.96210676923076, "gps_lng": 7.56245907692308 }, { "id": 27317, "department_code": "68", "insee_code": "68131", "zip_code": "68130", "name": "Heiwiller", "slug": "heiwiller", "gps_lat": 47.62214666666667, "gps_lng": 7.32337083333333 }, { "id": 27318, "department_code": "68", "insee_code": "68132", "zip_code": "68510", "name": "Helfrantzkirch", "slug": "helfrantzkirch", "gps_lat": 47.60471935064937, "gps_lng": 7.41327428571429 }, { "id": 27319, "department_code": "68", "insee_code": "68134", "zip_code": "68420", "name": "Herrlisheim-près-Colmar", "slug": "herrlisheim pres colmar", "gps_lat": 48.01822293750002, "gps_lng": 7.32915031249999 }, { "id": 27320, "department_code": "68", "insee_code": "68135", "zip_code": "68220", "name": "Hésingue", "slug": "hesingue", "gps_lat": 47.58097983870969, "gps_lng": 7.51595016129032 }, { "id": 27321, "department_code": "68", "insee_code": "68136", "zip_code": "68600", "name": "Hettenschlag", "slug": "hettenschlag", "gps_lat": 48.00730166666667, "gps_lng": 7.45273638888889 }, { "id": 27322, "department_code": "68", "insee_code": "68137", "zip_code": "68580", "name": "Hindlingen", "slug": "hindlingen", "gps_lat": 47.56792490066228, "gps_lng": 7.1394242384106 }, { "id": 27323, "department_code": "68", "insee_code": "68138", "zip_code": "68560", "name": "Hirsingue", "slug": "hirsingue", "gps_lat": 47.58296904109589, "gps_lng": 7.24695732876712 }, { "id": 27324, "department_code": "68", "insee_code": "68139", "zip_code": "68118", "name": "Hirtzbach", "slug": "hirtzbach", "gps_lat": 47.59116376623378, "gps_lng": 7.20922311688312 }, { "id": 27325, "department_code": "68", "insee_code": "68140", "zip_code": "68740", "name": "Hirtzfelden", "slug": "hirtzfelden", "gps_lat": 47.90632571428574, "gps_lng": 7.45391183673469 }, { "id": 27326, "department_code": "68", "insee_code": "68141", "zip_code": "68720", "name": "Hochstatt", "slug": "hochstatt", "gps_lat": 47.71021673913044, "gps_lng": 7.26632706521739 }, { "id": 27327, "department_code": "68", "insee_code": "68142", "zip_code": "68140", "name": "Hohrod", "slug": "hohrod", "gps_lat": 48.0598322077922, "gps_lng": 7.13157194805195 }, { "id": 27329, "department_code": "68", "insee_code": "68144", "zip_code": "68490", "name": "Hombourg", "slug": "hombourg", "gps_lat": 47.75470210526315, "gps_lng": 7.50329789473684 }, { "id": 27330, "department_code": "68", "insee_code": "68145", "zip_code": "68180", "name": "Horbourg-Wihr", "slug": "horbourg wihr", "gps_lat": 48.08506755555553, "gps_lng": 7.40262411111111 }, { "id": 27331, "department_code": "68", "insee_code": "68146", "zip_code": "68125", "name": "Houssen", "slug": "houssen", "gps_lat": 48.13037161904764, "gps_lng": 7.37446247619048 }, { "id": 27332, "department_code": "68", "insee_code": "68147", "zip_code": "68150", "name": "Hunawihr", "slug": "hunawihr", "gps_lat": 48.18372599999999, "gps_lng": 7.302246 }, { "id": 27333, "department_code": "68", "insee_code": "68148", "zip_code": "68130", "name": "Hundsbach", "slug": "hundsbach", "gps_lat": 47.60051982142859, "gps_lng": 7.33730125 }, { "id": 27334, "department_code": "68", "insee_code": "68149", "zip_code": "68330", "name": "Huningue", "slug": "huningue", "gps_lat": 47.59108000000001, "gps_lng": 7.5787192 }, { "id": 27335, "department_code": "68", "insee_code": "68150", "zip_code": "68420", "name": "Husseren-les-Châteaux", "slug": "husseren les chateaux", "gps_lat": 48.03662734693877, "gps_lng": 7.27810795918368 }, { "id": 27336, "department_code": "68", "insee_code": "68151", "zip_code": "68470", "name": "Husseren-Wesserling", "slug": "husseren wesserling", "gps_lat": 47.8794000729927, "gps_lng": 6.98718474452555 }, { "id": 27656, "department_code": "69", "insee_code": "69099", "zip_code": "69610", "name": "Haute-Rivoire", "slug": "haute rivoire", "gps_lat": 45.7138054585153, "gps_lng": 4.40533655021834 }, { "id": 28112, "department_code": "70", "insee_code": "70283", "zip_code": "70440", "name": "Haut-du-Them-Château-Lambert", "slug": "haut du them chateau lambert", "gps_lat": 47.83932441176472, "gps_lng": 6.73750511764706 }, { "id": 28113, "department_code": "70", "insee_code": "70284", "zip_code": "70800", "name": "Hautevelle", "slug": "hautevelle", "gps_lat": 47.8395398630137, "gps_lng": 6.29372712328767 }, { "id": 28114, "department_code": "70", "insee_code": "70285", "zip_code": "70400", "name": "Héricourt", "slug": "hericourt", "gps_lat": 47.57113017543861, "gps_lng": 6.76267602339181 }, { "id": 28115, "department_code": "70", "insee_code": "70286", "zip_code": "70150", "name": "Hugier", "slug": "hugier", "gps_lat": 47.3059686923077, "gps_lng": 5.70183338461538 }, { "id": 28116, "department_code": "70", "insee_code": "70287", "zip_code": "70210", "name": "Hurecourt", "slug": "hurecourt", "gps_lat": 47.90292397260274, "gps_lng": 6.06022246575343 }, { "id": 28117, "department_code": "70", "insee_code": "70288", "zip_code": "70190", "name": "Hyet", "slug": "hyet", "gps_lat": 47.47543329787234, "gps_lng": 6.07991 }, { "id": 28615, "department_code": "71", "insee_code": "71232", "zip_code": "71600", "name": "Hautefond", "slug": "hautefond", "gps_lat": 46.4330518181818, "gps_lng": 4.16694242424242 }, { "id": 28617, "department_code": "71", "insee_code": "71234", "zip_code": "71290", "name": "Huilly-sur-Seille", "slug": "huilly sur seille", "gps_lat": 46.61208820512822, "gps_lng": 5.05273076923077 }, { "id": 28618, "department_code": "71", "insee_code": "71235", "zip_code": "71870", "name": "Hurigny", "slug": "hurigny", "gps_lat": 46.34460929411766, "gps_lng": 4.79578752941176 }, { "id": 29437, "department_code": "73", "insee_code": "73131", "zip_code": "73600", "name": "Hautecour", "slug": "hautecour", "gps_lat": 45.51185558558555, "gps_lng": 6.5426790990991 }, { "id": 29438, "department_code": "73", "insee_code": "73132", "zip_code": "73620", "name": "Hauteluce", "slug": "hauteluce", "gps_lat": 45.76087886986302, "gps_lng": 6.6007774999999995 }, { "id": 29439, "department_code": "73", "insee_code": "73133", "zip_code": "73390", "name": "Hauteville", "slug": "hauteville", "gps_lat": 45.52860811764707, "gps_lng": 6.16586329411765 }, { "id": 29440, "department_code": "73", "insee_code": "73135", "zip_code": "73300", "name": "Hermillon", "slug": "hermillon", "gps_lat": 45.30688846994534, "gps_lng": 6.39120081967213 }, { "id": 29739, "department_code": "74", "insee_code": "74139", "zip_code": "74420", "name": "Habère-Lullin", "slug": "habere lullin", "gps_lat": 46.23803320987653, "gps_lng": 6.45640580246914 }, { "id": 29740, "department_code": "74", "insee_code": "74140", "zip_code": "74420", "name": "Habère-Poche", "slug": "habere poche", "gps_lat": 46.2545556626506, "gps_lng": 6.47043963855422 }, { "id": 29741, "department_code": "74", "insee_code": "74141", "zip_code": "74150", "name": "Hauteville-sur-Fier", "slug": "hauteville sur fier", "gps_lat": 45.90819603603605, "gps_lng": 5.97670747747748 }, { "id": 29742, "department_code": "74", "insee_code": "74142", "zip_code": "74540", "name": "Héry-sur-Alby", "slug": "hery sur alby", "gps_lat": 45.79132503546101, "gps_lng": 6.01003822695036 }, { "id": 30234, "department_code": "76", "insee_code": "76340", "zip_code": "76560", "name": "Harcanville", "slug": "harcanville", "gps_lat": 49.7080611392405, "gps_lng": 0.76981683544304 }, { "id": 30235, "department_code": "76", "insee_code": "76341", "zip_code": "76700", "name": "Harfleur", "slug": "harfleur", "gps_lat": 49.51468022222222, "gps_lng": 0.19623811111111 }, { "id": 30236, "department_code": "76", "insee_code": "76342", "zip_code": "76640", "name": "Hattenville", "slug": "hattenville", "gps_lat": 49.65365911111109, "gps_lng": 0.532677 }, { "id": 30237, "department_code": "76", "insee_code": "76343", "zip_code": "76440", "name": "Haucourt", "slug": "haucourt", "gps_lat": 49.64434621621621, "gps_lng": 1.6711698648648698 }, { "id": 30238, "department_code": "76", "insee_code": "76344", "zip_code": "76390", "name": "Haudricourt", "slug": "haudricourt", "gps_lat": 49.73877976878612, "gps_lng": 1.70033289017341 }, { "id": 30239, "department_code": "76", "insee_code": "76345", "zip_code": "76440", "name": "Haussez", "slug": "haussez", "gps_lat": 49.58498924623116, "gps_lng": 1.67753773869347 }, { "id": 30240, "department_code": "76", "insee_code": "76346", "zip_code": "76450", "name": "Hautot-l'Auvray", "slug": "hautot l auvray", "gps_lat": 49.76245686567164, "gps_lng": 0.75166925373134 }, { "id": 30241, "department_code": "76", "insee_code": "76347", "zip_code": "76190", "name": "Hautot-le-Vatois", "slug": "hautot le vatois", "gps_lat": 49.64659830508473, "gps_lng": 0.69493203389831 }, { "id": 30242, "department_code": "76", "insee_code": "76348", "zip_code": "76190", "name": "Hautot-Saint-Sulpice", "slug": "hautot saint sulpice", "gps_lat": 49.6830548387097, "gps_lng": 0.73797559139785 }, { "id": 30243, "department_code": "76", "insee_code": "76349", "zip_code": "76550", "name": "Hautot-sur-Mer", "slug": "hautot sur mer", "gps_lat": 49.90474847058822, "gps_lng": 1.04222035294118 }, { "id": 30244, "department_code": "76", "insee_code": "76350", "zip_code": "76113", "name": "Hautot-sur-Seine", "slug": "hautot sur seine", "gps_lat": 49.36488885714287, "gps_lng": 0.97839057142857 }, { "id": 30249, "department_code": "76", "insee_code": "76353", "zip_code": "76740", "name": "Héberville", "slug": "heberville", "gps_lat": 49.78482826086957, "gps_lng": 0.80450260869565 }, { "id": 30250, "department_code": "76", "insee_code": "76354", "zip_code": "76840", "name": "Hénouville", "slug": "henouville", "gps_lat": 49.47465092105262, "gps_lng": 0.9535772368421 }, { "id": 30251, "department_code": "76", "insee_code": "76355", "zip_code": "76560", "name": "Héricourt-en-Caux", "slug": "hericourt en caux", "gps_lat": 49.69353923728814, "gps_lng": 0.70588127118644 }, { "id": 30252, "department_code": "76", "insee_code": "76356", "zip_code": "76730", "name": "Hermanville", "slug": "hermanville", "gps_lat": 49.81963276923076, "gps_lng": 0.98947492307692 }, { "id": 30253, "department_code": "76", "insee_code": "76357", "zip_code": "76280", "name": "Hermeville", "slug": "hermeville", "gps_lat": 49.59778695652175, "gps_lng": 0.25589173913043 }, { "id": 30255, "department_code": "76", "insee_code": "76359", "zip_code": "76750", "name": "Héronchelles", "slug": "heronchelles", "gps_lat": 49.53605103448274, "gps_lng": 1.38251540229885 }, { "id": 30256, "department_code": "76", "insee_code": "76360", "zip_code": "76720", "name": "Heugleville-sur-Scie", "slug": "heugleville sur scie", "gps_lat": 49.73441589743592, "gps_lng": 1.09936965811966 }, { "id": 30257, "department_code": "76", "insee_code": "76361", "zip_code": "76280", "name": "Heuqueville", "slug": "heuqueville", "gps_lat": 49.61619090909092, "gps_lng": 0.15661272727273 }, { "id": 30258, "department_code": "76", "insee_code": "76362", "zip_code": "76940", "name": "Heurteauville", "slug": "heurteauville", "gps_lat": 49.44733971428571, "gps_lng": 0.802706 }, { "id": 30259, "department_code": "76", "insee_code": "76363", "zip_code": "76340", "name": "Hodeng-au-Bosc", "slug": "hodeng au bosc", "gps_lat": 49.87586946428574, "gps_lng": 1.70697017857143 }, { "id": 30260, "department_code": "76", "insee_code": "76364", "zip_code": "76780", "name": "Hodeng-Hodenger", "slug": "hodeng hodenger", "gps_lat": 49.53707696629213, "gps_lng": 1.58638123595506 }, { "id": 30261, "department_code": "76", "insee_code": "76365", "zip_code": "76740", "name": "Houdetot", "slug": "houdetot", "gps_lat": 49.82119226415094, "gps_lng": 0.80869849056604 }, { "id": 30263, "department_code": "76", "insee_code": "76367", "zip_code": "76770", "name": "Houppeville", "slug": "houppeville", "gps_lat": 49.50214392405062, "gps_lng": 1.08520037974684 }, { "id": 30264, "department_code": "76", "insee_code": "76368", "zip_code": "76110", "name": "Houquetot", "slug": "houquetot", "gps_lat": 49.6047202, "gps_lng": 0.3909356 }, { "id": 30266, "department_code": "76", "insee_code": "76370", "zip_code": "76570", "name": "Hugleville-en-Caux", "slug": "hugleville en caux", "gps_lat": 49.62300778947368, "gps_lng": 0.98932115789474 }, { "id": 30852, "department_code": "77", "insee_code": "77224", "zip_code": "77515", "name": "Hautefeuille", "slug": "hautefeuille", "gps_lat": 48.76857770833335, "gps_lng": 2.96591020833333 }, { "id": 30854, "department_code": "77", "insee_code": "77226", "zip_code": "77850", "name": "Héricy", "slug": "hericy", "gps_lat": 48.44467837837838, "gps_lng": 2.784845 }, { "id": 30855, "department_code": "77", "insee_code": "77227", "zip_code": "77114", "name": "Hermé", "slug": "herme", "gps_lat": 48.4804709009009, "gps_lng": 3.35343747747748 }, { "id": 30856, "department_code": "77", "insee_code": "77228", "zip_code": "77510", "name": "Hondevilliers", "slug": "hondevilliers", "gps_lat": 48.89940857142855, "gps_lng": 3.311795 }, { "id": 31259, "department_code": "78", "insee_code": "78299", "zip_code": "78250", "name": "Hardricourt", "slug": "hardricourt", "gps_lat": 49.01082596491229, "gps_lng": 1.88580263157895 }, { "id": 31260, "department_code": "78", "insee_code": "78300", "zip_code": "78790", "name": "Hargeville", "slug": "hargeville", "gps_lat": 48.89752885245901, "gps_lng": 1.74421508196721 }, { "id": 31262, "department_code": "78", "insee_code": "78305", "zip_code": "78580", "name": "Herbeville", "slug": "herbeville", "gps_lat": 48.90436068181819, "gps_lng": 1.88640284090909 }, { "id": 31263, "department_code": "78", "insee_code": "78307", "zip_code": "78125", "name": "Hermeray", "slug": "hermeray", "gps_lat": 48.65057765432098, "gps_lng": 1.6910013580246899 }, { "id": 31264, "department_code": "78", "insee_code": "78310", "zip_code": "78550", "name": "Houdan", "slug": "houdan", "gps_lat": 48.79496272727273, "gps_lng": 1.59634966942149 }, { "id": 31265, "department_code": "78", "insee_code": "78311", "zip_code": "78800", "name": "Houilles", "slug": "houilles", "gps_lat": 48.92719976744184, "gps_lng": 2.18887093023256 }, { "id": 31529, "department_code": "79", "insee_code": "79140", "zip_code": "79110", "name": "Hanc", "slug": "hanc", "gps_lat": 46.08400570652174, "gps_lng": -0.0025092391304299966 }, { "id": 32090, "department_code": "80", "insee_code": "80405", "zip_code": "80440", "name": "Hailles", "slug": "hailles", "gps_lat": 49.80131359999999, "gps_lng": 2.43107613333333 }, { "id": 32091, "department_code": "80", "insee_code": "80406", "zip_code": "80490", "name": "Hallencourt", "slug": "hallencourt", "gps_lat": 49.9954052694611, "gps_lng": 1.8754822754490998 }, { "id": 32092, "department_code": "80", "insee_code": "80407", "zip_code": "80250", "name": "Hallivillers", "slug": "hallivillers", "gps_lat": 49.69853687499999, "gps_lng": 2.2883590625 }, { "id": 32093, "department_code": "80", "insee_code": "80408", "zip_code": "80670", "name": "Halloy-lès-Pernois", "slug": "halloy les pernois", "gps_lat": 50.04561587786262, "gps_lng": 2.20825786259542 }, { "id": 32094, "department_code": "80", "insee_code": "80409", "zip_code": "80320", "name": "Hallu", "slug": "hallu", "gps_lat": 49.79464594594595, "gps_lng": 2.78646162162162 }, { "id": 32095, "department_code": "80", "insee_code": "80410", "zip_code": "80400", "name": "Ham", "slug": "ham", "gps_lat": 49.75437721153848, "gps_lng": 3.08092932692308 }, { "id": 32097, "department_code": "80", "insee_code": "80412", "zip_code": "80800", "name": "Hamelet", "slug": "hamelet", "gps_lat": 49.89857514851489, "gps_lng": 2.53386544554455 }, { "id": 32098, "department_code": "80", "insee_code": "80413", "zip_code": "80240", "name": "Hancourt", "slug": "hancourt", "gps_lat": 49.90505891891894, "gps_lng": 3.07134432432432 }, { "id": 32099, "department_code": "80", "insee_code": "80414", "zip_code": "80110", "name": "Hangard", "slug": "hangard", "gps_lat": 49.82893903614458, "gps_lng": 2.5097515662650602 }, { "id": 32100, "department_code": "80", "insee_code": "80415", "zip_code": "80134", "name": "Hangest-en-Santerre", "slug": "hangest en santerre", "gps_lat": 49.74430523809526, "gps_lng": 2.5971014285714302 }, { "id": 32101, "department_code": "80", "insee_code": "80416", "zip_code": "80310", "name": "Hangest-sur-Somme", "slug": "hangest sur somme", "gps_lat": 49.9818794029851, "gps_lng": 2.04127044776119 }, { "id": 32102, "department_code": "80", "insee_code": "80417", "zip_code": "80131", "name": "Harbonnières", "slug": "harbonnieres", "gps_lat": 49.84222195402298, "gps_lng": 2.66569965517241 }, { "id": 32103, "department_code": "80", "insee_code": "80418", "zip_code": "80360", "name": "Hardecourt-aux-Bois", "slug": "hardecourt aux bois", "gps_lat": 49.99381425925926, "gps_lng": 2.8131481481481497 }, { "id": 32104, "department_code": "80", "insee_code": "80419", "zip_code": "80500", "name": "Hargicourt", "slug": "hargicourt", "gps_lat": 49.71347212500002, "gps_lng": 2.520916375 }, { "id": 32105, "department_code": "80", "insee_code": "80420", "zip_code": "80560", "name": "Harponville", "slug": "harponville", "gps_lat": 50.03494405405406, "gps_lng": 2.5013262162162198 }, { "id": 32106, "department_code": "80", "insee_code": "80421", "zip_code": "80700", "name": "Hattencourt", "slug": "hattencourt", "gps_lat": 49.7690168, "gps_lng": 2.7917128 }, { "id": 32107, "department_code": "80", "insee_code": "80422", "zip_code": "80132", "name": "Hautvillers-Ouville", "slug": "hautvillers ouville", "gps_lat": 50.16876276595744, "gps_lng": 1.82151659574468 }, { "id": 32108, "department_code": "80", "insee_code": "80423", "zip_code": "80670", "name": "Havernas", "slug": "havernas", "gps_lat": 50.03576893333334, "gps_lng": 2.23060293333333 }, { "id": 32109, "department_code": "80", "insee_code": "80424", "zip_code": "80680", "name": "Hébécourt", "slug": "hebecourt", "gps_lat": 49.81980445945945, "gps_lng": 2.25962175675676 }, { "id": 32110, "department_code": "80", "insee_code": "80425", "zip_code": "80560", "name": "Hédauville", "slug": "hedauville", "gps_lat": 50.04954527027029, "gps_lng": 2.57291216216216 }, { "id": 32111, "department_code": "80", "insee_code": "80426", "zip_code": "80800", "name": "Heilly", "slug": "heilly", "gps_lat": 49.95974090909091, "gps_lng": 2.52909656565657 }, { "id": 32112, "department_code": "80", "insee_code": "80427", "zip_code": "80600", "name": "Hem-Hardinval", "slug": "hem hardinval", "gps_lat": 50.15581288659796, "gps_lng": 2.29164134020619 }, { "id": 32113, "department_code": "80", "insee_code": "80428", "zip_code": "80360", "name": "Hem-Monacu", "slug": "hem monacu", "gps_lat": 49.95913056338028, "gps_lng": 2.84111422535211 }, { "id": 32114, "department_code": "80", "insee_code": "80429", "zip_code": "80300", "name": "Hénencourt", "slug": "henencourt", "gps_lat": 50.00369569230769, "gps_lng": 2.56048030769231 }, { "id": 32115, "department_code": "80", "insee_code": "80430", "zip_code": "80200", "name": "Herbécourt", "slug": "herbecourt", "gps_lat": 49.92029769230768, "gps_lng": 2.84318692307692 }, { "id": 32116, "department_code": "80", "insee_code": "80431", "zip_code": "80260", "name": "Hérissart", "slug": "herissart", "gps_lat": 50.02929961038961, "gps_lng": 2.41639558441558 }, { "id": 32117, "department_code": "80", "insee_code": "80432", "zip_code": "80340", "name": "Herleville", "slug": "herleville", "gps_lat": 49.87094963636363, "gps_lng": 2.7493874545454497 }, { "id": 32118, "department_code": "80", "insee_code": "80433", "zip_code": "80190", "name": "Herly", "slug": "herly", "gps_lat": 49.75509541666666, "gps_lng": 2.87478895833333 }, { "id": 32119, "department_code": "80", "insee_code": "80434", "zip_code": "80240", "name": "Hervilly", "slug": "hervilly", "gps_lat": 49.9310096511628, "gps_lng": 3.1161196511627898 }, { "id": 32120, "department_code": "80", "insee_code": "80435", "zip_code": "80240", "name": "Hesbécourt", "slug": "hesbecourt", "gps_lat": 49.94744181818181, "gps_lng": 3.1424042424242398 }, { "id": 32121, "department_code": "80", "insee_code": "80436", "zip_code": "80290", "name": "Hescamps", "slug": "hescamps", "gps_lat": 49.73029207142856, "gps_lng": 1.8772546428571402 }, { "id": 32122, "department_code": "80", "insee_code": "80437", "zip_code": "80270", "name": "Heucourt-Croquoison", "slug": "heucourt croquoison", "gps_lat": 49.93044015873016, "gps_lng": 1.8827053968254 }, { "id": 32123, "department_code": "80", "insee_code": "80438", "zip_code": "80122", "name": "Heudicourt", "slug": "heudicourt", "gps_lat": 50.03041894117645, "gps_lng": 3.09249976470588 }, { "id": 32124, "department_code": "80", "insee_code": "80439", "zip_code": "80370", "name": "Heuzecourt", "slug": "heuzecourt", "gps_lat": 50.16572458333333, "gps_lng": 2.17124013888889 }, { "id": 32125, "department_code": "80", "insee_code": "80440", "zip_code": "80370", "name": "Hiermont", "slug": "hiermont", "gps_lat": 50.20240857142861, "gps_lng": 2.0728946031746 }, { "id": 32126, "department_code": "80", "insee_code": "80442", "zip_code": "80400", "name": "Hombleux", "slug": "hombleux", "gps_lat": 49.74316614678899, "gps_lng": 2.98906165137615 }, { "id": 32127, "department_code": "80", "insee_code": "80443", "zip_code": "80640", "name": "Hornoy-le-Bourg", "slug": "hornoy le bourg", "gps_lat": 49.84440901287554, "gps_lng": 1.90524772532189 }, { "id": 32128, "department_code": "80", "insee_code": "80444", "zip_code": "80132", "name": "Huchenneville", "slug": "huchenneville", "gps_lat": 50.05148854838707, "gps_lng": 1.80438040322581 }, { "id": 32129, "department_code": "80", "insee_code": "80445", "zip_code": "80600", "name": "Humbercourt", "slug": "humbercourt", "gps_lat": 50.20943811475409, "gps_lng": 2.4571244262295098 }, { "id": 32130, "department_code": "80", "insee_code": "80446", "zip_code": "80140", "name": "Huppy", "slug": "huppy", "gps_lat": 50.0255396590909, "gps_lng": 1.76355454545455 }, { "id": 32287, "department_code": "80", "insee_code": "80621", "zip_code": "80320", "name": "Hypercourt", "slug": "hypercourt", "gps_lat": 49.811721, "gps_lng": 2.85134142857143 }, { "id": 33068, "department_code": "83", "insee_code": "83069", "zip_code": "83400", "name": "Hyères", "slug": "hyeres", "gps_lat": 43.03187022678645, "gps_lng": 6.26080112109541 }, { "id": 33682, "department_code": "86", "insee_code": "86110", "zip_code": "86310", "name": "Haims", "slug": "haims", "gps_lat": 46.5153399315069, "gps_lng": 0.93920691780822 }, { "id": 34270, "department_code": "88", "insee_code": "88224", "zip_code": "88330", "name": "Hadigny-les-Verrières", "slug": "hadigny les verrieres", "gps_lat": 48.31746539682538, "gps_lng": 6.48558317460317 }, { "id": 34271, "department_code": "88", "insee_code": "88225", "zip_code": "88220", "name": "Hadol", "slug": "hadol", "gps_lat": 48.07830015686275, "gps_lng": 6.4297751372549 }, { "id": 34272, "department_code": "88", "insee_code": "88226", "zip_code": "88270", "name": "Hagécourt", "slug": "hagecourt", "gps_lat": 48.22854034782609, "gps_lng": 6.15376069565217 }, { "id": 34273, "department_code": "88", "insee_code": "88227", "zip_code": "88300", "name": "Hagnéville-et-Roncourt", "slug": "hagneville et roncourt", "gps_lat": 48.24463960937501, "gps_lng": 5.787880078125 }, { "id": 34274, "department_code": "88", "insee_code": "88228", "zip_code": "88330", "name": "Haillainville", "slug": "haillainville", "gps_lat": 48.3954906153846, "gps_lng": 6.49112992307692 }, { "id": 34275, "department_code": "88", "insee_code": "88229", "zip_code": "88300", "name": "Harchéchamp", "slug": "harchechamp", "gps_lat": 48.39707985507246, "gps_lng": 5.79219289855072 }, { "id": 34276, "department_code": "88", "insee_code": "88230", "zip_code": "88700", "name": "Hardancourt", "slug": "hardancourt", "gps_lat": 48.37956833333335, "gps_lng": 6.563666 }, { "id": 34277, "department_code": "88", "insee_code": "88231", "zip_code": "88800", "name": "Haréville", "slug": "hareville", "gps_lat": 48.20582470588234, "gps_lng": 6.01849352941176 }, { "id": 34278, "department_code": "88", "insee_code": "88232", "zip_code": "88300", "name": "Harmonville", "slug": "harmonville", "gps_lat": 48.46468849056603, "gps_lng": 5.8756602830188704 }, { "id": 34279, "department_code": "88", "insee_code": "88233", "zip_code": "88270", "name": "Harol", "slug": "harol", "gps_lat": 48.14077833333335, "gps_lng": 6.25521904761905 }, { "id": 34281, "department_code": "88", "insee_code": "88237", "zip_code": "88270", "name": "Hennecourt", "slug": "hennecourt", "gps_lat": 48.21361436090228, "gps_lng": 6.29062135338346 }, { "id": 34282, "department_code": "88", "insee_code": "88238", "zip_code": "88260", "name": "Hennezel", "slug": "hennezel", "gps_lat": 48.06004529411764, "gps_lng": 6.10779454901961 }, { "id": 34283, "department_code": "88", "insee_code": "88239", "zip_code": "88130", "name": "Hergugney", "slug": "hergugney", "gps_lat": 48.39050468354432, "gps_lng": 6.20831265822785 }, { "id": 34284, "department_code": "88", "insee_code": "88240", "zip_code": "88600", "name": "Herpelmont", "slug": "herpelmont", "gps_lat": 48.17012520325202, "gps_lng": 6.73761308943089 }, { "id": 34285, "department_code": "88", "insee_code": "88241", "zip_code": "88170", "name": "Houécourt", "slug": "houecourt", "gps_lat": 48.29650271929825, "gps_lng": 5.89446807017544 }, { "id": 34286, "department_code": "88", "insee_code": "88242", "zip_code": "88300", "name": "Houéville", "slug": "houeville", "gps_lat": 48.37124585714285, "gps_lng": 5.81117757142857 }, { "id": 34287, "department_code": "88", "insee_code": "88243", "zip_code": "88700", "name": "Housseras", "slug": "housseras", "gps_lat": 48.31141916666665, "gps_lng": 6.7242554487179405 }, { "id": 34289, "department_code": "88", "insee_code": "88245", "zip_code": "88210", "name": "Hurbache", "slug": "hurbache", "gps_lat": 48.34453243750002, "gps_lng": 6.927961125 }, { "id": 34290, "department_code": "88", "insee_code": "88246", "zip_code": "88500", "name": "Hymont", "slug": "hymont", "gps_lat": 48.26299423423423, "gps_lng": 6.14161009009009 }, { "id": 34742, "department_code": "89", "insee_code": "89200", "zip_code": "89250", "name": "Hauterive", "slug": "hauterive", "gps_lat": 47.92814075187973, "gps_lng": 3.61007676691729 }, { "id": 34743, "department_code": "89", "insee_code": "89201", "zip_code": "89550", "name": "Héry", "slug": "hery", "gps_lat": 47.90848600000001, "gps_lng": 3.63664454545455 }, { "id": 35507, "department_code": "95", "insee_code": "95298", "zip_code": "95640", "name": "Haravilliers", "slug": "haravilliers", "gps_lat": 49.17370432098766, "gps_lng": 2.03516098765432 }, { "id": 35508, "department_code": "95", "insee_code": "95301", "zip_code": "95780", "name": "Haute-Isle", "slug": "haute isle", "gps_lat": 49.08442452830188, "gps_lng": 1.66060075471698 }, { "id": 35510, "department_code": "95", "insee_code": "95304", "zip_code": "95690", "name": "Hédouville", "slug": "hedouville", "gps_lat": 49.15889397959184, "gps_lng": 2.17723408163265 }, { "id": 35511, "department_code": "95", "insee_code": "95306", "zip_code": "95220", "name": "Herblay", "slug": "herblay", "gps_lat": 48.99917055555554, "gps_lng": 2.15650763888889 }, { "id": 35512, "department_code": "95", "insee_code": "95308", "zip_code": "95300", "name": "Hérouville-en-Vexin", "slug": "herouville en vexin", "gps_lat": 49.10231623188406, "gps_lng": 2.12852463768116 }, { "id": 35513, "department_code": "95", "insee_code": "95309", "zip_code": "95420", "name": "Hodent", "slug": "hodent", "gps_lat": 49.1424080769231, "gps_lng": 1.76605692307692 }, { "id": 35781, "department_code": "987", "insee_code": null, "zip_code": null, "name": "Hao", "slug": "hao", "gps_lat": -18.2523103, "gps_lng": -140.889805577914 }, { "id": 35782, "department_code": "987", "insee_code": null, "zip_code": null, "name": "Hikueru", "slug": "hikueru", "gps_lat": -17.6069335, "gps_lng": -142.607182712936 }, { "id": 35783, "department_code": "987", "insee_code": null, "zip_code": null, "name": "Hitiaa O Te Ra", "slug": "hitiaa o te ra", "gps_lat": -17.59146725, "gps_lng": -149.383268672472 }, { "id": 35784, "department_code": "987", "insee_code": null, "zip_code": null, "name": "Hiva-Oa", "slug": "hiva oa", "gps_lat": -9.77936775, "gps_lng": -139.006459203499 }, { "id": 35785, "department_code": "987", "insee_code": null, "zip_code": "98731", "name": "Huahine", "slug": "huahine", "gps_lat": -16.7285089, "gps_lng": -151.013455133122 }, { "id": 35826, "department_code": "988", "insee_code": null, "zip_code": "98815", "name": "Hienghène", "slug": "hienghene", "gps_lat": -20.6893694, "gps_lng": 164.9440366 }, { "id": 35827, "department_code": "988", "insee_code": null, "zip_code": "98816", "name": "Houaïlou", "slug": "houailou", "gps_lat": -21.2787028, "gps_lng": 165.6270461 }]
