[{ "id": 177, "department_code": "01", "insee_code": "01194", "zip_code": "01480", "name": "Jassans-Riottier", "slug": "jassans riottier", "gps_lat": 45.97899115384616, "gps_lng": 4.7605163461538496 }, { "id": 178, "department_code": "01", "insee_code": "01195", "zip_code": "01250", "name": "Jasseron", "slug": "jasseron", "gps_lat": 46.21828453551914, "gps_lng": 5.31430852459016 }, { "id": 179, "department_code": "01", "insee_code": "01196", "zip_code": "01340", "name": "Jayat", "slug": "jayat", "gps_lat": 46.37024833333335, "gps_lng": 5.11187887387388 }, { "id": 180, "department_code": "01", "insee_code": "01197", "zip_code": "01250", "name": "Journans", "slug": "journans", "gps_lat": 46.14725153846154, "gps_lng": 5.33655846153846 }, { "id": 181, "department_code": "01", "insee_code": "01198", "zip_code": "01800", "name": "Joyeux", "slug": "joyeux", "gps_lat": 45.95155808333333, "gps_lng": 5.10248991666667 }, { "id": 182, "department_code": "01", "insee_code": "01199", "zip_code": "01640", "name": "Jujurieux", "slug": "jujurieux", "gps_lat": 46.04619127753303, "gps_lng": 5.41887612334802 }, { "id": 787, "department_code": "02", "insee_code": "02389", "zip_code": "02850", "name": "Jaulgonne", "slug": "jaulgonne", "gps_lat": 49.09098491228069, "gps_lng": 3.5336801754386 }, { "id": 788, "department_code": "02", "insee_code": "02390", "zip_code": "02490", "name": "Jeancourt", "slug": "jeancourt", "gps_lat": 49.92617704081632, "gps_lng": 3.1452743877551 }, { "id": 789, "department_code": "02", "insee_code": "02391", "zip_code": "02140", "name": "Jeantes", "slug": "jeantes", "gps_lat": 49.81027608695651, "gps_lng": 4.06948115942029 }, { "id": 790, "department_code": "02", "insee_code": "02392", "zip_code": "02420", "name": "Joncourt", "slug": "joncourt", "gps_lat": 49.96413377551019, "gps_lng": 3.31034122448979 }, { "id": 791, "department_code": "02", "insee_code": "02393", "zip_code": "02220", "name": "Jouaignes", "slug": "jouaignes", "gps_lat": 49.29800287234044, "gps_lng": 3.52841021276596 }, { "id": 792, "department_code": "02", "insee_code": "02395", "zip_code": "02380", "name": "Jumencourt", "slug": "jumencourt", "gps_lat": 49.5122606818182, "gps_lng": 3.34773897727273 }, { "id": 793, "department_code": "02", "insee_code": "02396", "zip_code": "02160", "name": "Jumigny", "slug": "jumigny", "gps_lat": 49.40927340425533, "gps_lng": 3.7247357446808502 }, { "id": 794, "department_code": "02", "insee_code": "02397", "zip_code": "02480", "name": "Jussy", "slug": "jussy", "gps_lat": 49.71731404494382, "gps_lng": 3.23555292134831 }, { "id": 795, "department_code": "02", "insee_code": "02398", "zip_code": "02880", "name": "Juvigny", "slug": "juvigny", "gps_lat": 49.44549666666667, "gps_lng": 3.31945738095238 }, { "id": 796, "department_code": "02", "insee_code": "02399", "zip_code": "02190", "name": "Juvincourt-et-Damary", "slug": "juvincourt et damary", "gps_lat": 49.43746318181818, "gps_lng": 3.89582636363636 }, { "id": 1349, "department_code": "03", "insee_code": "03132", "zip_code": "03220", "name": "Jaligny-sur-Besbre", "slug": "jaligny sur besbre", "gps_lat": 46.3785703896104, "gps_lng": 3.58942376623377 }, { "id": 1350, "department_code": "03", "insee_code": "03133", "zip_code": "03800", "name": "Jenzat", "slug": "jenzat", "gps_lat": 46.16152707070706, "gps_lng": 3.19911787878788 }, { "id": 1613, "department_code": "04", "insee_code": "04096", "zip_code": "04850", "name": "Jausiers", "slug": "jausiers", "gps_lat": 44.38051981132077, "gps_lng": 6.7758217358490604 }, { "id": 1797, "department_code": "05", "insee_code": "05068", "zip_code": "05130", "name": "Jarjayes", "slug": "jarjayes", "gps_lat": 44.50661131578947, "gps_lng": 6.1058447368421 }, { "id": 2177, "department_code": "07", "insee_code": "07107", "zip_code": "07380", "name": "Jaujac", "slug": "jaujac", "gps_lat": 44.63100734513274, "gps_lng": 4.23987017699115 }, { "id": 2178, "department_code": "07", "insee_code": "07108", "zip_code": "07160", "name": "Jaunac", "slug": "jaunac", "gps_lat": 44.92040239999999, "gps_lng": 4.39644573333333 }, { "id": 2179, "department_code": "07", "insee_code": "07109", "zip_code": "07110", "name": "Joannas", "slug": "joannas", "gps_lat": 44.57144581730771, "gps_lng": 4.25307995192308 }, { "id": 2180, "department_code": "07", "insee_code": "07110", "zip_code": "07260", "name": "Joyeuse", "slug": "joyeuse", "gps_lat": 44.47343822222221, "gps_lng": 4.24372533333333 }, { "id": 2181, "department_code": "07", "insee_code": "07111", "zip_code": "07600", "name": "Juvinas", "slug": "juvinas", "gps_lat": 44.7033168503937, "gps_lng": 4.3068657480315 }, { "id": 2628, "department_code": "08", "insee_code": "08236", "zip_code": "08430", "name": "Jandun", "slug": "jandun", "gps_lat": 49.666208308823514, "gps_lng": 4.56102926470588 }, { "id": 2629, "department_code": "08", "insee_code": "08237", "zip_code": "08700", "name": "Joigny-sur-Meuse", "slug": "joigny sur meuse", "gps_lat": 49.83249349206349, "gps_lng": 4.76596238095238 }, { "id": 2630, "department_code": "08", "insee_code": "08238", "zip_code": "08130", "name": "Jonval", "slug": "jonval", "gps_lat": 49.57224773584907, "gps_lng": 4.66511150943396 }, { "id": 2631, "department_code": "08", "insee_code": "08239", "zip_code": "08310", "name": "Juniville", "slug": "juniville", "gps_lat": 49.40509978494624, "gps_lng": 4.37885913978495 }, { "id": 2632, "department_code": "08", "insee_code": "08240", "zip_code": "08270", "name": "Justine-Herbigny", "slug": "justine herbigny", "gps_lat": 49.60679292682929, "gps_lng": 4.32660946341464 }, { "id": 3012, "department_code": "09", "insee_code": "09146", "zip_code": "09700", "name": "Justiniac", "slug": "justiniac", "gps_lat": 43.215390754717, "gps_lng": 1.48866547169811 }, { "id": 3367, "department_code": "10", "insee_code": "10175", "zip_code": "10330", "name": "Jasseines", "slug": "jasseines", "gps_lat": 48.50950781250001, "gps_lng": 4.3889725 }, { "id": 3368, "department_code": "10", "insee_code": "10176", "zip_code": "10200", "name": "Jaucourt", "slug": "jaucourt", "gps_lat": 48.25618299999999, "gps_lng": 4.64457857142857 }, { "id": 3369, "department_code": "10", "insee_code": "10177", "zip_code": "10320", "name": "Javernant", "slug": "javernant", "gps_lat": 48.15827388059703, "gps_lng": 3.99583537313433 }, { "id": 3370, "department_code": "10", "insee_code": "10178", "zip_code": "10140", "name": "Jessains", "slug": "jessains", "gps_lat": 48.2850853125, "gps_lng": 4.57067458333333 }, { "id": 3371, "department_code": "10", "insee_code": "10179", "zip_code": "10320", "name": "Jeugny", "slug": "jeugny", "gps_lat": 48.12200212121211, "gps_lng": 4.041 }, { "id": 3372, "department_code": "10", "insee_code": "10180", "zip_code": "10330", "name": "Joncreuil", "slug": "joncreuil", "gps_lat": 48.52838377358491, "gps_lng": 4.62459047169811 }, { "id": 3373, "department_code": "10", "insee_code": "10181", "zip_code": "10260", "name": "Jully-sur-Sarce", "slug": "jully sur sarce", "gps_lat": 48.10819420814479, "gps_lng": 4.27949986425339 }, { "id": 3374, "department_code": "10", "insee_code": "10182", "zip_code": "10310", "name": "Juvancourt", "slug": "juvancourt", "gps_lat": 48.12231188405799, "gps_lng": 4.80749594202899 }, { "id": 3375, "department_code": "10", "insee_code": "10183", "zip_code": "10140", "name": "Juvanzé", "slug": "juvanze", "gps_lat": 48.32246986842105, "gps_lng": 4.58274828947368 }, { "id": 3376, "department_code": "10", "insee_code": "10184", "zip_code": "10500", "name": "Juzanvigny", "slug": "juzanvigny", "gps_lat": 48.41616260416669, "gps_lng": 4.60728208333333 }, { "id": 3802, "department_code": "11", "insee_code": "11176", "zip_code": "11220", "name": "Jonquières", "slug": "jonquieres", "gps_lat": 43.03221684210526, "gps_lng": 2.72972592105263 }, { "id": 3803, "department_code": "11", "insee_code": "11177", "zip_code": "11140", "name": "Joucou", "slug": "joucou", "gps_lat": 42.82382621052631, "gps_lng": 2.08432189473684 }, { "id": 4413, "department_code": "13", "insee_code": "13048", "zip_code": "13490", "name": "Jouques", "slug": "jouques", "gps_lat": 43.62742751020409, "gps_lng": 5.6545524489795795 }, { "id": 4763, "department_code": "14", "insee_code": "14344", "zip_code": "14670", "name": "Janville", "slug": "janville", "gps_lat": 49.16373045454546, "gps_lng": -0.16137515151515003 }, { "id": 4764, "department_code": "14", "insee_code": "14345", "zip_code": "14170", "name": "Jort", "slug": "jort", "gps_lat": 48.97223860869565, "gps_lng": -0.07884904347826005 }, { "id": 4765, "department_code": "14", "insee_code": "14346", "zip_code": "14250", "name": "Juaye-Mondaye", "slug": "juaye mondaye", "gps_lat": 49.2022328292683, "gps_lng": -0.69390731707317 }, { "id": 4767, "department_code": "14", "insee_code": "14348", "zip_code": "14250", "name": "Juvigny-sur-Seulles", "slug": "juvigny sur seulles", "gps_lat": 49.15631844036698, "gps_lng": -0.60906587155963 }, { "id": 5123, "department_code": "15", "insee_code": "15078", "zip_code": "15110", "name": "Jabrun", "slug": "jabrun", "gps_lat": 44.80104398843932, "gps_lng": 2.96003742774566 }, { "id": 5124, "department_code": "15", "insee_code": "15079", "zip_code": "15200", "name": "Jaleyrac", "slug": "jaleyrac", "gps_lat": 45.26798008902075, "gps_lng": 2.36348833827893 }, { "id": 5125, "department_code": "15", "insee_code": "15080", "zip_code": "15170", "name": "Joursac", "slug": "joursac", "gps_lat": 45.16108334394904, "gps_lng": 3.01823792993631 }, { "id": 5126, "department_code": "15", "insee_code": "15081", "zip_code": "15800", "name": "Jou-sous-Monjou", "slug": "jou sous monjou", "gps_lat": 44.94059475555559, "gps_lng": 2.66095342222222 }, { "id": 5127, "department_code": "15", "insee_code": "15082", "zip_code": "15120", "name": "Junhac", "slug": "junhac", "gps_lat": 44.69323024242424, "gps_lng": 2.4478333030303 }, { "id": 5128, "department_code": "15", "insee_code": "15083", "zip_code": "15250", "name": "Jussac", "slug": "jussac", "gps_lat": 44.99456653017242, "gps_lng": 2.41785157327586 }, { "id": 5458, "department_code": "16", "insee_code": "16167", "zip_code": "16200", "name": "Jarnac", "slug": "jarnac", "gps_lat": 45.68449753246754, "gps_lng": -0.16429253246752995 }, { "id": 5459, "department_code": "16", "insee_code": "16168", "zip_code": "16560", "name": "Jauldes", "slug": "jauldes", "gps_lat": 45.78166480392159, "gps_lng": 0.24587068627451 }, { "id": 5460, "department_code": "16", "insee_code": "16169", "zip_code": "16100", "name": "Javrezac", "slug": "javrezac", "gps_lat": 45.7000378125, "gps_lng": -0.3627853125 }, { "id": 5461, "department_code": "16", "insee_code": "16170", "zip_code": "16190", "name": "Juignac", "slug": "juignac", "gps_lat": 45.36575785714285, "gps_lng": 0.15768047619048 }, { "id": 5462, "department_code": "16", "insee_code": "16171", "zip_code": "16130", "name": "Juillac-le-Coq", "slug": "juillac le coq", "gps_lat": 45.59033638655463, "gps_lng": -0.2565331092437 }, { "id": 5463, "department_code": "16", "insee_code": "16173", "zip_code": "16230", "name": "Juillé", "slug": "juille", "gps_lat": 45.92752755319148, "gps_lng": 0.14197819148936 }, { "id": 5464, "department_code": "16", "insee_code": "16174", "zip_code": "16200", "name": "Julienne", "slug": "julienne", "gps_lat": 45.69297178571428, "gps_lng": -0.23550035714286 }, { "id": 5869, "department_code": "17", "insee_code": "17192", "zip_code": "17520", "name": "Jarnac-Champagne", "slug": "jarnac champagne", "gps_lat": 45.55202518248175, "gps_lng": -0.41529189781022 }, { "id": 5873, "department_code": "17", "insee_code": "17196", "zip_code": "17260", "name": "Jazennes", "slug": "jazennes", "gps_lat": 45.58562080000001, "gps_lng": -0.6116736 }, { "id": 5874, "department_code": "17", "insee_code": "17197", "zip_code": "17500", "name": "Jonzac", "slug": "jonzac", "gps_lat": 45.44154241610738, "gps_lng": -0.42455442953019995 }, { "id": 5875, "department_code": "17", "insee_code": "17198", "zip_code": "17770", "name": "Juicq", "slug": "juicq", "gps_lat": 45.83850336538462, "gps_lng": -0.57720634615385 }, { "id": 5876, "department_code": "17", "insee_code": "17199", "zip_code": "17130", "name": "Jussas", "slug": "jussas", "gps_lat": 45.27254133333332, "gps_lng": -0.35574281481480996 }, { "id": 6269, "department_code": "18", "insee_code": "18116", "zip_code": "18300", "name": "Jalognes", "slug": "jalognes", "gps_lat": 47.2313995505618, "gps_lng": 2.77051561797753 }, { "id": 6270, "department_code": "18", "insee_code": "18117", "zip_code": "18260", "name": "Jars", "slug": "jars", "gps_lat": 47.39662074074072, "gps_lng": 2.67366064814815 }, { "id": 6271, "department_code": "18", "insee_code": "18118", "zip_code": "18320", "name": "Jouet-sur-l'Aubois", "slug": "jouet sur l aubois", "gps_lat": 47.04436408333332, "gps_lng": 3.00070083333334 }, { "id": 6272, "department_code": "18", "insee_code": "18119", "zip_code": "18130", "name": "Jussy-Champagne", "slug": "jussy champagne", "gps_lat": 46.99036370786516, "gps_lng": 2.64660741573034 }, { "id": 6273, "department_code": "18", "insee_code": "18120", "zip_code": "18140", "name": "Jussy-le-Chaudrier", "slug": "jussy le chaudrier", "gps_lat": 47.12601032894737, "gps_lng": 2.93567868421052 }, { "id": 6538, "department_code": "19", "insee_code": "19093", "zip_code": "19500", "name": "Jugeals-Nazareth", "slug": "jugeals nazareth", "gps_lat": 45.08953755244755, "gps_lng": 1.55345475524476 }, { "id": 6539, "department_code": "19", "insee_code": "19094", "zip_code": "19350", "name": "Juillac", "slug": "juillac", "gps_lat": 45.3170216964286, "gps_lng": 1.29443986607143 }, { "id": 7044, "department_code": "21", "insee_code": "21321", "zip_code": "21150", "name": "Jailly-les-Moulins", "slug": "jailly les moulins", "gps_lat": 47.46224678260869, "gps_lng": 4.58900260869565 }, { "id": 7045, "department_code": "21", "insee_code": "21322", "zip_code": "21250", "name": "Jallanges", "slug": "jallanges", "gps_lat": 46.98436891891891, "gps_lng": 5.17073891891892 }, { "id": 7046, "department_code": "21", "insee_code": "21323", "zip_code": "21310", "name": "Jancigny", "slug": "jancigny", "gps_lat": 47.38099180851066, "gps_lng": 5.41696686170213 }, { "id": 7047, "department_code": "21", "insee_code": "21324", "zip_code": "21460", "name": "Jeux-lès-Bard", "slug": "jeux les bard", "gps_lat": 47.53013409836064, "gps_lng": 4.2527745901639395 }, { "id": 7048, "department_code": "21", "insee_code": "21325", "zip_code": "21230", "name": "Jouey", "slug": "jouey", "gps_lat": 47.15604069204149, "gps_lng": 4.43855525951557 }, { "id": 7049, "department_code": "21", "insee_code": "21326", "zip_code": "21450", "name": "Jours-lès-Baigneux", "slug": "jours les baigneux", "gps_lat": 47.62773515384616, "gps_lng": 4.60358353846154 }, { "id": 7051, "department_code": "21", "insee_code": "21328", "zip_code": "21210", "name": "Juillenay", "slug": "juillenay", "gps_lat": 47.35973006711407, "gps_lng": 4.26953060402684 }, { "id": 7052, "department_code": "21", "insee_code": "21329", "zip_code": "21140", "name": "Juilly", "slug": "juilly", "gps_lat": 47.48803890625, "gps_lng": 4.40170859375 }, { "id": 7509, "department_code": "22", "insee_code": "22084", "zip_code": "22270", "name": "Jugon-les-Lacs - Commune nouvelle", "slug": "jugon les lacs commune nouvelle", "gps_lat": 48.402152362637366, "gps_lng": -2.32555002747253 }, { "id": 7884, "department_code": "23", "insee_code": "23098", "zip_code": "23270", "name": "Jalesches", "slug": "jalesches", "gps_lat": 46.29286874345548, "gps_lng": 2.08327486910995 }, { "id": 7885, "department_code": "23", "insee_code": "23099", "zip_code": "23250", "name": "Janaillat", "slug": "janaillat", "gps_lat": 46.04824536299763, "gps_lng": 1.77502381733021 }, { "id": 7886, "department_code": "23", "insee_code": "23100", "zip_code": "23140", "name": "Jarnages", "slug": "jarnages", "gps_lat": 46.18750530612245, "gps_lng": 2.08137015306123 }, { "id": 7887, "department_code": "23", "insee_code": "23101", "zip_code": "23220", "name": "Jouillat", "slug": "jouillat", "gps_lat": 46.26473347721821, "gps_lng": 1.93624119904077 }, { "id": 8233, "department_code": "24", "insee_code": "24213", "zip_code": "24140", "name": "Jaure", "slug": "jaure", "gps_lat": 45.05698519480519, "gps_lng": 0.55163246753247 }, { "id": 8234, "department_code": "24", "insee_code": "24214", "zip_code": "24300", "name": "Javerlhac-et-la-Chapelle-Saint-Robert", "slug": "javerlhac et la chapelle saint robert", "gps_lat": 45.56087023346304, "gps_lng": 0.56108638132296 }, { "id": 8235, "department_code": "24", "insee_code": "24215", "zip_code": "24590", "name": "Jayac", "slug": "jayac", "gps_lat": 45.03136414012741, "gps_lng": 1.35176503184713 }, { "id": 8237, "department_code": "24", "insee_code": "24217", "zip_code": "24260", "name": "Journiac", "slug": "journiac", "gps_lat": 44.96420515337424, "gps_lng": 0.89028865030675 }, { "id": 8238, "department_code": "24", "insee_code": "24218", "zip_code": "24630", "name": "Jumilhac-le-Grand", "slug": "jumilhac le grand", "gps_lat": 45.50397817721517, "gps_lng": 1.06939308860759 }, { "id": 8860, "department_code": "25", "insee_code": "25317", "zip_code": "25170", "name": "Jallerange", "slug": "jallerange", "gps_lat": 47.25532400000001, "gps_lng": 5.72050476923077 }, { "id": 8861, "department_code": "25", "insee_code": "25318", "zip_code": "25370", "name": "Jougne", "slug": "jougne", "gps_lat": 46.7518669026549, "gps_lng": 6.38548230088495 }, { "id": 9297, "department_code": "26", "insee_code": "26152", "zip_code": "26310", "name": "Jonchères", "slug": "joncheres", "gps_lat": 44.56444656000001, "gps_lng": 5.40723608 }, { "id": 9518, "department_code": "26", "insee_code": "26381", "zip_code": "26300", "name": "Jaillans", "slug": "jaillans", "gps_lat": 45.03128974358975, "gps_lng": 5.16388008547008 }, { "id": 9831, "department_code": "27", "insee_code": "27358", "zip_code": "27120", "name": "Jouy-sur-Eure", "slug": "jouy sur eure", "gps_lat": 49.04902769230769, "gps_lng": 1.28225340659341 }, { "id": 9832, "department_code": "27", "insee_code": "27359", "zip_code": "27250", "name": "Juignettes", "slug": "juignettes", "gps_lat": 48.84545010000001, "gps_lng": 0.6413002 }, { "id": 9833, "department_code": "27", "insee_code": "27360", "zip_code": "27220", "name": "Jumelles", "slug": "jumelles", "gps_lat": 48.91815788461539, "gps_lng": 1.20932576923077 }, { "id": 10308, "department_code": "28", "insee_code": "28198", "zip_code": "28200", "name": "Jallans", "slug": "jallans", "gps_lat": 48.07700592592595, "gps_lng": 1.38410648148148 }, { "id": 10309, "department_code": "28", "insee_code": "28199", "zip_code": "28310", "name": "Janville", "slug": "janville", "gps_lat": 48.20145295081967, "gps_lng": 1.8879416393442598 }, { "id": 10310, "department_code": "28", "insee_code": "28200", "zip_code": "28250", "name": "Jaudrais", "slug": "jaudrais", "gps_lat": 48.57312734939759, "gps_lng": 1.12298493975904 }, { "id": 10311, "department_code": "28", "insee_code": "28201", "zip_code": "28300", "name": "Jouy", "slug": "jouy", "gps_lat": 48.51607705882353, "gps_lng": 1.55099505882353 }, { "id": 11295, "department_code": "30", "insee_code": "30135", "zip_code": "30300", "name": "Jonquières-Saint-Vincent", "slug": "jonquieres saint vincent", "gps_lat": 43.82863492753624, "gps_lng": 4.56760942028986 }, { "id": 11296, "department_code": "30", "insee_code": "30136", "zip_code": "30250", "name": "Junas", "slug": "junas", "gps_lat": 43.76117644859814, "gps_lng": 4.11245 }, { "id": 11757, "department_code": "31", "insee_code": "31242", "zip_code": "31110", "name": "Jurvielle", "slug": "jurvielle", "gps_lat": 42.82979736842105, "gps_lng": 0.47660736842105 }, { "id": 11758, "department_code": "31", "insee_code": "31243", "zip_code": "31540", "name": "Juzes", "slug": "juzes", "gps_lat": 43.44793476923077, "gps_lng": 1.7932133846153802 }, { "id": 11759, "department_code": "31", "insee_code": "31244", "zip_code": "31110", "name": "Juzet-de-Luchon", "slug": "juzet de luchon", "gps_lat": 42.80432579999999, "gps_lng": 0.632136 }, { "id": 11760, "department_code": "31", "insee_code": "31245", "zip_code": "31160", "name": "Juzet-d'Izaut", "slug": "juzet d izaut", "gps_lat": 42.97352311320756, "gps_lng": 0.74710594339623 }, { "id": 12270, "department_code": "32", "insee_code": "32162", "zip_code": "32360", "name": "Jegun", "slug": "jegun", "gps_lat": 43.75875475609759, "gps_lng": 0.44657398373984 }, { "id": 12271, "department_code": "32", "insee_code": "32163", "zip_code": "32160", "name": "Jû-Belloc", "slug": "ju belloc", "gps_lat": 43.57535387323944, "gps_lng": 0.01443253521127 }, { "id": 12272, "department_code": "32", "insee_code": "32164", "zip_code": "32230", "name": "Juillac", "slug": "juillac", "gps_lat": 43.54640041025641, "gps_lng": 0.11500979487179 }, { "id": 12273, "department_code": "32", "insee_code": "32165", "zip_code": "32200", "name": "Juilles", "slug": "juilles", "gps_lat": 43.60575768595039, "gps_lng": 0.82708809917355 }, { "id": 12274, "department_code": "32", "insee_code": "32166", "zip_code": "32190", "name": "Justian", "slug": "justian", "gps_lat": 43.81347475409837, "gps_lng": 0.298935 }, { "id": 12781, "department_code": "33", "insee_code": "33208", "zip_code": "33590", "name": "Jau-Dignac-et-Loirac", "slug": "jau dignac et loirac", "gps_lat": 45.41520064102565, "gps_lng": -0.94173448717949 }, { "id": 12782, "department_code": "33", "insee_code": "33209", "zip_code": "33420", "name": "Jugazan", "slug": "jugazan", "gps_lat": 44.78103283950616, "gps_lng": -0.15219148148147998 }, { "id": 12783, "department_code": "33", "insee_code": "33210", "zip_code": "33890", "name": "Juillac", "slug": "juillac", "gps_lat": 44.81386142857143, "gps_lng": 0.05454491071429 }, { "id": 13235, "department_code": "34", "insee_code": "34120", "zip_code": "34830", "name": "Jacou", "slug": "jacou", "gps_lat": 43.66414260869567, "gps_lng": 3.9133504347826102 }, { "id": 13236, "department_code": "34", "insee_code": "34121", "zip_code": "34650", "name": "Joncels", "slug": "joncels", "gps_lat": 43.77135026923075, "gps_lng": 3.17570373076923 }, { "id": 13237, "department_code": "34", "insee_code": "34122", "zip_code": "34725", "name": "Jonquières", "slug": "jonquieres", "gps_lat": 43.67340968253969, "gps_lng": 3.47620142857143 }, { "id": 13238, "department_code": "34", "insee_code": "34123", "zip_code": "34990", "name": "Juvignac", "slug": "juvignac", "gps_lat": 43.6186052631579, "gps_lng": 3.80050888157895 }, { "id": 13592, "department_code": "35", "insee_code": "35136", "zip_code": "35150", "name": "Janzé", "slug": "janze", "gps_lat": 47.94848249999996, "gps_lng": -1.4931593604651199 }, { "id": 13593, "department_code": "35", "insee_code": "35137", "zip_code": "35133", "name": "Javené", "slug": "javene", "gps_lat": 48.32078610223643, "gps_lng": -1.2162370287539899 }, { "id": 13899, "department_code": "36", "insee_code": "36089", "zip_code": "36120", "name": "Jeu-les-Bois", "slug": "jeu les bois", "gps_lat": 46.6730075362319, "gps_lng": 1.80036618357488 }, { "id": 13900, "department_code": "36", "insee_code": "36090", "zip_code": "36240", "name": "Jeu-Maloches", "slug": "jeu maloches", "gps_lat": 47.043927, "gps_lng": 1.44207122222222 }, { "id": 14168, "department_code": "37", "insee_code": "37121", "zip_code": "37120", "name": "Jaulnay", "slug": "jaulnay", "gps_lat": 46.957338, "gps_lng": 0.43021821052632 }, { "id": 14169, "department_code": "37", "insee_code": "37122", "zip_code": "37300", "name": "Joué-lès-Tours", "slug": "joue les tours", "gps_lat": 47.33504033333334, "gps_lng": 0.65918266666667 }, { "id": 14503, "department_code": "38", "insee_code": "38197", "zip_code": "38280", "name": "Janneyrias", "slug": "janneyrias", "gps_lat": 45.747013, "gps_lng": 5.11702142857143 }, { "id": 14504, "department_code": "38", "insee_code": "38198", "zip_code": "38270", "name": "Jarcieu", "slug": "jarcieu", "gps_lat": 45.33356046511628, "gps_lng": 4.94846755813953 }, { "id": 14505, "department_code": "38", "insee_code": "38199", "zip_code": "38200", "name": "Jardin", "slug": "jardin", "gps_lat": 45.49352655172414, "gps_lng": 4.91489655172414 }, { "id": 14506, "department_code": "38", "insee_code": "38200", "zip_code": "38560", "name": "Jarrie", "slug": "jarrie", "gps_lat": 45.11803588709678, "gps_lng": 5.7458634677419305 }, { "id": 15090, "department_code": "39", "insee_code": "39269", "zip_code": "39360", "name": "Jeurre", "slug": "jeurre", "gps_lat": 46.37616130434782, "gps_lng": 5.71122034782609 }, { "id": 15091, "department_code": "39", "insee_code": "39270", "zip_code": "39100", "name": "Jouhe", "slug": "jouhe", "gps_lat": 47.14061358974361, "gps_lng": 5.48566478632479 }, { "id": 15497, "department_code": "40", "insee_code": "40129", "zip_code": "40230", "name": "Josse", "slug": "josse", "gps_lat": 43.63823684210527, "gps_lng": -1.2320426315789499 }, { "id": 15797, "department_code": "41", "insee_code": "41105", "zip_code": "41370", "name": "Josnes", "slug": "josnes", "gps_lat": 47.79535831168828, "gps_lng": 1.54036376623377 }, { "id": 16082, "department_code": "42", "insee_code": "42112", "zip_code": "42460", "name": "Jarnosse", "slug": "jarnosse", "gps_lat": 46.10086697916668, "gps_lng": 4.24305635416667 }, { "id": 16083, "department_code": "42", "insee_code": "42113", "zip_code": "42110", "name": "Jas", "slug": "jas", "gps_lat": 45.74231558333334, "gps_lng": 4.31957741666667 }, { "id": 16084, "department_code": "42", "insee_code": "42115", "zip_code": "42660", "name": "Jonzieux", "slug": "jonzieux", "gps_lat": 45.31901880952381, "gps_lng": 4.36457611111111 }, { "id": 16085, "department_code": "42", "insee_code": "42116", "zip_code": "42430", "name": "Juré", "slug": "jure", "gps_lat": 45.8881031034483, "gps_lng": 3.89832314655172 }, { "id": 16408, "department_code": "43", "insee_code": "43105", "zip_code": "43100", "name": "Javaugues", "slug": "javaugues", "gps_lat": 45.29251756097562, "gps_lng": 3.49223495934959 }, { "id": 16409, "department_code": "43", "insee_code": "43106", "zip_code": "43230", "name": "Jax", "slug": "jax", "gps_lat": 45.17031056994819, "gps_lng": 3.61657834196891 }, { "id": 16410, "department_code": "43", "insee_code": "43107", "zip_code": "43230", "name": "Josat", "slug": "josat", "gps_lat": 45.21509012931035, "gps_lng": 3.60956883620689 }, { "id": 16411, "department_code": "43", "insee_code": "43108", "zip_code": "43500", "name": "Jullianges", "slug": "jullianges", "gps_lat": 45.30807970954354, "gps_lng": 3.7895820746888003 }, { "id": 16630, "department_code": "44", "insee_code": "44076", "zip_code": "44170", "name": "Jans", "slug": "jans", "gps_lat": 47.62205423913045, "gps_lng": -1.59763706521739 }, { "id": 16631, "department_code": "44", "insee_code": "44077", "zip_code": "44440", "name": "Joué-sur-Erdre", "slug": "joue sur erdre", "gps_lat": 47.50628355072466, "gps_lng": -1.42703014492754 }, { "id": 16632, "department_code": "44", "insee_code": "44078", "zip_code": "44670", "name": "Juigné-des-Moutiers", "slug": "juigne des moutiers", "gps_lat": 47.68393165137616, "gps_lng": -1.2029076605504598 }, { "id": 16935, "department_code": "45", "insee_code": "45173", "zip_code": "45150", "name": "Jargeau", "slug": "jargeau", "gps_lat": 47.85368417721521, "gps_lng": 2.10560025316456 }, { "id": 16936, "department_code": "45", "insee_code": "45174", "zip_code": "45480", "name": "Jouy-en-Pithiverais", "slug": "jouy en pithiverais", "gps_lat": 48.1522022857143, "gps_lng": 2.13475342857143 }, { "id": 16937, "department_code": "45", "insee_code": "45175", "zip_code": "45370", "name": "Jouy-le-Potier", "slug": "jouy le potier", "gps_lat": 47.74567661971827, "gps_lng": 1.81573460093897 }, { "id": 16938, "department_code": "45", "insee_code": "45176", "zip_code": "45340", "name": "Juranville", "slug": "juranville", "gps_lat": 48.06166651376147, "gps_lng": 2.48326908256881 }, { "id": 17542, "department_code": "47", "insee_code": "47120", "zip_code": "47180", "name": "Jusix", "slug": "jusix", "gps_lat": 44.54353779069768, "gps_lng": 0.0449226744186 }, { "id": 17805, "department_code": "48", "insee_code": "48077", "zip_code": "48140", "name": "Julianges", "slug": "julianges", "gps_lat": 44.93381462809918, "gps_lng": 3.31826834710744 }, { "id": 17992, "department_code": "49", "insee_code": "49163", "zip_code": "49140", "name": "Jarzé Villages", "slug": "jarze villages", "gps_lat": 47.54951421686749, "gps_lng": -0.25211960843374004 }, { "id": 17995, "department_code": "49", "insee_code": "49170", "zip_code": "49330", "name": "Juvardeil", "slug": "juvardeil", "gps_lat": 47.66056490566037, "gps_lng": -0.51595220125786 }, { "id": 18174, "department_code": "50", "insee_code": "50066", "zip_code": "50610", "name": "Jullouville", "slug": "jullouville", "gps_lat": 48.76353170370369, "gps_lng": -1.52369792592593 }, { "id": 18322, "department_code": "50", "insee_code": "50258", "zip_code": "50310", "name": "Joganville", "slug": "joganville", "gps_lat": 49.47219705882352, "gps_lng": -1.34920529411765 }, { "id": 18323, "department_code": "50", "insee_code": "50259", "zip_code": "50220", "name": "Juilley", "slug": "juilley", "gps_lat": 48.59020281250001, "gps_lng": -1.34851953125 }, { "id": 18324, "department_code": "50", "insee_code": "50260", "zip_code": "50520", "name": "Juvigny les Vallées", "slug": "juvigny les vallees", "gps_lat": 48.68009669999999, "gps_lng": -1.02444115 }, { "id": 18905, "department_code": "51", "insee_code": "51303", "zip_code": "51150", "name": "Jâlons", "slug": "jalons", "gps_lat": 49.00923361963189, "gps_lng": 4.18098717791411 }, { "id": 18906, "department_code": "51", "insee_code": "51304", "zip_code": "51210", "name": "Janvilliers", "slug": "janvilliers", "gps_lat": 48.89738385542168, "gps_lng": 3.6570278313253 }, { "id": 18907, "department_code": "51", "insee_code": "51305", "zip_code": "51390", "name": "Janvry", "slug": "janvry", "gps_lat": 49.24587203389829, "gps_lng": 3.87780084745763 }, { "id": 18908, "department_code": "51", "insee_code": "51306", "zip_code": "51310", "name": "Joiselle", "slug": "joiselle", "gps_lat": 48.76429253164556, "gps_lng": 3.49218430379747 }, { "id": 18909, "department_code": "51", "insee_code": "51307", "zip_code": "51600", "name": "Jonchery-sur-Suippe", "slug": "jonchery sur suippe", "gps_lat": 49.14671884955749, "gps_lng": 4.48145460176991 }, { "id": 18910, "department_code": "51", "insee_code": "51308", "zip_code": "51140", "name": "Jonchery-sur-Vesle", "slug": "jonchery sur vesle", "gps_lat": 49.28638202531643, "gps_lng": 3.82164962025317 }, { "id": 18911, "department_code": "51", "insee_code": "51309", "zip_code": "51700", "name": "Jonquery", "slug": "jonquery", "gps_lat": 49.14552, "gps_lng": 3.78629962962963 }, { "id": 18912, "department_code": "51", "insee_code": "51310", "zip_code": "51390", "name": "Jouy-lès-Reims", "slug": "jouy les reims", "gps_lat": 49.21202311111112, "gps_lng": 3.923698 }, { "id": 18913, "department_code": "51", "insee_code": "51311", "zip_code": "51340", "name": "Jussecourt-Minecourt", "slug": "jussecourt minecourt", "gps_lat": 48.79497054263566, "gps_lng": 4.7810420930232596 }, { "id": 18914, "department_code": "51", "insee_code": "51312", "zip_code": "51150", "name": "Juvigny", "slug": "juvigny", "gps_lat": 49.01564729323309, "gps_lng": 4.26701368421053 }, { "id": 19437, "department_code": "52", "insee_code": "52250", "zip_code": "52300", "name": "Joinville", "slug": "joinville", "gps_lat": 48.43366028248585, "gps_lng": 5.12191175141243 }, { "id": 19438, "department_code": "52", "insee_code": "52251", "zip_code": "52000", "name": "Jonchery", "slug": "jonchery", "gps_lat": 48.15039279761906, "gps_lng": 5.07165952380952 }, { "id": 19439, "department_code": "52", "insee_code": "52253", "zip_code": "52330", "name": "Juzennecourt", "slug": "juzennecourt", "gps_lat": 48.19602833333333, "gps_lng": 4.98187705128205 }, { "id": 19779, "department_code": "53", "insee_code": "53121", "zip_code": "53250", "name": "Javron-les-Chapelles", "slug": "javron les chapelles", "gps_lat": 48.42355056372548, "gps_lng": -0.32966348039216 }, { "id": 19780, "department_code": "53", "insee_code": "53122", "zip_code": "53160", "name": "Jublains", "slug": "jublains", "gps_lat": 48.24756531835208, "gps_lng": -0.49525756554307 }, { "id": 19781, "department_code": "53", "insee_code": "53123", "zip_code": "53380", "name": "Juvigné", "slug": "juvigne", "gps_lat": 48.23564246113985, "gps_lng": -1.0296759067357502 }, { "id": 20194, "department_code": "54", "insee_code": "54272", "zip_code": "54200", "name": "Jaillon", "slug": "jaillon", "gps_lat": 48.75809763440861, "gps_lng": 5.97358505376344 }, { "id": 20195, "department_code": "54", "insee_code": "54273", "zip_code": "54800", "name": "Jarny", "slug": "jarny", "gps_lat": 49.1485071212121, "gps_lng": 5.87774797979798 }, { "id": 20196, "department_code": "54", "insee_code": "54274", "zip_code": "54140", "name": "Jarville-la-Malgrange", "slug": "jarville la malgrange", "gps_lat": 48.66856403225806, "gps_lng": 6.20715806451613 }, { "id": 20197, "department_code": "54", "insee_code": "54275", "zip_code": "54470", "name": "Jaulny", "slug": "jaulny", "gps_lat": 48.96839090909091, "gps_lng": 5.89317784090909 }, { "id": 20198, "department_code": "54", "insee_code": "54276", "zip_code": "54114", "name": "Jeandelaincourt", "slug": "jeandelaincourt", "gps_lat": 48.84830222222222, "gps_lng": 6.24461361111111 }, { "id": 20199, "department_code": "54", "insee_code": "54277", "zip_code": "54800", "name": "Jeandelize", "slug": "jeandelize", "gps_lat": 49.17074222222221, "gps_lng": 5.79713012345679 }, { "id": 20200, "department_code": "54", "insee_code": "54278", "zip_code": "54740", "name": "Jevoncourt", "slug": "jevoncourt", "gps_lat": 48.4147795890411, "gps_lng": 6.16559534246575 }, { "id": 20201, "department_code": "54", "insee_code": "54279", "zip_code": "54700", "name": "Jezainville", "slug": "jezainville", "gps_lat": 48.86146326086955, "gps_lng": 6.01929021739131 }, { "id": 20202, "department_code": "54", "insee_code": "54280", "zip_code": "54240", "name": "Jœuf", "slug": "joeuf", "gps_lat": 49.23226383561646, "gps_lng": 6.01328082191781 }, { "id": 20203, "department_code": "54", "insee_code": "54281", "zip_code": "54300", "name": "Jolivet", "slug": "jolivet", "gps_lat": 48.60803209302326, "gps_lng": 6.51869476744186 }, { "id": 20204, "department_code": "54", "insee_code": "54282", "zip_code": "54620", "name": "Joppécourt", "slug": "joppecourt", "gps_lat": 49.39082968944099, "gps_lng": 5.80230614906832 }, { "id": 20205, "department_code": "54", "insee_code": "54283", "zip_code": "54800", "name": "Jouaville", "slug": "jouaville", "gps_lat": 49.16061912698413, "gps_lng": 5.96222301587302 }, { "id": 20206, "department_code": "54", "insee_code": "54284", "zip_code": "54490", "name": "Joudreville", "slug": "joudreville", "gps_lat": 49.28835968421053, "gps_lng": 5.77805736842105 }, { "id": 20207, "department_code": "54", "insee_code": "54285", "zip_code": "54370", "name": "Juvrecourt", "slug": "juvrecourt", "gps_lat": 48.74168282608694, "gps_lng": 6.56293847826087 }, { "id": 20731, "department_code": "55", "insee_code": "55255", "zip_code": "55600", "name": "Jametz", "slug": "jametz", "gps_lat": 49.43021899999997, "gps_lng": 5.3836897272727295 }, { "id": 20732, "department_code": "55", "insee_code": "55256", "zip_code": "55160", "name": "Jonville-en-Woëvre", "slug": "jonville en woevre", "gps_lat": 49.06009624, "gps_lng": 5.79407456 }, { "id": 20733, "department_code": "55", "insee_code": "55257", "zip_code": "55120", "name": "Jouy-en-Argonne", "slug": "jouy en argonne", "gps_lat": 49.13701775280898, "gps_lng": 5.22233775280899 }, { "id": 20735, "department_code": "55", "insee_code": "55260", "zip_code": "55120", "name": "Julvécourt", "slug": "julvecourt", "gps_lat": 49.05984625000002, "gps_lng": 5.186459296875 }, { "id": 20736, "department_code": "55", "insee_code": "55261", "zip_code": "55170", "name": "Juvigny-en-Perthois", "slug": "juvigny en perthois", "gps_lat": 48.59582516483517, "gps_lng": 5.16879428571429 }, { "id": 20737, "department_code": "55", "insee_code": "55262", "zip_code": "55600", "name": "Juvigny-sur-Loison", "slug": "juvigny sur loison", "gps_lat": 49.46430215384613, "gps_lng": 5.33792046153846 }, { "id": 21105, "department_code": "56", "insee_code": "56091", "zip_code": "56120", "name": "Josselin", "slug": "josselin", "gps_lat": 47.95611841121496, "gps_lng": -2.55298635514019 }, { "id": 21604, "department_code": "57", "insee_code": "57349", "zip_code": "57590", "name": "Jallaucourt", "slug": "jallaucourt", "gps_lat": 48.83632538461537, "gps_lng": 6.39221384615385 }, { "id": 21605, "department_code": "57", "insee_code": "57350", "zip_code": "57130", "name": "Jouy-aux-Arches", "slug": "jouy aux arches", "gps_lat": 49.06501348314604, "gps_lng": 6.08635258426966 }, { "id": 21606, "department_code": "57", "insee_code": "57351", "zip_code": "57245", "name": "Jury", "slug": "jury", "gps_lat": 49.07217302325582, "gps_lng": 6.25511790697674 }, { "id": 21607, "department_code": "57", "insee_code": "57352", "zip_code": "57130", "name": "Jussy", "slug": "jussy", "gps_lat": 49.10099309278349, "gps_lng": 6.08172195876289 }, { "id": 21608, "department_code": "57", "insee_code": "57353", "zip_code": "57630", "name": "Juvelize", "slug": "juvelize", "gps_lat": 48.76616578431373, "gps_lng": 6.66274431372549 }, { "id": 21609, "department_code": "57", "insee_code": "57354", "zip_code": "57590", "name": "Juville", "slug": "juville", "gps_lat": 48.92939499999999, "gps_lng": 6.36063487179487 }, { "id": 22134, "department_code": "58", "insee_code": "58136", "zip_code": "58330", "name": "Jailly", "slug": "jailly", "gps_lat": 47.08271141592921, "gps_lng": 3.46628477876106 }, { "id": 22631, "department_code": "59", "insee_code": "59323", "zip_code": "59144", "name": "Jenlain", "slug": "jenlain", "gps_lat": 50.31036639175257, "gps_lng": 3.63471350515464 }, { "id": 22632, "department_code": "59", "insee_code": "59324", "zip_code": "59460", "name": "Jeumont", "slug": "jeumont", "gps_lat": 50.28973615384614, "gps_lng": 4.09943682692308 }, { "id": 22633, "department_code": "59", "insee_code": "59325", "zip_code": "59530", "name": "Jolimetz", "slug": "jolimetz", "gps_lat": 50.23097678571429, "gps_lng": 3.67750428571429 }, { "id": 23289, "department_code": "60", "insee_code": "60322", "zip_code": "60240", "name": "Jaméricourt", "slug": "jamericourt", "gps_lat": 49.30101315789474, "gps_lng": 1.87433657894737 }, { "id": 23290, "department_code": "60", "insee_code": "60323", "zip_code": "60150", "name": "Janville", "slug": "janville", "gps_lat": 49.45421157894738, "gps_lng": 2.85691210526316 }, { "id": 23291, "department_code": "60", "insee_code": "60324", "zip_code": "60350", "name": "Jaulzy", "slug": "jaulzy", "gps_lat": 49.38918175257731, "gps_lng": 3.05900381443299 }, { "id": 23292, "department_code": "60", "insee_code": "60325", "zip_code": "60880", "name": "Jaux", "slug": "jaux", "gps_lat": 49.39405626666667, "gps_lng": 2.76406066666667 }, { "id": 23293, "department_code": "60", "insee_code": "60326", "zip_code": "60680", "name": "Jonquières", "slug": "jonquieres", "gps_lat": 49.39807488095237, "gps_lng": 2.73211809523809 }, { "id": 23294, "department_code": "60", "insee_code": "60327", "zip_code": "60240", "name": "Jouy-sous-Thelle", "slug": "jouy sous thelle", "gps_lat": 49.32254214285713, "gps_lng": 1.96240948979592 }, { "id": 23295, "department_code": "60", "insee_code": "60328", "zip_code": "60112", "name": "Juvignies", "slug": "juvignies", "gps_lat": 49.5210659493671, "gps_lng": 2.09171936708861 }, { "id": 23823, "department_code": "61", "insee_code": "61209", "zip_code": "61320", "name": "Joué-du-Bois", "slug": "joue du bois", "gps_lat": 48.58632629464287, "gps_lng": -0.23723571428571 }, { "id": 23824, "department_code": "61", "insee_code": "61210", "zip_code": "61150", "name": "Joué-du-Plain", "slug": "joue du plain", "gps_lat": 48.68111499999998, "gps_lng": -0.14443519230768997 }, { "id": 23825, "department_code": "61", "insee_code": "61211", "zip_code": "61140", "name": "Juvigny Val d'Andaine", "slug": "juvigny val d andaine", "gps_lat": 48.551446, "gps_lng": -0.507522 }, { "id": 23826, "department_code": "61", "insee_code": "61211", "zip_code": "61330", "name": "Juvigny Val d'Andaine", "slug": "juvigny val d andaine", "gps_lat": 48.551446, "gps_lng": -0.507522 }, { "id": 23827, "department_code": "61", "insee_code": "61212", "zip_code": "61200", "name": "Juvigny-sur-Orne", "slug": "juvigny sur orne", "gps_lat": 48.72601295238094, "gps_lng": 0.02529771428571 }, { "id": 24529, "department_code": "62", "insee_code": "62478", "zip_code": "62850", "name": "Journy", "slug": "journy", "gps_lat": 50.7538128, "gps_lng": 2.0016848 }, { "id": 25133, "department_code": "63", "insee_code": "63179", "zip_code": "63990", "name": "Job", "slug": "job", "gps_lat": 45.62110789719627, "gps_lng": 3.74713224299065 }, { "id": 25134, "department_code": "63", "insee_code": "63180", "zip_code": "63350", "name": "Joze", "slug": "joze", "gps_lat": 45.8694733018868, "gps_lng": 3.31192047169811 }, { "id": 25135, "department_code": "63", "insee_code": "63181", "zip_code": "63460", "name": "Jozerand", "slug": "jozerand", "gps_lat": 46.02370288288291, "gps_lng": 3.09754990990991 }, { "id": 25136, "department_code": "63", "insee_code": "63182", "zip_code": "63570", "name": "Jumeaux", "slug": "jumeaux", "gps_lat": 45.43392324999999, "gps_lng": 3.34892675 }, { "id": 25695, "department_code": "64", "insee_code": "64281", "zip_code": "64190", "name": "Jasses", "slug": "jasses", "gps_lat": 43.31314572727272, "gps_lng": -0.73551145454545 }, { "id": 25696, "department_code": "64", "insee_code": "64282", "zip_code": "64480", "name": "Jatxou", "slug": "jatxou", "gps_lat": 43.40545200892858, "gps_lng": -1.41165767857143 }, { "id": 25697, "department_code": "64", "insee_code": "64283", "zip_code": "64220", "name": "Jaxu", "slug": "jaxu", "gps_lat": 43.20182863829784, "gps_lng": -1.2081568510638299 }, { "id": 25698, "department_code": "64", "insee_code": "64284", "zip_code": "64110", "name": "Jurançon", "slug": "jurancon", "gps_lat": 43.27229959183674, "gps_lng": -0.40521959183672995 }, { "id": 25699, "department_code": "64", "insee_code": "64285", "zip_code": "64120", "name": "Juxue", "slug": "juxue", "gps_lat": 43.23514092592594, "gps_lng": -1.0442390740740701 }, { "id": 26197, "department_code": "65", "insee_code": "65232", "zip_code": "65350", "name": "Jacque", "slug": "jacque", "gps_lat": 43.32066560606059, "gps_lng": 0.21564424242424 }, { "id": 26198, "department_code": "65", "insee_code": "65233", "zip_code": "65100", "name": "Jarret", "slug": "jarret", "gps_lat": 43.07401620689654, "gps_lng": -0.01702241379309999 }, { "id": 26199, "department_code": "65", "insee_code": "65234", "zip_code": "65240", "name": "Jézeau", "slug": "jezeau", "gps_lat": 42.91116661016951, "gps_lng": 0.40747855932203 }, { "id": 26200, "department_code": "65", "insee_code": "65235", "zip_code": "65290", "name": "Juillan", "slug": "juillan", "gps_lat": 43.20007385714284, "gps_lng": 0.02849028571429 }, { "id": 26201, "department_code": "65", "insee_code": "65236", "zip_code": "65100", "name": "Julos", "slug": "julos", "gps_lat": 43.11854202380953, "gps_lng": 0.00278369047619 }, { "id": 26202, "department_code": "65", "insee_code": "65237", "zip_code": "65100", "name": "Juncalas", "slug": "juncalas", "gps_lat": 43.05000272727271, "gps_lng": -0.0036909090909099662 }, { "id": 26529, "department_code": "66", "insee_code": "66089", "zip_code": "66320", "name": "Joch", "slug": "joch", "gps_lat": 42.61574242990655, "gps_lng": 2.5269508411215 }, { "id": 26530, "department_code": "66", "insee_code": "66090", "zip_code": "66360", "name": "Jujols", "slug": "jujols", "gps_lat": 42.58527136363637, "gps_lng": 2.28451818181818 }, { "id": 26883, "department_code": "67", "insee_code": "67229", "zip_code": "67440", "name": "Jetterswiller", "slug": "jetterswiller", "gps_lat": 48.6683925925926, "gps_lng": 7.41855185185185 }, { "id": 27342, "department_code": "68", "insee_code": "68157", "zip_code": "68320", "name": "Jebsheim", "slug": "jebsheim", "gps_lat": 48.12433263157896, "gps_lng": 7.47471403508772 }, { "id": 27343, "department_code": "68", "insee_code": "68158", "zip_code": "68130", "name": "Jettingen", "slug": "jettingen", "gps_lat": 47.5941665168539, "gps_lng": 7.37823775280899 }, { "id": 27344, "department_code": "68", "insee_code": "68159", "zip_code": "68500", "name": "Jungholtz", "slug": "jungholtz", "gps_lat": 47.89022046728969, "gps_lng": 7.18473887850468 }, { "id": 27658, "department_code": "69", "insee_code": "69101", "zip_code": "69640", "name": "Jarnioux", "slug": "jarnioux", "gps_lat": 45.96780053191488, "gps_lng": 4.62991308510638 }, { "id": 27659, "department_code": "69", "insee_code": "69102", "zip_code": "69170", "name": "Joux", "slug": "joux", "gps_lat": 45.88856741258742, "gps_lng": 4.37914832167832 }, { "id": 27660, "department_code": "69", "insee_code": "69103", "zip_code": "69840", "name": "Juliénas", "slug": "julienas", "gps_lat": 46.24308549180326, "gps_lng": 4.70546319672131 }, { "id": 27661, "department_code": "69", "insee_code": "69104", "zip_code": "69840", "name": "Jullié", "slug": "jullie", "gps_lat": 46.24288731707318, "gps_lng": 4.6604318292682905 }, { "id": 27828, "department_code": "69", "insee_code": "69279", "zip_code": "69330", "name": "Jonage", "slug": "jonage", "gps_lat": 45.79059894736842, "gps_lng": 5.04689175438596 }, { "id": 27829, "department_code": "69", "insee_code": "69280", "zip_code": "69330", "name": "Jons", "slug": "jons", "gps_lat": 45.79543041666667, "gps_lng": 5.0721385416666696 }, { "id": 28119, "department_code": "70", "insee_code": "70290", "zip_code": "70800", "name": "Jasney", "slug": "jasney", "gps_lat": 47.86681975308642, "gps_lng": 6.17585783950617 }, { "id": 28120, "department_code": "70", "insee_code": "70291", "zip_code": "70500", "name": "Jonvelle", "slug": "jonvelle", "gps_lat": 47.93043014925376, "gps_lng": 5.91754910447762 }, { "id": 28121, "department_code": "70", "insee_code": "70292", "zip_code": "70500", "name": "Jussey", "slug": "jussey", "gps_lat": 47.81467014652012, "gps_lng": 5.8900866666666705 }, { "id": 28623, "department_code": "71", "insee_code": "71240", "zip_code": "71250", "name": "Jalogny", "slug": "jalogny", "gps_lat": 46.41146764705883, "gps_lng": 4.63585831932773 }, { "id": 28624, "department_code": "71", "insee_code": "71241", "zip_code": "71640", "name": "Jambles", "slug": "jambles", "gps_lat": 46.77550201257863, "gps_lng": 4.6717972327043995 }, { "id": 28625, "department_code": "71", "insee_code": "71242", "zip_code": "71460", "name": "Joncy", "slug": "joncy", "gps_lat": 46.61673949438202, "gps_lng": 4.54777348314607 }, { "id": 28626, "department_code": "71", "insee_code": "71243", "zip_code": "71480", "name": "Joudes", "slug": "joudes", "gps_lat": 46.47560834394906, "gps_lng": 5.34042866242038 }, { "id": 28627, "department_code": "71", "insee_code": "71244", "zip_code": "71290", "name": "Jouvençon", "slug": "jouvencon", "gps_lat": 46.57664560606058, "gps_lng": 5.05435553030303 }, { "id": 28628, "department_code": "71", "insee_code": "71245", "zip_code": "71240", "name": "Jugy", "slug": "jugy", "gps_lat": 46.60493811475411, "gps_lng": 4.86460704918032 }, { "id": 28629, "department_code": "71", "insee_code": "71246", "zip_code": "71440", "name": "Juif", "slug": "juif", "gps_lat": 46.68535199999999, "gps_lng": 5.16437893333333 }, { "id": 28630, "department_code": "71", "insee_code": "71247", "zip_code": "71390", "name": "Jully-lès-Buxy", "slug": "jully les buxy", "gps_lat": 46.69248414473682, "gps_lng": 4.72734355263158 }, { "id": 29097, "department_code": "72", "insee_code": "72148", "zip_code": "72110", "name": "Jauzé", "slug": "jauze", "gps_lat": 48.20716010752691, "gps_lng": 0.38327698924731 }, { "id": 29098, "department_code": "72", "insee_code": "72149", "zip_code": "72540", "name": "Joué-en-Charnie", "slug": "joue en charnie", "gps_lat": 48.01818345238095, "gps_lng": -0.19514267857142997 }, { "id": 29099, "department_code": "72", "insee_code": "72150", "zip_code": "72380", "name": "Joué-l'Abbé", "slug": "joue l abbe", "gps_lat": 48.10800109756098, "gps_lng": 0.2281656097561 }, { "id": 29100, "department_code": "72", "insee_code": "72151", "zip_code": "72300", "name": "Juigné-sur-Sarthe", "slug": "juigne sur sarthe", "gps_lat": 47.86895902255638, "gps_lng": -0.29277894736842003 }, { "id": 29101, "department_code": "72", "insee_code": "72152", "zip_code": "72170", "name": "Juillé", "slug": "juille", "gps_lat": 48.24436149253732, "gps_lng": 0.12643089552239 }, { "id": 29102, "department_code": "72", "insee_code": "72153", "zip_code": "72500", "name": "Jupilles", "slug": "jupilles", "gps_lat": 47.7953433898305, "gps_lng": 0.40983576271186 }, { "id": 29441, "department_code": "73", "insee_code": "73137", "zip_code": "73000", "name": "Jacob-Bellecombette", "slug": "jacob bellecombette", "gps_lat": 45.55133684210527, "gps_lng": 5.91603697368421 }, { "id": 29442, "department_code": "73", "insee_code": "73138", "zip_code": "73300", "name": "Jarrier", "slug": "jarrier", "gps_lat": 45.2830693495935, "gps_lng": 6.30340756097561 }, { "id": 29443, "department_code": "73", "insee_code": "73139", "zip_code": "73630", "name": "Jarsy", "slug": "jarsy", "gps_lat": 45.66565158139533, "gps_lng": 6.21621088372093 }, { "id": 29444, "department_code": "73", "insee_code": "73140", "zip_code": "73170", "name": "Jongieux", "slug": "jongieux", "gps_lat": 45.73754419354838, "gps_lng": 5.79398903225806 }, { "id": 29744, "department_code": "74", "insee_code": "74144", "zip_code": "74520", "name": "Jonzier-Épagny", "slug": "jonzier epagny", "gps_lat": 46.07601543689321, "gps_lng": 5.98265097087379 }, { "id": 29745, "department_code": "74", "insee_code": "74145", "zip_code": "74100", "name": "Juvigny", "slug": "juvigny", "gps_lat": 46.21652333333333, "gps_lng": 6.2927837254902 }, { "id": 30273, "department_code": "76", "insee_code": "76378", "zip_code": "76480", "name": "Jumièges", "slug": "jumieges", "gps_lat": 49.43387160919539, "gps_lng": 0.83606057471264 }, { "id": 30862, "department_code": "77", "insee_code": "77234", "zip_code": "77450", "name": "Jablines", "slug": "jablines", "gps_lat": 48.91586, "gps_lng": 2.75689438356164 }, { "id": 30863, "department_code": "77", "insee_code": "77235", "zip_code": "77440", "name": "Jaignes", "slug": "jaignes", "gps_lat": 48.98676499999998, "gps_lng": 3.08389412280702 }, { "id": 30864, "department_code": "77", "insee_code": "77236", "zip_code": "77480", "name": "Jaulnes", "slug": "jaulnes", "gps_lat": 48.41863547486034, "gps_lng": 3.28138541899442 }, { "id": 30865, "department_code": "77", "insee_code": "77237", "zip_code": "77600", "name": "Jossigny", "slug": "jossigny", "gps_lat": 48.83475720588237, "gps_lng": 2.76140264705882 }, { "id": 30866, "department_code": "77", "insee_code": "77238", "zip_code": "77640", "name": "Jouarre", "slug": "jouarre", "gps_lat": 48.90890880813954, "gps_lng": 3.12395938953488 }, { "id": 30867, "department_code": "77", "insee_code": "77239", "zip_code": "77970", "name": "Jouy-le-Châtel", "slug": "jouy le chatel", "gps_lat": 48.67449974999999, "gps_lng": 3.15114183333333 }, { "id": 30868, "department_code": "77", "insee_code": "77240", "zip_code": "77320", "name": "Jouy-sur-Morin", "slug": "jouy sur morin", "gps_lat": 48.79673496000001, "gps_lng": 3.27085496 }, { "id": 30869, "department_code": "77", "insee_code": "77241", "zip_code": "77230", "name": "Juilly", "slug": "juilly", "gps_lat": 49.02337547169812, "gps_lng": 2.71309320754717 }, { "id": 30870, "department_code": "77", "insee_code": "77242", "zip_code": "77650", "name": "Jutigny", "slug": "jutigny", "gps_lat": 48.49291415384614, "gps_lng": 3.22460784615385 }, { "id": 31267, "department_code": "78", "insee_code": "78317", "zip_code": "78440", "name": "Jambville", "slug": "jambville", "gps_lat": 49.04953962962962, "gps_lng": 1.84678611111111 }, { "id": 31268, "department_code": "78", "insee_code": "78320", "zip_code": "78270", "name": "Jeufosse", "slug": "jeufosse", "gps_lat": 49.03435339622639, "gps_lng": 1.54153679245283 }, { "id": 31269, "department_code": "78", "insee_code": "78321", "zip_code": "78760", "name": "Jouars-Pontchartrain", "slug": "jouars pontchartrain", "gps_lat": 48.78366088709677, "gps_lng": 1.90723064516129 }, { "id": 31270, "department_code": "78", "insee_code": "78322", "zip_code": "78350", "name": "Jouy-en-Josas", "slug": "jouy en josas", "gps_lat": 48.76179838095238, "gps_lng": 2.1593854285714302 }, { "id": 31271, "department_code": "78", "insee_code": "78324", "zip_code": "78200", "name": "Jouy-Mauvoisin", "slug": "jouy mauvoisin", "gps_lat": 48.97382079999999, "gps_lng": 1.6443308 }, { "id": 31272, "department_code": "78", "insee_code": "78325", "zip_code": "78580", "name": "Jumeauville", "slug": "jumeauville", "gps_lat": 48.90910871794871, "gps_lng": 1.78599333333333 }, { "id": 31273, "department_code": "78", "insee_code": "78327", "zip_code": "78820", "name": "Juziers", "slug": "juziers", "gps_lat": 49.00257737499999, "gps_lng": 1.843741125 }, { "id": 31531, "department_code": "79", "insee_code": "79142", "zip_code": "79170", "name": "Juillé", "slug": "juille", "gps_lat": 46.11437216494846, "gps_lng": -0.22361804123711004 }, { "id": 31532, "department_code": "79", "insee_code": "79144", "zip_code": "79230", "name": "Juscorps", "slug": "juscorps", "gps_lat": 46.21224645161291, "gps_lng": -0.37692177419355 }, { "id": 32134, "department_code": "80", "insee_code": "80452", "zip_code": "80250", "name": "Jumel", "slug": "jumel", "gps_lat": 49.76219507042256, "gps_lng": 2.32025112676056 }, { "id": 32590, "department_code": "81", "insee_code": "81109", "zip_code": "81440", "name": "Jonquières", "slug": "jonquieres", "gps_lat": 43.65344288288289, "gps_lng": 2.13818405405405 }, { "id": 32591, "department_code": "81", "insee_code": "81110", "zip_code": "81190", "name": "Jouqueviel", "slug": "jouqueviel", "gps_lat": 44.18004211382114, "gps_lng": 2.13543788617886 }, { "id": 33213, "department_code": "84", "insee_code": "84055", "zip_code": "84450", "name": "Jonquerettes", "slug": "jonquerettes", "gps_lat": 43.94849789473685, "gps_lng": 4.94328 }, { "id": 33214, "department_code": "84", "insee_code": "84056", "zip_code": "84150", "name": "Jonquières", "slug": "jonquieres", "gps_lat": 44.12720522935782, "gps_lng": 4.91219201834862 }, { "id": 33215, "department_code": "84", "insee_code": "84057", "zip_code": "84220", "name": "Joucas", "slug": "joucas", "gps_lat": 43.92791972222222, "gps_lng": 5.25054277777778 }, { "id": 33409, "department_code": "85", "insee_code": "85114", "zip_code": "85520", "name": "Jard-sur-Mer", "slug": "jard sur mer", "gps_lat": 46.42598454081637, "gps_lng": -1.60540229591837 }, { "id": 33686, "department_code": "86", "insee_code": "86114", "zip_code": "86800", "name": "Jardres", "slug": "jardres", "gps_lat": 46.56809592592594, "gps_lng": 0.57886385185185 }, { "id": 33687, "department_code": "86", "insee_code": "86115", "zip_code": "86130", "name": "Jaunay-Marigny", "slug": "jaunay marigny", "gps_lat": 46.683763, "gps_lng": 0.375076 }, { "id": 33688, "department_code": "86", "insee_code": "86115", "zip_code": "86380", "name": "Jaunay-Marigny", "slug": "jaunay marigny", "gps_lat": 46.683763, "gps_lng": 0.375076 }, { "id": 33689, "department_code": "86", "insee_code": "86116", "zip_code": "86600", "name": "Jazeneuil", "slug": "jazeneuil", "gps_lat": 46.4685546969697, "gps_lng": 0.07705717171717 }, { "id": 33690, "department_code": "86", "insee_code": "86117", "zip_code": "86500", "name": "Jouhet", "slug": "jouhet", "gps_lat": 46.49019216783218, "gps_lng": 0.87093237762238 }, { "id": 33691, "department_code": "86", "insee_code": "86118", "zip_code": "86290", "name": "Journet", "slug": "journet", "gps_lat": 46.476737987013, "gps_lng": 0.97677675324675 }, { "id": 33692, "department_code": "86", "insee_code": "86119", "zip_code": "86350", "name": "Joussé", "slug": "jousse", "gps_lat": 46.22655397959183, "gps_lng": 0.46182428571429 }, { "id": 33928, "department_code": "87", "insee_code": "87076", "zip_code": "87370", "name": "Jabreilles-les-Bordes", "slug": "jabreilles les bordes", "gps_lat": 46.02605393835614, "gps_lng": 1.5164496575342499 }, { "id": 33929, "department_code": "87", "insee_code": "87077", "zip_code": "87800", "name": "Janailhac", "slug": "janailhac", "gps_lat": 45.65483982142855, "gps_lng": 1.24425821428571 }, { "id": 33930, "department_code": "87", "insee_code": "87078", "zip_code": "87520", "name": "Javerdat", "slug": "javerdat", "gps_lat": 45.95690066502463, "gps_lng": 0.96100773399015 }, { "id": 33932, "department_code": "87", "insee_code": "87080", "zip_code": "87890", "name": "Jouac", "slug": "jouac", "gps_lat": 46.34823792000002, "gps_lng": 1.256932 }, { "id": 33933, "department_code": "87", "insee_code": "87081", "zip_code": "87800", "name": "Jourgnac", "slug": "jourgnac", "gps_lat": 45.73972311475408, "gps_lng": 1.21855106557377 }, { "id": 34293, "department_code": "88", "insee_code": "88249", "zip_code": "88300", "name": "Jainvillotte", "slug": "jainvillotte", "gps_lat": 48.25788000000002, "gps_lng": 5.703255 }, { "id": 34294, "department_code": "88", "insee_code": "88250", "zip_code": "88550", "name": "Jarménil", "slug": "jarmenil", "gps_lat": 48.1151779, "gps_lng": 6.5951453 }, { "id": 34295, "department_code": "88", "insee_code": "88251", "zip_code": "88700", "name": "Jeanménil", "slug": "jeanmenil", "gps_lat": 48.3278298268398, "gps_lng": 6.70382121212121 }, { "id": 34296, "department_code": "88", "insee_code": "88252", "zip_code": "88260", "name": "Jésonville", "slug": "jesonville", "gps_lat": 48.12828688311686, "gps_lng": 6.11395389610389 }, { "id": 34297, "department_code": "88", "insee_code": "88253", "zip_code": "88000", "name": "Jeuxey", "slug": "jeuxey", "gps_lat": 48.20288136363634, "gps_lng": 6.49075818181818 }, { "id": 34298, "department_code": "88", "insee_code": "88254", "zip_code": "88500", "name": "Jorxey", "slug": "jorxey", "gps_lat": 48.30429666666665, "gps_lng": 6.23750298850575 }, { "id": 34299, "department_code": "88", "insee_code": "88255", "zip_code": "88630", "name": "Jubainville", "slug": "jubainville", "gps_lat": 48.45519860759495, "gps_lng": 5.74930835443038 }, { "id": 34300, "department_code": "88", "insee_code": "88256", "zip_code": "88640", "name": "Jussarupt", "slug": "jussarupt", "gps_lat": 48.15845285714283, "gps_lng": 6.75261529411765 }, { "id": 34301, "department_code": "88", "insee_code": "88257", "zip_code": "88500", "name": "Juvaincourt", "slug": "juvaincourt", "gps_lat": 48.33056818840576, "gps_lng": 6.06423594202899 }, { "id": 34747, "department_code": "89", "insee_code": "89205", "zip_code": "89360", "name": "Jaulges", "slug": "jaulges", "gps_lat": 47.96273352272727, "gps_lng": 3.78636522727273 }, { "id": 34748, "department_code": "89", "insee_code": "89206", "zip_code": "89300", "name": "Joigny", "slug": "joigny", "gps_lat": 48.01885646766171, "gps_lng": 3.41226756218906 }, { "id": 34749, "department_code": "89", "insee_code": "89207", "zip_code": "89310", "name": "Jouancy", "slug": "jouancy", "gps_lat": 47.67267703125001, "gps_lng": 4.03840875 }, { "id": 34750, "department_code": "89", "insee_code": "89208", "zip_code": "89440", "name": "Joux-la-Ville", "slug": "joux la ville", "gps_lat": 47.61973442708335, "gps_lng": 3.86047895833333 }, { "id": 34751, "department_code": "89", "insee_code": "89209", "zip_code": "89150", "name": "Jouy", "slug": "jouy", "gps_lat": 48.16577304761901, "gps_lng": 2.97718619047619 }, { "id": 34752, "department_code": "89", "insee_code": "89210", "zip_code": "89160", "name": "Jully", "slug": "jully", "gps_lat": 47.77039707070708, "gps_lng": 4.30078252525253 }, { "id": 34753, "department_code": "89", "insee_code": "89211", "zip_code": "89700", "name": "Junay", "slug": "junay", "gps_lat": 47.87787631578948, "gps_lng": 3.94080754385965 }, { "id": 34754, "department_code": "89", "insee_code": "89212", "zip_code": "89290", "name": "Jussy", "slug": "jussy", "gps_lat": 47.71602329545456, "gps_lng": 3.5715622727272702 }, { "id": 35050, "department_code": "90", "insee_code": "90056", "zip_code": "90100", "name": "Joncherey", "slug": "joncherey", "gps_lat": 47.52863865248229, "gps_lng": 7.00421758865248 }, { "id": 35189, "department_code": "91", "insee_code": "91318", "zip_code": "91510", "name": "Janville-sur-Juine", "slug": "janville sur juine", "gps_lat": 48.50218175572519, "gps_lng": 2.25093480916031 }, { "id": 35190, "department_code": "91", "insee_code": "91319", "zip_code": "91640", "name": "Janvry", "slug": "janvry", "gps_lat": 48.64807514285715, "gps_lng": 2.15794028571428 }, { "id": 35191, "department_code": "91", "insee_code": "91326", "zip_code": "91260", "name": "Juvisy-sur-Orge", "slug": "juvisy sur orge", "gps_lat": 48.69226728813559, "gps_lng": 2.37211881355932 }, { "id": 35392, "department_code": "94", "insee_code": "94042", "zip_code": "94340", "name": "Joinville-le-Pont", "slug": "joinville le pont", "gps_lat": 48.81852297872342, "gps_lng": 2.46838234042553 }, { "id": 35515, "department_code": "95", "insee_code": "95316", "zip_code": "95850", "name": "Jagny-sous-Bois", "slug": "jagny sous bois", "gps_lat": 49.08316981481481, "gps_lng": 2.44469157407407 }, { "id": 35516, "department_code": "95", "insee_code": "95323", "zip_code": "95280", "name": "Jouy-le-Moutier", "slug": "jouy le moutier", "gps_lat": 49.01161250000001, "gps_lng": 2.03159365384615 }]
