[{ "id": 252, "department_code": "01", "insee_code": "01279", "zip_code": "01230", "name": "Oncieu", "slug": "oncieu", "gps_lat": 45.96494573033709, "gps_lng": 5.4746008988764 }, { "id": 253, "department_code": "01", "insee_code": "01280", "zip_code": "01510", "name": "Ordonnaz", "slug": "ordonnaz", "gps_lat": 45.83268056000002, "gps_lng": 5.5402864 }, { "id": 254, "department_code": "01", "insee_code": "01281", "zip_code": "01210", "name": "Ornex", "slug": "ornex", "gps_lat": 46.27579212765959, "gps_lng": 6.09474138297872 }, { "id": 255, "department_code": "01", "insee_code": "01282", "zip_code": "01430", "name": "Outriaz", "slug": "outriaz", "gps_lat": 46.06756769230772, "gps_lng": 5.55225186813187 }, { "id": 256, "department_code": "01", "insee_code": "01283", "zip_code": "01100", "name": "Oyonnax", "slug": "oyonnax", "gps_lat": 46.26845471264368, "gps_lng": 5.63763465517242 }, { "id": 257, "department_code": "01", "insee_code": "01284", "zip_code": "01190", "name": "Ozan", "slug": "ozan", "gps_lat": 46.38681127906978, "gps_lng": 4.91441511627907 }, { "id": 960, "department_code": "02", "insee_code": "02565", "zip_code": "02160", "name": "Œuilly", "slug": "oeuilly", "gps_lat": 49.39419915254237, "gps_lng": 3.68145169491525 }, { "id": 961, "department_code": "02", "insee_code": "02566", "zip_code": "02300", "name": "Ognes", "slug": "ognes", "gps_lat": 49.61211517647058, "gps_lng": 3.19147 }, { "id": 962, "department_code": "02", "insee_code": "02567", "zip_code": "02500", "name": "Ohis", "slug": "ohis", "gps_lat": 49.92730974683544, "gps_lng": 4.01349569620253 }, { "id": 963, "department_code": "02", "insee_code": "02568", "zip_code": "02600", "name": "Oigny-en-Valois", "slug": "oigny en valois", "gps_lat": 49.20651459459459, "gps_lng": 3.13506425675676 }, { "id": 964, "department_code": "02", "insee_code": "02569", "zip_code": "02450", "name": "Oisy", "slug": "oisy", "gps_lat": 50.02321428571427, "gps_lng": 3.65851942857143 }, { "id": 965, "department_code": "02", "insee_code": "02570", "zip_code": "02480", "name": "Ollezy", "slug": "ollezy", "gps_lat": 49.73425954545454, "gps_lng": 3.14922272727273 }, { "id": 966, "department_code": "02", "insee_code": "02571", "zip_code": "02100", "name": "Omissy", "slug": "omissy", "gps_lat": 49.88052305084746, "gps_lng": 3.29468 }, { "id": 967, "department_code": "02", "insee_code": "02572", "zip_code": "02190", "name": "Orainville", "slug": "orainville", "gps_lat": 49.37933935897434, "gps_lng": 4.01516282051282 }, { "id": 968, "department_code": "02", "insee_code": "02573", "zip_code": "02860", "name": "Orgeval", "slug": "orgeval", "gps_lat": 49.50439444444446, "gps_lng": 3.70138444444444 }, { "id": 969, "department_code": "02", "insee_code": "02574", "zip_code": "02550", "name": "Origny-en-Thiérache", "slug": "origny en thierache", "gps_lat": 49.88292032967033, "gps_lng": 4.01311010989011 }, { "id": 970, "department_code": "02", "insee_code": "02575", "zip_code": "02390", "name": "Origny-Sainte-Benoite", "slug": "origny sainte benoite", "gps_lat": 49.82796629213487, "gps_lng": 3.51234842696629 }, { "id": 971, "department_code": "02", "insee_code": "02576", "zip_code": "02290", "name": "Osly-Courtil", "slug": "osly courtil", "gps_lat": 49.40367851351352, "gps_lng": 3.228675 }, { "id": 972, "department_code": "02", "insee_code": "02577", "zip_code": "02370", "name": "Ostel", "slug": "ostel", "gps_lat": 49.42652355555555, "gps_lng": 3.56185888888889 }, { "id": 973, "department_code": "02", "insee_code": "02578", "zip_code": "02160", "name": "Oulches-la-Vallée-Foulon", "slug": "oulches la vallee foulon", "gps_lat": 49.4298020754717, "gps_lng": 3.74376471698113 }, { "id": 974, "department_code": "02", "insee_code": "02579", "zip_code": "02210", "name": "Oulchy-la-Ville", "slug": "oulchy la ville", "gps_lat": 49.2069673015873, "gps_lng": 3.33928746031746 }, { "id": 975, "department_code": "02", "insee_code": "02580", "zip_code": "02210", "name": "Oulchy-le-Château", "slug": "oulchy le chateau", "gps_lat": 49.20372929577466, "gps_lng": 3.38533633802817 }, { "id": 1651, "department_code": "04", "insee_code": "04141", "zip_code": "04230", "name": "Ongles", "slug": "ongles", "gps_lat": 44.02540671361502, "gps_lng": 5.71887248826291 }, { "id": 1652, "department_code": "04", "insee_code": "04142", "zip_code": "04110", "name": "Oppedette", "slug": "oppedette", "gps_lat": 43.93460835443039, "gps_lng": 5.59407126582278 }, { "id": 1653, "department_code": "04", "insee_code": "04143", "zip_code": "04700", "name": "Oraison", "slug": "oraison", "gps_lat": 43.91362280000001, "gps_lng": 5.9312313 }, { "id": 1822, "department_code": "05", "insee_code": "05096", "zip_code": "05170", "name": "Orcières", "slug": "orcieres", "gps_lat": 44.68353071111115, "gps_lng": 6.34973155555556 }, { "id": 1823, "department_code": "05", "insee_code": "05097", "zip_code": "05700", "name": "Orpierre", "slug": "orpierre", "gps_lat": 44.32000469483567, "gps_lng": 5.70062028169014 }, { "id": 1825, "department_code": "05", "insee_code": "05099", "zip_code": "05400", "name": "Oze", "slug": "oze", "gps_lat": 44.501626396396404, "gps_lng": 5.79729891891892 }, { "id": 1997, "department_code": "06", "insee_code": "06089", "zip_code": "06650", "name": "Opio", "slug": "opio", "gps_lat": 43.65832742647061, "gps_lng": 7.00628125 }, { "id": 2236, "department_code": "07", "insee_code": "07168", "zip_code": "07150", "name": "Orgnac-l'Aven", "slug": "orgnac l aven", "gps_lat": 44.29319420454546, "gps_lng": 4.42265465909091 }, { "id": 2237, "department_code": "07", "insee_code": "07169", "zip_code": "07370", "name": "Ozon", "slug": "ozon", "gps_lat": 45.16340489208633, "gps_lng": 4.79332928057554 }, { "id": 2712, "department_code": "08", "insee_code": "08332", "zip_code": "08240", "name": "Oches", "slug": "oches", "gps_lat": 49.50681114093959, "gps_lng": 4.92686322147651 }, { "id": 2713, "department_code": "08", "insee_code": "08333", "zip_code": "08250", "name": "Olizy-Primat", "slug": "olizy primat", "gps_lat": 49.35555280632413, "gps_lng": 4.77539727272727 }, { "id": 2714, "department_code": "08", "insee_code": "08334", "zip_code": "08450", "name": "Omicourt", "slug": "omicourt", "gps_lat": 49.63055972222222, "gps_lng": 4.83057986111111 }, { "id": 2715, "department_code": "08", "insee_code": "08335", "zip_code": "08430", "name": "Omont", "slug": "omont", "gps_lat": 49.59729644295299, "gps_lng": 4.73190181208054 }, { "id": 2716, "department_code": "08", "insee_code": "08336", "zip_code": "08110", "name": "Osnes", "slug": "osnes", "gps_lat": 49.65679876288662, "gps_lng": 5.15518134020619 }, { "id": 3083, "department_code": "09", "insee_code": "09218", "zip_code": "09110", "name": "Orgeix", "slug": "orgeix", "gps_lat": 42.6813247457627, "gps_lng": 1.8755879661016999 }, { "id": 3084, "department_code": "09", "insee_code": "09219", "zip_code": "09800", "name": "Orgibet", "slug": "orgibet", "gps_lat": 42.93122629629631, "gps_lng": 0.9392062962963 }, { "id": 3085, "department_code": "09", "insee_code": "09220", "zip_code": "09110", "name": "Orlu", "slug": "orlu", "gps_lat": 42.66027338709679, "gps_lng": 1.9384272983871 }, { "id": 3086, "department_code": "09", "insee_code": "09221", "zip_code": "09400", "name": "Ornolac-Ussat-les-Bains", "slug": "ornolac ussat les bains", "gps_lat": 42.82382161290322, "gps_lng": 1.6477087096774201 }, { "id": 3087, "department_code": "09", "insee_code": "09222", "zip_code": "09220", "name": "Orus", "slug": "orus", "gps_lat": 42.78746073170733, "gps_lng": 1.51057219512195 }, { "id": 3088, "department_code": "09", "insee_code": "09223", "zip_code": "09140", "name": "Oust", "slug": "oust", "gps_lat": 42.85734084033613, "gps_lng": 1.23645151260504 }, { "id": 3461, "department_code": "10", "insee_code": "10270", "zip_code": "10220", "name": "Onjon", "slug": "onjon", "gps_lat": 48.39870020202022, "gps_lng": 4.28293252525253 }, { "id": 3462, "department_code": "10", "insee_code": "10271", "zip_code": "10510", "name": "Origny-le-Sec", "slug": "origny le sec", "gps_lat": 48.46176346938776, "gps_lng": 3.77315102040816 }, { "id": 3463, "department_code": "10", "insee_code": "10272", "zip_code": "10700", "name": "Ormes", "slug": "ormes", "gps_lat": 48.54830166666668, "gps_lng": 4.10507144444444 }, { "id": 3464, "department_code": "10", "insee_code": "10273", "zip_code": "10700", "name": "Ortillon", "slug": "ortillon", "gps_lat": 48.5025691011236, "gps_lng": 4.24060561797753 }, { "id": 3465, "department_code": "10", "insee_code": "10274", "zip_code": "10170", "name": "Orvilliers-Saint-Julien", "slug": "orvilliers saint julien", "gps_lat": 48.43969534482761, "gps_lng": 3.82776620689655 }, { "id": 3466, "department_code": "10", "insee_code": "10275", "zip_code": "10100", "name": "Ossey-les-Trois-Maisons", "slug": "ossey les trois maisons", "gps_lat": 48.43762714285714, "gps_lng": 3.73366857142857 }, { "id": 3892, "department_code": "11", "insee_code": "11267", "zip_code": "11200", "name": "Ornaisons", "slug": "ornaisons", "gps_lat": 43.17376147727273, "gps_lng": 2.83526238636364 }, { "id": 3893, "department_code": "11", "insee_code": "11268", "zip_code": "11270", "name": "Orsans", "slug": "orsans", "gps_lat": 43.15044697478992, "gps_lng": 1.9818728571428599 }, { "id": 3894, "department_code": "11", "insee_code": "11269", "zip_code": "11590", "name": "Ouveillan", "slug": "ouveillan", "gps_lat": 43.28680554455445, "gps_lng": 2.97090227722772 }, { "id": 4228, "department_code": "12", "insee_code": "12174", "zip_code": "12510", "name": "Olemps", "slug": "olemps", "gps_lat": 44.33552835164835, "gps_lng": 2.5481522527472498 }, { "id": 4229, "department_code": "12", "insee_code": "12175", "zip_code": "12260", "name": "Ols-et-Rinhodes", "slug": "ols et rinhodes", "gps_lat": 44.46060228260869, "gps_lng": 1.9500077173913 }, { "id": 4230, "department_code": "12", "insee_code": "12176", "zip_code": "12000", "name": "Onet-le-Château", "slug": "onet le chateau", "gps_lat": 44.3467485, "gps_lng": 2.5742907 }, { "id": 4231, "department_code": "12", "insee_code": "12176", "zip_code": "12850", "name": "Onet-le-Château", "slug": "onet le chateau", "gps_lat": 44.37948069999999, "gps_lng": 2.5891648 }, { "id": 4448, "department_code": "13", "insee_code": "13067", "zip_code": "13660", "name": "Orgon", "slug": "orgon", "gps_lat": 43.77948064516131, "gps_lng": 5.02218182795699 }, { "id": 4850, "department_code": "14", "insee_code": "14476", "zip_code": "14170", "name": "Olendon", "slug": "olendon", "gps_lat": 48.967023015872996, "gps_lng": -0.17213873015873005 }, { "id": 4851, "department_code": "14", "insee_code": "14478", "zip_code": "14290", "name": "Orbec", "slug": "orbec", "gps_lat": 49.02605062111802, "gps_lng": 0.38161546583851 }, { "id": 4852, "department_code": "14", "insee_code": "14480", "zip_code": "14230", "name": "Osmanville", "slug": "osmanville", "gps_lat": 49.32922763157895, "gps_lng": -1.08217464912281 }, { "id": 4853, "department_code": "14", "insee_code": "14482", "zip_code": "14270", "name": "Ouézy", "slug": "ouezy", "gps_lat": 49.08563576086954, "gps_lng": -0.10311923913042997 }, { "id": 4854, "department_code": "14", "insee_code": "14483", "zip_code": "14220", "name": "Ouffières", "slug": "ouffieres", "gps_lat": 49.02509442105262, "gps_lng": -0.492424 }, { "id": 4855, "department_code": "14", "insee_code": "14484", "zip_code": "14590", "name": "Ouilly-du-Houley", "slug": "ouilly du houley", "gps_lat": 49.16561336538461, "gps_lng": 0.33542519230769 }, { "id": 4856, "department_code": "14", "insee_code": "14486", "zip_code": "14190", "name": "Ouilly-le-Tesson", "slug": "ouilly le tesson", "gps_lat": 48.98930404040405, "gps_lng": -0.21638555555556005 }, { "id": 4857, "department_code": "14", "insee_code": "14487", "zip_code": "14100", "name": "Ouilly-le-Vicomte", "slug": "ouilly le vicomte", "gps_lat": 49.17876253968252, "gps_lng": 0.21728373015873 }, { "id": 4858, "department_code": "14", "insee_code": "14488", "zip_code": "14150", "name": "Ouistreham", "slug": "ouistreham", "gps_lat": 49.27206608695651, "gps_lng": -0.25895543478260996 }, { "id": 5188, "department_code": "15", "insee_code": "15144", "zip_code": "15290", "name": "Omps", "slug": "omps", "gps_lat": 44.88249248466257, "gps_lng": 2.2660595398773 }, { "id": 5533, "department_code": "16", "insee_code": "16248", "zip_code": "16140", "name": "Oradour", "slug": "oradour", "gps_lat": 45.91112302083334, "gps_lng": -0.03041156249999999 }, { "id": 5534, "department_code": "16", "insee_code": "16249", "zip_code": "16500", "name": "Oradour-Fanais", "slug": "oradour fanais", "gps_lat": 46.11317777158775, "gps_lng": 0.78869665738162 }, { "id": 5535, "department_code": "16", "insee_code": "16250", "zip_code": "16220", "name": "Orgedeuil", "slug": "orgedeuil", "gps_lat": 45.698647187499986, "gps_lng": 0.48622015625 }, { "id": 5536, "department_code": "16", "insee_code": "16251", "zip_code": "16480", "name": "Oriolles", "slug": "oriolles", "gps_lat": 45.35652223628696, "gps_lng": -0.14413071729958005 }, { "id": 5537, "department_code": "16", "insee_code": "16252", "zip_code": "16210", "name": "Orival", "slug": "orival", "gps_lat": 45.28357666666666, "gps_lng": 0.07286677777778 }, { "id": 5944, "department_code": "17", "insee_code": "17269", "zip_code": "17210", "name": "Orignolles", "slug": "orignolles", "gps_lat": 45.22187587677726, "gps_lng": -0.22895540284360005 }, { "id": 5945, "department_code": "17", "insee_code": "17270", "zip_code": "17500", "name": "Ozillac", "slug": "ozillac", "gps_lat": 45.40904211180122, "gps_lng": -0.40363385093168 }, { "id": 6323, "department_code": "18", "insee_code": "18170", "zip_code": "18700", "name": "Oizon", "slug": "oizon", "gps_lat": 47.45366276422764, "gps_lng": 2.50804674796748 }, { "id": 6324, "department_code": "18", "insee_code": "18171", "zip_code": "18200", "name": "Orcenais", "slug": "orcenais", "gps_lat": 46.71243153846153, "gps_lng": 2.41865008547009 }, { "id": 6325, "department_code": "18", "insee_code": "18172", "zip_code": "18200", "name": "Orval", "slug": "orval", "gps_lat": 46.72102835294118, "gps_lng": 2.46616282352941 }, { "id": 6326, "department_code": "18", "insee_code": "18173", "zip_code": "18130", "name": "Osmery", "slug": "osmery", "gps_lat": 46.93640927083331, "gps_lng": 2.65614927083333 }, { "id": 6327, "department_code": "18", "insee_code": "18174", "zip_code": "18390", "name": "Osmoy", "slug": "osmoy", "gps_lat": 47.06912462962964, "gps_lng": 2.51314919753086 }, { "id": 6328, "department_code": "18", "insee_code": "18175", "zip_code": "18350", "name": "Ourouer-les-Bourdelins", "slug": "ourouer les bourdelins", "gps_lat": 46.91835957627119, "gps_lng": 2.79271322033898 }, { "id": 6598, "department_code": "19", "insee_code": "19153", "zip_code": "19130", "name": "Objat", "slug": "objat", "gps_lat": 45.26558102150537, "gps_lng": 1.41154215053763 }, { "id": 6599, "department_code": "19", "insee_code": "19154", "zip_code": "19410", "name": "Orgnac-sur-Vézère", "slug": "orgnac sur vezere", "gps_lat": 45.34084425287357, "gps_lng": 1.45725183908046 }, { "id": 6600, "department_code": "19", "insee_code": "19155", "zip_code": "19390", "name": "Orliac-de-Bar", "slug": "orliac de bar", "gps_lat": 45.37046165492957, "gps_lng": 1.80550855633803 }, { "id": 7186, "department_code": "21", "insee_code": "21465", "zip_code": "21400", "name": "Obtrée", "slug": "obtree", "gps_lat": 47.92946591836736, "gps_lng": 4.56202581632653 }, { "id": 7187, "department_code": "21", "insee_code": "21466", "zip_code": "21450", "name": "Oigny", "slug": "oigny", "gps_lat": 47.58596352000001, "gps_lng": 4.72439824 }, { "id": 7188, "department_code": "21", "insee_code": "21467", "zip_code": "21310", "name": "Oisilly", "slug": "oisilly", "gps_lat": 47.41933242990654, "gps_lng": 5.36808457943925 }, { "id": 7189, "department_code": "21", "insee_code": "21468", "zip_code": "21610", "name": "Orain", "slug": "orain", "gps_lat": 47.61089155963302, "gps_lng": 5.43780220183486 }, { "id": 7190, "department_code": "21", "insee_code": "21469", "zip_code": "21490", "name": "Orgeux", "slug": "orgeux", "gps_lat": 47.36141534246575, "gps_lng": 5.15343383561644 }, { "id": 7191, "department_code": "21", "insee_code": "21470", "zip_code": "21510", "name": "Origny", "slug": "origny", "gps_lat": 47.71133609195402, "gps_lng": 4.6310083908046 }, { "id": 7192, "department_code": "21", "insee_code": "21471", "zip_code": "21450", "name": "Orret", "slug": "orret", "gps_lat": 47.60757926553674, "gps_lng": 4.69502615819209 }, { "id": 7193, "department_code": "21", "insee_code": "21472", "zip_code": "21260", "name": "Orville", "slug": "orville", "gps_lat": 47.56040773333333, "gps_lng": 5.21775186666667 }, { "id": 7194, "department_code": "21", "insee_code": "21473", "zip_code": "21600", "name": "Ouges", "slug": "ouges", "gps_lat": 47.26165655737705, "gps_lng": 5.0782906557377 }, { "id": 8324, "department_code": "24", "insee_code": "24313", "zip_code": "24170", "name": "Orliac", "slug": "orliac", "gps_lat": 44.71293626168227, "gps_lng": 1.06263710280374 }, { "id": 8325, "department_code": "24", "insee_code": "24314", "zip_code": "24370", "name": "Orliaguet", "slug": "orliaguet", "gps_lat": 44.91058953703702, "gps_lng": 1.38006712962963 }, { "id": 8961, "department_code": "25", "insee_code": "25430", "zip_code": "25640", "name": "Ollans", "slug": "ollans", "gps_lat": 47.4186436, "gps_lng": 6.2453672000000005 }, { "id": 8962, "department_code": "25", "insee_code": "25431", "zip_code": "25250", "name": "Onans", "slug": "onans", "gps_lat": 47.50029764705884, "gps_lng": 6.60482338235294 }, { "id": 8963, "department_code": "25", "insee_code": "25432", "zip_code": "25390", "name": "Orchamps-Vennes", "slug": "orchamps vennes", "gps_lat": 47.11289764044945, "gps_lng": 6.52017865168539 }, { "id": 8964, "department_code": "25", "insee_code": "25433", "zip_code": "25120", "name": "Orgeans-Blanchefontaine", "slug": "orgeans blanchefontaine", "gps_lat": 47.26809648648651, "gps_lng": 6.75446225225225 }, { "id": 8965, "department_code": "25", "insee_code": "25434", "zip_code": "25290", "name": "Ornans", "slug": "ornans", "gps_lat": 47.0998947, "gps_lng": 6.1183671 }, { "id": 8966, "department_code": "25", "insee_code": "25434", "zip_code": "25620", "name": "Ornans", "slug": "ornans", "gps_lat": 47.106041, "gps_lng": 6.147005 }, { "id": 8967, "department_code": "25", "insee_code": "25435", "zip_code": "25530", "name": "Orsans", "slug": "orsans", "gps_lat": 47.24959994186045, "gps_lng": 6.38281122093023 }, { "id": 8968, "department_code": "25", "insee_code": "25436", "zip_code": "25430", "name": "Orve", "slug": "orve", "gps_lat": 47.33807307692309, "gps_lng": 6.55778430769231 }, { "id": 8969, "department_code": "25", "insee_code": "25437", "zip_code": "25360", "name": "Osse", "slug": "osse", "gps_lat": 47.27049095744681, "gps_lng": 6.21683308510638 }, { "id": 8970, "department_code": "25", "insee_code": "25438", "zip_code": "25320", "name": "Osselle-Routelle", "slug": "osselle routelle", "gps_lat": 47.16745299999999, "gps_lng": 5.849941 }, { "id": 8971, "department_code": "25", "insee_code": "25438", "zip_code": "25410", "name": "Osselle-Routelle", "slug": "osselle routelle", "gps_lat": 47.16745299999999, "gps_lng": 5.849941 }, { "id": 8972, "department_code": "25", "insee_code": "25439", "zip_code": "25640", "name": "Ougney-Douvot", "slug": "ougney douvot", "gps_lat": 47.3166135, "gps_lng": 6.2698558 }, { "id": 8973, "department_code": "25", "insee_code": "25440", "zip_code": "25520", "name": "Ouhans", "slug": "ouhans", "gps_lat": 47.00576855670104, "gps_lng": 6.3125793814432996 }, { "id": 8974, "department_code": "25", "insee_code": "25441", "zip_code": "25530", "name": "Ouvans", "slug": "ouvans", "gps_lat": 47.27758680555554, "gps_lng": 6.49438458333334 }, { "id": 8975, "department_code": "25", "insee_code": "25442", "zip_code": "25160", "name": "Oye-et-Pallet", "slug": "oye et pallet", "gps_lat": 46.8511240625, "gps_lng": 6.34294427083333 }, { "id": 9364, "department_code": "26", "insee_code": "26221", "zip_code": "26400", "name": "Omblèze", "slug": "ombleze", "gps_lat": 44.85624949416339, "gps_lng": 5.22010077821012 }, { "id": 9365, "department_code": "26", "insee_code": "26222", "zip_code": "26220", "name": "Orcinas", "slug": "orcinas", "gps_lat": 44.54902115789476, "gps_lng": 5.13876084210526 }, { "id": 9366, "department_code": "26", "insee_code": "26223", "zip_code": "26190", "name": "Oriol-en-Royans", "slug": "oriol en royans", "gps_lat": 44.98979877551017, "gps_lng": 5.24979469387755 }, { "id": 9367, "department_code": "26", "insee_code": "26224", "zip_code": "26120", "name": "Ourches", "slug": "ourches", "gps_lat": 44.8072938554217, "gps_lng": 5.04410048192771 }, { "id": 9917, "department_code": "27", "insee_code": "27446", "zip_code": "27190", "name": "Ormes", "slug": "ormes", "gps_lat": 49.05375140186914, "gps_lng": 0.95447140186916 }, { "id": 10384, "department_code": "28", "insee_code": "28284", "zip_code": "28310", "name": "Oinville-Saint-Liphard", "slug": "oinville saint liphard", "gps_lat": 48.23782078651686, "gps_lng": 1.92558741573034 }, { "id": 10385, "department_code": "28", "insee_code": "28285", "zip_code": "28700", "name": "Oinville-sous-Auneau", "slug": "oinville sous auneau", "gps_lat": 48.47036978494624, "gps_lng": 1.71980021505376 }, { "id": 10386, "department_code": "28", "insee_code": "28286", "zip_code": "28120", "name": "Ollé", "slug": "olle", "gps_lat": 48.38743428571429, "gps_lng": 1.296818 }, { "id": 10387, "department_code": "28", "insee_code": "28287", "zip_code": "28140", "name": "Orgères-en-Beauce", "slug": "orgeres en beauce", "gps_lat": 48.1433841891892, "gps_lng": 1.67708067567568 }, { "id": 10388, "department_code": "28", "insee_code": "28289", "zip_code": "28210", "name": "Ormoy", "slug": "ormoy", "gps_lat": 48.62444448275861, "gps_lng": 1.4687825862069 }, { "id": 10389, "department_code": "28", "insee_code": "28290", "zip_code": "28190", "name": "Orrouer", "slug": "orrouer", "gps_lat": 48.40510861111111, "gps_lng": 1.2754920833333299 }, { "id": 10390, "department_code": "28", "insee_code": "28291", "zip_code": "28150", "name": "Ouarville", "slug": "ouarville", "gps_lat": 48.36324408163266, "gps_lng": 1.7749128571428598 }, { "id": 10391, "department_code": "28", "insee_code": "28292", "zip_code": "28500", "name": "Ouerre", "slug": "ouerre", "gps_lat": 48.70809666666668, "gps_lng": 1.48285303030303 }, { "id": 10392, "department_code": "28", "insee_code": "28293", "zip_code": "28260", "name": "Oulins", "slug": "oulins", "gps_lat": 48.86632196078433, "gps_lng": 1.48494107843137 }, { "id": 10393, "department_code": "28", "insee_code": "28294", "zip_code": "28700", "name": "Oysonville", "slug": "oysonville", "gps_lat": 48.39195, "gps_lng": 1.9502175862069 }, { "id": 10652, "department_code": "29", "insee_code": "29155", "zip_code": "29242", "name": "Ouessant", "slug": "ouessant", "gps_lat": 48.46019721481489, "gps_lng": -5.09037014074074 }, { "id": 10860, "department_code": "2A", "insee_code": "2A181", "zip_code": "20117", "name": "Ocana", "slug": "ocana", "gps_lat": 41.95090500000001, "gps_lng": 8.91031392473119 }, { "id": 10861, "department_code": "2A", "insee_code": "2A186", "zip_code": "20140", "name": "Olivese", "slug": "olivese", "gps_lat": 41.83997975757575, "gps_lng": 9.06935278787879 }, { "id": 10862, "department_code": "2A", "insee_code": "2A189", "zip_code": "20113", "name": "Olmeto", "slug": "olmeto", "gps_lat": 41.71141553745928, "gps_lng": 8.89608563517915 }, { "id": 10863, "department_code": "2A", "insee_code": "2A191", "zip_code": "20112", "name": "Olmiccia", "slug": "olmiccia", "gps_lat": 41.67200037383179, "gps_lng": 9.03597154205608 }, { "id": 10864, "department_code": "2A", "insee_code": "2A196", "zip_code": "20125", "name": "Orto", "slug": "orto", "gps_lat": 42.19490470930231, "gps_lng": 8.953746686046511 }, { "id": 10865, "department_code": "2A", "insee_code": "2A197", "zip_code": "20147", "name": "Osani", "slug": "osani", "gps_lat": 42.34472229545461, "gps_lng": 8.59265304545454 }, { "id": 10866, "department_code": "2A", "insee_code": "2A198", "zip_code": "20150", "name": "Ota", "slug": "ota", "gps_lat": 42.25633580645162, "gps_lng": 8.7310296313364 }, { "id": 11037, "department_code": "2B", "insee_code": "2B182", "zip_code": "20226", "name": "Occhiatana", "slug": "occhiatana", "gps_lat": 42.59880781609196, "gps_lng": 9.00437201149425 }, { "id": 11038, "department_code": "2B", "insee_code": "2B183", "zip_code": "20217", "name": "Ogliastro", "slug": "ogliastro", "gps_lat": 42.81521964285713, "gps_lng": 9.35241178571428 }, { "id": 11039, "department_code": "2B", "insee_code": "2B184", "zip_code": "20217", "name": "Olcani", "slug": "olcani", "gps_lat": 42.80433755319149, "gps_lng": 9.3850864893617 }, { "id": 11040, "department_code": "2B", "insee_code": "2B185", "zip_code": "20232", "name": "Oletta", "slug": "oletta", "gps_lat": 42.63908508695653, "gps_lng": 9.34759517391304 }, { "id": 11041, "department_code": "2B", "insee_code": "2B187", "zip_code": "20217", "name": "Olmeta-di-Capocorso", "slug": "olmeta di capocorso", "gps_lat": 42.76343034013605, "gps_lng": 9.37609598639456 }, { "id": 11042, "department_code": "2B", "insee_code": "2B188", "zip_code": "20232", "name": "Olmeta-di-Tuda", "slug": "olmeta di tuda", "gps_lat": 42.61173853503185, "gps_lng": 9.36490165605096 }, { "id": 11043, "department_code": "2B", "insee_code": "2B190", "zip_code": "20259", "name": "Olmi-Cappella", "slug": "olmi cappella", "gps_lat": 42.51542817258883, "gps_lng": 9.01393078680204 }, { "id": 11044, "department_code": "2B", "insee_code": "2B192", "zip_code": "20290", "name": "Olmo", "slug": "olmo", "gps_lat": 42.50168908333332, "gps_lng": 9.41407733333334 }, { "id": 11045, "department_code": "2B", "insee_code": "2B193", "zip_code": "20236", "name": "Omessa", "slug": "omessa", "gps_lat": 42.37980187817257, "gps_lng": 9.19251228426396 }, { "id": 11046, "department_code": "2B", "insee_code": "2B194", "zip_code": "20234", "name": "Ortale", "slug": "ortale", "gps_lat": 42.31202703448277, "gps_lng": 9.43715455172414 }, { "id": 11047, "department_code": "2B", "insee_code": "2B195", "zip_code": "20290", "name": "Ortiporio", "slug": "ortiporio", "gps_lat": 42.45872638554218, "gps_lng": 9.34900530120482 }, { "id": 11352, "department_code": "30", "insee_code": "30191", "zip_code": "30200", "name": "Orsan", "slug": "orsan", "gps_lat": 44.13523989583334, "gps_lng": 4.6610003125 }, { "id": 11353, "department_code": "30", "insee_code": "30192", "zip_code": "30260", "name": "Orthoux-Sérignac-Quilhan", "slug": "orthoux serignac quilhan", "gps_lat": 43.88368308823529, "gps_lng": 4.03955044117647 }, { "id": 11915, "department_code": "31", "insee_code": "31402", "zip_code": "31450", "name": "Odars", "slug": "odars", "gps_lat": 43.52384775000001, "gps_lng": 1.592456125 }, { "id": 11916, "department_code": "31", "insee_code": "31403", "zip_code": "31330", "name": "Ondes", "slug": "ondes", "gps_lat": 43.7866091780822, "gps_lng": 1.30524136986301 }, { "id": 11917, "department_code": "31", "insee_code": "31404", "zip_code": "31110", "name": "Oô", "slug": "oo", "gps_lat": 42.74203321678321, "gps_lng": 0.49453832167832 }, { "id": 11918, "department_code": "31", "insee_code": "31405", "zip_code": "31510", "name": "Ore", "slug": "ore", "gps_lat": 42.97486317073171, "gps_lng": 0.64565268292683 }, { "id": 12405, "department_code": "32", "insee_code": "32300", "zip_code": "32260", "name": "Orbessan", "slug": "orbessan", "gps_lat": 43.5450718018018, "gps_lng": 0.61819666666667 }, { "id": 12406, "department_code": "32", "insee_code": "32301", "zip_code": "32350", "name": "Ordan-Larroque", "slug": "ordan larroque", "gps_lat": 43.68625853982299, "gps_lng": 0.4685367699115 }, { "id": 12407, "department_code": "32", "insee_code": "32302", "zip_code": "32260", "name": "Ornézan", "slug": "ornezan", "gps_lat": 43.51355673913045, "gps_lng": 0.59927311594203 }, { "id": 12879, "department_code": "33", "insee_code": "33308", "zip_code": "33410", "name": "Omet", "slug": "omet", "gps_lat": 44.65641139534884, "gps_lng": -0.28833348837209005 }, { "id": 12880, "department_code": "33", "insee_code": "33309", "zip_code": "33340", "name": "Ordonnac", "slug": "ordonnac", "gps_lat": 45.30705259541986, "gps_lng": -0.84705893129771 }, { "id": 12881, "department_code": "33", "insee_code": "33310", "zip_code": "33113", "name": "Origne", "slug": "origne", "gps_lat": 44.49512527272726, "gps_lng": -0.50768427272727 }, { "id": 13305, "department_code": "34", "insee_code": "34186", "zip_code": "34800", "name": "Octon", "slug": "octon", "gps_lat": 43.66166769633506, "gps_lng": 3.2888096858638702 }, { "id": 13306, "department_code": "34", "insee_code": "34187", "zip_code": "34390", "name": "Olargues", "slug": "olargues", "gps_lat": 43.54436591133005, "gps_lng": 2.91298472906404 }, { "id": 13307, "department_code": "34", "insee_code": "34188", "zip_code": "34700", "name": "Olmet-et-Villecun", "slug": "olmet et villecun", "gps_lat": 43.70986144927534, "gps_lng": 3.3063897101449298 }, { "id": 13308, "department_code": "34", "insee_code": "34189", "zip_code": "34210", "name": "Olonzac", "slug": "olonzac", "gps_lat": 43.28426710843375, "gps_lng": 2.73777638554217 }, { "id": 13309, "department_code": "34", "insee_code": "34190", "zip_code": "34210", "name": "Oupia", "slug": "oupia", "gps_lat": 43.29024956989248, "gps_lng": 2.7725275268817198 }, { "id": 13662, "department_code": "35", "insee_code": "35208", "zip_code": "35230", "name": "Orgères", "slug": "orgeres", "gps_lat": 47.98497063829787, "gps_lng": -1.66460643617021 }, { "id": 13955, "department_code": "36", "insee_code": "36145", "zip_code": "36290", "name": "Obterre", "slug": "obterre", "gps_lat": 46.91789712499999, "gps_lng": 1.069928 }, { "id": 13956, "department_code": "36", "insee_code": "36146", "zip_code": "36190", "name": "Orsennes", "slug": "orsennes", "gps_lat": 46.48641482866045, "gps_lng": 1.69430563862928 }, { "id": 13957, "department_code": "36", "insee_code": "36147", "zip_code": "36210", "name": "Orville", "slug": "orville", "gps_lat": 47.14988606557377, "gps_lng": 1.78603360655738 }, { "id": 13958, "department_code": "36", "insee_code": "36148", "zip_code": "36800", "name": "Oulches", "slug": "oulches", "gps_lat": 46.60253089743589, "gps_lng": 1.3082178205128199 }, { "id": 14222, "department_code": "37", "insee_code": "37177", "zip_code": "37460", "name": "Orbigny", "slug": "orbigny", "gps_lat": 47.21668493333335, "gps_lng": 1.24569706666667 }, { "id": 14582, "department_code": "38", "insee_code": "38282", "zip_code": "38460", "name": "Optevoz", "slug": "optevoz", "gps_lat": 45.75444175438597, "gps_lng": 5.33685833333333 }, { "id": 14583, "department_code": "38", "insee_code": "38283", "zip_code": "38350", "name": "Oris-en-Rattier", "slug": "oris en rattier", "gps_lat": 44.93620725806453, "gps_lng": 5.8798566935483905 }, { "id": 14584, "department_code": "38", "insee_code": "38284", "zip_code": "38260", "name": "Ornacieux", "slug": "ornacieux", "gps_lat": 45.40432649999998, "gps_lng": 5.2168015 }, { "id": 14585, "department_code": "38", "insee_code": "38285", "zip_code": "38520", "name": "Ornon", "slug": "ornon", "gps_lat": 45.04051650273222, "gps_lng": 5.97098781420765 }, { "id": 14586, "department_code": "38", "insee_code": "38286", "zip_code": "38520", "name": "Oulles", "slug": "oulles", "gps_lat": 45.07056153846152, "gps_lng": 5.96720198717949 }, { "id": 14587, "department_code": "38", "insee_code": "38287", "zip_code": "38690", "name": "Oyeu", "slug": "oyeu", "gps_lat": 45.42563204379563, "gps_lng": 5.48510072992701 }, { "id": 14588, "department_code": "38", "insee_code": "38288", "zip_code": "38780", "name": "Oytier-Saint-Oblas", "slug": "oytier saint oblas", "gps_lat": 45.56266783333332, "gps_lng": 5.02983016666667 }, { "id": 14589, "department_code": "38", "insee_code": "38289", "zip_code": "38114", "name": "Oz", "slug": "oz", "gps_lat": 45.12896808219175, "gps_lng": 6.07393347031963 }, { "id": 15196, "department_code": "39", "insee_code": "39392", "zip_code": "39290", "name": "Offlanges", "slug": "offlanges", "gps_lat": 47.20982904109589, "gps_lng": 5.56243931506849 }, { "id": 15197, "department_code": "39", "insee_code": "39393", "zip_code": "39250", "name": "Onglières", "slug": "onglieres", "gps_lat": 46.80574589552239, "gps_lng": 5.99924895522388 }, { "id": 15198, "department_code": "39", "insee_code": "39394", "zip_code": "39270", "name": "Onoz", "slug": "onoz", "gps_lat": 46.44255596590909, "gps_lng": 5.66482693181818 }, { "id": 15199, "department_code": "39", "insee_code": "39395", "zip_code": "39190", "name": "Orbagna", "slug": "orbagna", "gps_lat": 46.58510969924813, "gps_lng": 5.44761804511278 }, { "id": 15200, "department_code": "39", "insee_code": "39396", "zip_code": "39700", "name": "Orchamps", "slug": "orchamps", "gps_lat": 47.15237455555555, "gps_lng": 5.66320888888889 }, { "id": 15201, "department_code": "39", "insee_code": "39397", "zip_code": "39270", "name": "Orgelet", "slug": "orgelet", "gps_lat": 46.5071454185022, "gps_lng": 5.62474885462555 }, { "id": 15202, "department_code": "39", "insee_code": "39398", "zip_code": "39350", "name": "Ougney", "slug": "ougney", "gps_lat": 47.23890814814816, "gps_lng": 5.66179827160494 }, { "id": 15203, "department_code": "39", "insee_code": "39399", "zip_code": "39380", "name": "Ounans", "slug": "ounans", "gps_lat": 46.98811604477608, "gps_lng": 5.66378186567164 }, { "id": 15204, "department_code": "39", "insee_code": "39400", "zip_code": "39700", "name": "Our", "slug": "our", "gps_lat": 47.1269538888889, "gps_lng": 5.64810388888889 }, { "id": 15205, "department_code": "39", "insee_code": "39401", "zip_code": "39800", "name": "Oussières", "slug": "oussieres", "gps_lat": 46.91680560439561, "gps_lng": 5.59804912087912 }, { "id": 15574, "department_code": "40", "insee_code": "40206", "zip_code": "40300", "name": "Oeyregave", "slug": "oeyregave", "gps_lat": 43.52733188118813, "gps_lng": -1.09716534653465 }, { "id": 15575, "department_code": "40", "insee_code": "40207", "zip_code": "40180", "name": "Oeyreluy", "slug": "oeyreluy", "gps_lat": 43.67165091743122, "gps_lng": -1.07748816513761 }, { "id": 15576, "department_code": "40", "insee_code": "40208", "zip_code": "40380", "name": "Onard", "slug": "onard", "gps_lat": 43.77658102941177, "gps_lng": -0.8331375 }, { "id": 15577, "department_code": "40", "insee_code": "40209", "zip_code": "40440", "name": "Ondres", "slug": "ondres", "gps_lat": 43.55834521276595, "gps_lng": -1.434635 }, { "id": 15578, "department_code": "40", "insee_code": "40210", "zip_code": "40110", "name": "Onesse-Laharie", "slug": "onesse laharie", "gps_lat": 44.04670465517243, "gps_lng": -1.06653465517241 }, { "id": 15579, "department_code": "40", "insee_code": "40211", "zip_code": "40300", "name": "Orist", "slug": "orist", "gps_lat": 43.6340111111111, "gps_lng": -1.16902953703704 }, { "id": 15580, "department_code": "40", "insee_code": "40212", "zip_code": "40300", "name": "Orthevielle", "slug": "orthevielle", "gps_lat": 43.56627637254902, "gps_lng": -1.14307852941176 }, { "id": 15581, "department_code": "40", "insee_code": "40213", "zip_code": "40230", "name": "Orx", "slug": "orx", "gps_lat": 43.6089485, "gps_lng": -1.36406333333333 }, { "id": 15582, "department_code": "40", "insee_code": "40214", "zip_code": "40290", "name": "Ossages", "slug": "ossages", "gps_lat": 43.5568664566929, "gps_lng": -0.87887393700787 }, { "id": 15583, "department_code": "40", "insee_code": "40215", "zip_code": "40110", "name": "Ousse-Suzan", "slug": "ousse suzan", "gps_lat": 43.95063836734693, "gps_lng": -0.76592357142857 }, { "id": 15584, "department_code": "40", "insee_code": "40216", "zip_code": "40380", "name": "Ozourt", "slug": "ozourt", "gps_lat": 43.65783983193278, "gps_lng": -0.8805731092437 }, { "id": 15853, "department_code": "41", "insee_code": "41166", "zip_code": "41700", "name": "Oisly", "slug": "oisly", "gps_lat": 47.3990025, "gps_lng": 1.37832522727273 }, { "id": 15855, "department_code": "41", "insee_code": "41168", "zip_code": "41300", "name": "Orçay", "slug": "orcay", "gps_lat": 47.30757105769233, "gps_lng": 2.12917730769231 }, { "id": 15856, "department_code": "41", "insee_code": "41170", "zip_code": "41120", "name": "Ouchamps", "slug": "ouchamps", "gps_lat": 47.47653295081967, "gps_lng": 1.3201842622950801 }, { "id": 15857, "department_code": "41", "insee_code": "41171", "zip_code": "41290", "name": "Oucques La Nouvelle", "slug": "oucques la nouvelle", "gps_lat": 47.81489412213739, "gps_lng": 1.2655593129771 }, { "id": 15858, "department_code": "41", "insee_code": "41172", "zip_code": "41160", "name": "Ouzouer-le-Doyen", "slug": "ouzouer le doyen", "gps_lat": 47.94714170731709, "gps_lng": 1.3424195121951201 }, { "id": 16130, "department_code": "42", "insee_code": "42162", "zip_code": "42155", "name": "Ouches", "slug": "ouches", "gps_lat": 46.01333799999998, "gps_lng": 3.990672 }, { "id": 16448, "department_code": "43", "insee_code": "43145", "zip_code": "43510", "name": "Ouides", "slug": "ouides", "gps_lat": 44.90351398496239, "gps_lng": 3.73914233082707 }, { "id": 16670, "department_code": "44", "insee_code": "44114", "zip_code": "44700", "name": "Orvault", "slug": "orvault", "gps_lat": 47.27741283783783, "gps_lng": -1.62543135135135 }, { "id": 16671, "department_code": "44", "insee_code": "44115", "zip_code": "44521", "name": "Oudon", "slug": "oudon", "gps_lat": 47.35826857142855, "gps_lng": -1.26312466666667 }, { "id": 16990, "department_code": "45", "insee_code": "45231", "zip_code": "45170", "name": "Oison", "slug": "oison", "gps_lat": 48.13360016949153, "gps_lng": 1.97780101694915 }, { "id": 16991, "department_code": "45", "insee_code": "45232", "zip_code": "45160", "name": "Olivet", "slug": "olivet", "gps_lat": 47.85937283333333, "gps_lng": 1.8988257499999999 }, { "id": 16992, "department_code": "45", "insee_code": "45233", "zip_code": "45390", "name": "Ondreville-sur-Essonne", "slug": "ondreville sur essonne", "gps_lat": 48.19806136363634, "gps_lng": 2.41464090909091 }, { "id": 16993, "department_code": "45", "insee_code": "45234", "zip_code": "45000", "name": "Orléans", "slug": "orleans", "gps_lat": 47.9108329, "gps_lng": 1.9157977000000002 }, { "id": 16994, "department_code": "45", "insee_code": "45234", "zip_code": "45100", "name": "Orléans", "slug": "orleans", "gps_lat": 47.84133, "gps_lng": 1.9326591 }, { "id": 16995, "department_code": "45", "insee_code": "45235", "zip_code": "45140", "name": "Ormes", "slug": "ormes", "gps_lat": 47.94231990000003, "gps_lng": 1.8039334999999999 }, { "id": 16996, "department_code": "45", "insee_code": "45237", "zip_code": "45390", "name": "Orville", "slug": "orville", "gps_lat": 48.24312390625001, "gps_lng": 2.4510540625 }, { "id": 16997, "department_code": "45", "insee_code": "45238", "zip_code": "45250", "name": "Ousson-sur-Loire", "slug": "ousson sur loire", "gps_lat": 47.60196603773584, "gps_lng": 2.79885603773585 }, { "id": 16998, "department_code": "45", "insee_code": "45239", "zip_code": "45290", "name": "Oussoy-en-Gâtinais", "slug": "oussoy en gatinais", "gps_lat": 47.90197761904762, "gps_lng": 2.64141628571429 }, { "id": 16999, "department_code": "45", "insee_code": "45240", "zip_code": "45480", "name": "Outarville", "slug": "outarville", "gps_lat": 48.21439962025313, "gps_lng": 2.01768310126582 }, { "id": 17000, "department_code": "45", "insee_code": "45241", "zip_code": "45150", "name": "Ouvrouer-les-Champs", "slug": "ouvrouer les champs", "gps_lat": 47.83223719298245, "gps_lng": 2.17597280701754 }, { "id": 17001, "department_code": "45", "insee_code": "45242", "zip_code": "45290", "name": "Ouzouer-des-Champs", "slug": "ouzouer des champs", "gps_lat": 47.87481593406591, "gps_lng": 2.7048556043956102 }, { "id": 17002, "department_code": "45", "insee_code": "45243", "zip_code": "45270", "name": "Ouzouer-sous-Bellegarde", "slug": "ouzouer sous bellegarde", "gps_lat": 47.98952989247311, "gps_lng": 2.48330838709677 }, { "id": 17003, "department_code": "45", "insee_code": "45244", "zip_code": "45570", "name": "Ouzouer-sur-Loire", "slug": "ouzouer sur loire", "gps_lat": 47.77467500000001, "gps_lng": 2.47674347222222 }, { "id": 17004, "department_code": "45", "insee_code": "45245", "zip_code": "45250", "name": "Ouzouer-sur-Trézée", "slug": "ouzouer sur trezee", "gps_lat": 47.68044287234041, "gps_lng": 2.81790962765958 }, { "id": 17304, "department_code": "46", "insee_code": "46212", "zip_code": "46330", "name": "Orniac", "slug": "orniac", "gps_lat": 44.53963105633807, "gps_lng": 1.6815511971830999 }, { "id": 17953, "department_code": "49", "insee_code": "49069", "zip_code": "49270", "name": "Orée d'Anjou", "slug": "oree d anjou", "gps_lat": 47.33769179999999, "gps_lng": -1.2638726 }, { "id": 17954, "department_code": "49", "insee_code": "49069", "zip_code": "49530", "name": "Orée d'Anjou", "slug": "oree d anjou", "gps_lat": 47.342087, "gps_lng": -1.164507 }, { "id": 18044, "department_code": "49", "insee_code": "49248", "zip_code": "49420", "name": "Ombrée d'Anjou", "slug": "ombree d anjou", "gps_lat": 47.7453419, "gps_lng": -1.1663660999999999 }, { "id": 18045, "department_code": "49", "insee_code": "49248", "zip_code": "49520", "name": "Ombrée d'Anjou", "slug": "ombree d anjou", "gps_lat": 47.7001155, "gps_lng": -1.0164327 }, { "id": 18415, "department_code": "50", "insee_code": "50384", "zip_code": "50630", "name": "Octeville-l'Avenel", "slug": "octeville l avenel", "gps_lat": 49.54692147368421, "gps_lng": -1.3633046315789499 }, { "id": 18416, "department_code": "50", "insee_code": "50387", "zip_code": "50390", "name": "Orglandes", "slug": "orglandes", "gps_lat": 49.42234619718309, "gps_lng": -1.44163901408451 }, { "id": 18417, "department_code": "50", "insee_code": "50388", "zip_code": "50660", "name": "Orval sur Sienne", "slug": "orval sur sienne", "gps_lat": 49.00881929906541, "gps_lng": -1.47131369158879 }, { "id": 18418, "department_code": "50", "insee_code": "50389", "zip_code": "50210", "name": "Ouville", "slug": "ouville", "gps_lat": 49.02589181415933, "gps_lng": -1.3612593805309698 }, { "id": 18419, "department_code": "50", "insee_code": "50390", "zip_code": "50310", "name": "Ozeville", "slug": "ozeville", "gps_lat": 49.50124472527472, "gps_lng": -1.34072494505495 }, { "id": 18999, "department_code": "51", "insee_code": "51410", "zip_code": "51480", "name": "Œuilly", "slug": "oeuilly", "gps_lat": 49.06550012048191, "gps_lng": 3.7974985542168698 }, { "id": 19000, "department_code": "51", "insee_code": "51412", "zip_code": "51230", "name": "Ognes", "slug": "ognes", "gps_lat": 48.70062907894739, "gps_lng": 3.90297197368421 }, { "id": 19001, "department_code": "51", "insee_code": "51413", "zip_code": "51530", "name": "Oiry", "slug": "oiry", "gps_lat": 49.00944346153845, "gps_lng": 4.03885794871795 }, { "id": 19002, "department_code": "51", "insee_code": "51414", "zip_code": "51700", "name": "Olizy", "slug": "olizy", "gps_lat": 49.14488793650794, "gps_lng": 3.76276904761905 }, { "id": 19003, "department_code": "51", "insee_code": "51415", "zip_code": "51240", "name": "Omey", "slug": "omey", "gps_lat": 48.85183860465117, "gps_lng": 4.50178813953488 }, { "id": 19004, "department_code": "51", "insee_code": "51416", "zip_code": "51270", "name": "Orbais-l'Abbaye", "slug": "orbais l abbaye", "gps_lat": 48.9510918897638, "gps_lng": 3.70640905511811 }, { "id": 19005, "department_code": "51", "insee_code": "51417", "zip_code": "51300", "name": "Orconte", "slug": "orconte", "gps_lat": 48.66851054794521, "gps_lng": 4.7261997260274 }, { "id": 19006, "department_code": "51", "insee_code": "51418", "zip_code": "51370", "name": "Ormes", "slug": "ormes", "gps_lat": 49.23938346938775, "gps_lng": 3.96053346938776 }, { "id": 19007, "department_code": "51", "insee_code": "51419", "zip_code": "51290", "name": "Outines", "slug": "outines", "gps_lat": 48.55932565217389, "gps_lng": 4.66208354037267 }, { "id": 19008, "department_code": "51", "insee_code": "51420", "zip_code": "51300", "name": "Outrepont", "slug": "outrepont", "gps_lat": 48.7651380645161, "gps_lng": 4.69119412903226 }, { "id": 19009, "department_code": "51", "insee_code": "51421", "zip_code": "51120", "name": "Oyes", "slug": "oyes", "gps_lat": 48.81271531645571, "gps_lng": 3.75742556962025 }, { "id": 19520, "department_code": "52", "insee_code": "52360", "zip_code": "52190", "name": "Occey", "slug": "occey", "gps_lat": 47.60106688311687, "gps_lng": 5.27508597402597 }, { "id": 19521, "department_code": "52", "insee_code": "52362", "zip_code": "52360", "name": "Orbigny-au-Mont", "slug": "orbigny au mont", "gps_lat": 47.88571337662338, "gps_lng": 5.46348246753246 }, { "id": 19522, "department_code": "52", "insee_code": "52363", "zip_code": "52360", "name": "Orbigny-au-Val", "slug": "orbigny au val", "gps_lat": 47.88222227272726, "gps_lng": 5.42627795454546 }, { "id": 19523, "department_code": "52", "insee_code": "52364", "zip_code": "52250", "name": "Orcevaux", "slug": "orcevaux", "gps_lat": 47.77446034482759, "gps_lng": 5.2696224137931 }, { "id": 19524, "department_code": "52", "insee_code": "52365", "zip_code": "52120", "name": "Orges", "slug": "orges", "gps_lat": 48.07796647058827, "gps_lng": 4.93743924369748 }, { "id": 19525, "department_code": "52", "insee_code": "52366", "zip_code": "52200", "name": "Ormancey", "slug": "ormancey", "gps_lat": 47.9036585915493, "gps_lng": 5.18070408450704 }, { "id": 19526, "department_code": "52", "insee_code": "52367", "zip_code": "52310", "name": "Ormoy-lès-Sexfontaines", "slug": "ormoy les sexfontaines", "gps_lat": 48.22474784810127, "gps_lng": 5.05692506329114 }, { "id": 19527, "department_code": "52", "insee_code": "52369", "zip_code": "52700", "name": "Orquevaux", "slug": "orquevaux", "gps_lat": 48.31287893617021, "gps_lng": 5.41854138297872 }, { "id": 19528, "department_code": "52", "insee_code": "52370", "zip_code": "52300", "name": "Osne-le-Val", "slug": "osne le val", "gps_lat": 48.4983174264706, "gps_lng": 5.19977522058824 }, { "id": 19529, "department_code": "52", "insee_code": "52371", "zip_code": "52310", "name": "Oudincourt", "slug": "oudincourt", "gps_lat": 48.22736857142858, "gps_lng": 5.08787171428571 }, { "id": 19530, "department_code": "52", "insee_code": "52372", "zip_code": "52150", "name": "Outremécourt", "slug": "outremecourt", "gps_lat": 48.2123063392857, "gps_lng": 5.68691205357143 }, { "id": 19531, "department_code": "52", "insee_code": "52373", "zip_code": "52700", "name": "Ozières", "slug": "ozieres", "gps_lat": 48.16629826666668, "gps_lng": 5.4750756 }, { "id": 19824, "department_code": "53", "insee_code": "53169", "zip_code": "53410", "name": "Olivet", "slug": "olivet", "gps_lat": 48.11520722222223, "gps_lng": -0.93551150793651 }, { "id": 19825, "department_code": "53", "insee_code": "53170", "zip_code": "53300", "name": "Oisseau", "slug": "oisseau", "gps_lat": 48.37084912280705, "gps_lng": -0.67256855263158 }, { "id": 19826, "department_code": "53", "insee_code": "53172", "zip_code": "53360", "name": "Origné", "slug": "origne", "gps_lat": 47.95018150442478, "gps_lng": -0.73114088495575 }, { "id": 20322, "department_code": "54", "insee_code": "54405", "zip_code": "54170", "name": "Ochey", "slug": "ochey", "gps_lat": 48.59381568965517, "gps_lng": 5.94980655172414 }, { "id": 20323, "department_code": "54", "insee_code": "54406", "zip_code": "54450", "name": "Ogéviller", "slug": "ogeviller", "gps_lat": 48.55248570093459, "gps_lng": 6.71638971962617 }, { "id": 20324, "department_code": "54", "insee_code": "54407", "zip_code": "54330", "name": "Ognéville", "slug": "ogneville", "gps_lat": 48.47123567164179, "gps_lng": 6.05832776119403 }, { "id": 20325, "department_code": "54", "insee_code": "54408", "zip_code": "54800", "name": "Olley", "slug": "olley", "gps_lat": 49.16871622047244, "gps_lng": 5.76632086614173 }, { "id": 20326, "department_code": "54", "insee_code": "54409", "zip_code": "54330", "name": "Omelmont", "slug": "omelmont", "gps_lat": 48.49529679999998, "gps_lng": 6.1205136 }, { "id": 20327, "department_code": "54", "insee_code": "54410", "zip_code": "54890", "name": "Onville", "slug": "onville", "gps_lat": 49.01793356521738, "gps_lng": 5.97193208695652 }, { "id": 20328, "department_code": "54", "insee_code": "54411", "zip_code": "54740", "name": "Ormes-et-Ville", "slug": "ormes et ville", "gps_lat": 48.4879273770492, "gps_lng": 6.20227475409836 }, { "id": 20329, "department_code": "54", "insee_code": "54412", "zip_code": "54260", "name": "Othe", "slug": "othe", "gps_lat": 49.48948343750001, "gps_lng": 5.4488228125 }, { "id": 20330, "department_code": "54", "insee_code": "54413", "zip_code": "54150", "name": "Ozerailles", "slug": "ozerailles", "gps_lat": 49.22373639534884, "gps_lng": 5.84245418604651 }, { "id": 20851, "department_code": "55", "insee_code": "55391", "zip_code": "55700", "name": "Olizy-sur-Chiers", "slug": "olizy sur chiers", "gps_lat": 49.56119541176469, "gps_lng": 5.21498623529412 }, { "id": 20852, "department_code": "55", "insee_code": "55394", "zip_code": "55150", "name": "Ornes", "slug": "ornes", "gps_lat": 49.25615966480446, "gps_lng": 5.47725893854749 }, { "id": 20853, "department_code": "55", "insee_code": "55395", "zip_code": "55220", "name": "Osches", "slug": "osches", "gps_lat": 49.04350807692308, "gps_lng": 5.24694294871795 }, { "id": 20854, "department_code": "55", "insee_code": "55396", "zip_code": "55190", "name": "Ourches-sur-Meuse", "slug": "ourches sur meuse", "gps_lat": 48.66607175675676, "gps_lng": 5.6948327027027 }, { "id": 21729, "department_code": "57", "insee_code": "57482", "zip_code": "57530", "name": "Ogy-Montoy-Flanville", "slug": "ogy montoy flanville", "gps_lat": 49.10425000000001, "gps_lng": 6.311206 }, { "id": 21730, "department_code": "57", "insee_code": "57482", "zip_code": "57645", "name": "Ogy-Montoy-Flanville", "slug": "ogy montoy flanville", "gps_lat": 49.10425000000001, "gps_lng": 6.311206 }, { "id": 21763, "department_code": "57", "insee_code": "57516", "zip_code": "57320", "name": "Oberdorff", "slug": "oberdorff", "gps_lat": 49.27656148148147, "gps_lng": 6.58071074074074 }, { "id": 21764, "department_code": "57", "insee_code": "57517", "zip_code": "57720", "name": "Obergailbach", "slug": "obergailbach", "gps_lat": 49.11277316455697, "gps_lng": 7.22042734177215 }, { "id": 21765, "department_code": "57", "insee_code": "57518", "zip_code": "57930", "name": "Oberstinzel", "slug": "oberstinzel", "gps_lat": 48.79008625, "gps_lng": 7.02697145833333 }, { "id": 21766, "department_code": "57", "insee_code": "57519", "zip_code": "57220", "name": "Obervisse", "slug": "obervisse", "gps_lat": 49.15263155172413, "gps_lng": 6.5825920689655195 }, { "id": 21767, "department_code": "57", "insee_code": "57520", "zip_code": "57170", "name": "Obreck", "slug": "obreck", "gps_lat": 48.85058619047619, "gps_lng": 6.60056841269841 }, { "id": 21768, "department_code": "57", "insee_code": "57521", "zip_code": "57600", "name": "Œting", "slug": "oeting", "gps_lat": 49.17315131578946, "gps_lng": 6.91031789473684 }, { "id": 21769, "department_code": "57", "insee_code": "57524", "zip_code": "57810", "name": "Ommeray", "slug": "ommeray", "gps_lat": 48.71838283185838, "gps_lng": 6.69233867256637 }, { "id": 21770, "department_code": "57", "insee_code": "57525", "zip_code": "57590", "name": "Oriocourt", "slug": "oriocourt", "gps_lat": 48.85842329411764, "gps_lng": 6.41166341176471 }, { "id": 21771, "department_code": "57", "insee_code": "57526", "zip_code": "57720", "name": "Ormersviller", "slug": "ormersviller", "gps_lat": 49.13100988888889, "gps_lng": 7.33783788888889 }, { "id": 21772, "department_code": "57", "insee_code": "57527", "zip_code": "57420", "name": "Orny", "slug": "orny", "gps_lat": 49.029681428571394, "gps_lng": 6.247655 }, { "id": 21773, "department_code": "57", "insee_code": "57528", "zip_code": "57590", "name": "Oron", "slug": "oron", "gps_lat": 48.90218075, "gps_lng": 6.4836225 }, { "id": 21774, "department_code": "57", "insee_code": "57529", "zip_code": "57840", "name": "Ottange", "slug": "ottange", "gps_lat": 49.43479260869564, "gps_lng": 6.00820684782609 }, { "id": 21775, "department_code": "57", "insee_code": "57530", "zip_code": "57220", "name": "Ottonville", "slug": "ottonville", "gps_lat": 49.21883805970153, "gps_lng": 6.51695656716418 }, { "id": 21776, "department_code": "57", "insee_code": "57531", "zip_code": "57970", "name": "Oudrenne", "slug": "oudrenne", "gps_lat": 49.36887972850679, "gps_lng": 6.34383226244344 }, { "id": 22195, "department_code": "58", "insee_code": "58198", "zip_code": "58500", "name": "Oisy", "slug": "oisy", "gps_lat": 47.46700176100628, "gps_lng": 3.44931943396226 }, { "id": 22196, "department_code": "58", "insee_code": "58199", "zip_code": "58370", "name": "Onlay", "slug": "onlay", "gps_lat": 46.96662004524887, "gps_lng": 3.89336384615385 }, { "id": 22197, "department_code": "58", "insee_code": "58200", "zip_code": "58500", "name": "Ouagne", "slug": "ouagne", "gps_lat": 47.40078455555555, "gps_lng": 3.49585666666667 }, { "id": 22198, "department_code": "58", "insee_code": "58201", "zip_code": "58210", "name": "Oudan", "slug": "oudan", "gps_lat": 47.34246944444445, "gps_lng": 3.33062212962963 }, { "id": 22199, "department_code": "58", "insee_code": "58202", "zip_code": "58110", "name": "Ougny", "slug": "ougny", "gps_lat": 47.07576802197801, "gps_lng": 3.71314335164835 }, { "id": 22200, "department_code": "58", "insee_code": "58203", "zip_code": "58700", "name": "Oulon", "slug": "oulon", "gps_lat": 47.19463843601896, "gps_lng": 3.40437739336493 }, { "id": 22202, "department_code": "58", "insee_code": "58205", "zip_code": "58230", "name": "Ouroux-en-Morvan", "slug": "ouroux en morvan", "gps_lat": 47.186473657289, "gps_lng": 3.95398537084399 }, { "id": 22746, "department_code": "59", "insee_code": "59441", "zip_code": "59570", "name": "Obies", "slug": "obies", "gps_lat": 50.26959061728395, "gps_lng": 3.7827243209876498 }, { "id": 22747, "department_code": "59", "insee_code": "59442", "zip_code": "59680", "name": "Obrechies", "slug": "obrechies", "gps_lat": 50.22046143999998, "gps_lng": 4.03397352 }, { "id": 22748, "department_code": "59", "insee_code": "59443", "zip_code": "59670", "name": "Ochtezeele", "slug": "ochtezeele", "gps_lat": 50.821305, "gps_lng": 2.40292740740741 }, { "id": 22749, "department_code": "59", "insee_code": "59444", "zip_code": "59970", "name": "Odomez", "slug": "odomez", "gps_lat": 50.44892348484848, "gps_lng": 3.54360848484848 }, { "id": 22750, "department_code": "59", "insee_code": "59445", "zip_code": "59132", "name": "Ohain", "slug": "ohain", "gps_lat": 50.03767188118811, "gps_lng": 4.13429792079208 }, { "id": 22751, "department_code": "59", "insee_code": "59446", "zip_code": "59195", "name": "Oisy", "slug": "oisy", "gps_lat": 50.35099074074073, "gps_lng": 3.43226049382716 }, { "id": 22752, "department_code": "59", "insee_code": "59447", "zip_code": "59264", "name": "Onnaing", "slug": "onnaing", "gps_lat": 50.38800224999999, "gps_lng": 3.6015761250000002 }, { "id": 22753, "department_code": "59", "insee_code": "59448", "zip_code": "59122", "name": "Oost-Cappel", "slug": "oost cappel", "gps_lat": 50.92877540983605, "gps_lng": 2.58830360655738 }, { "id": 22754, "department_code": "59", "insee_code": "59449", "zip_code": "59310", "name": "Orchies", "slug": "orchies", "gps_lat": 50.47233924812032, "gps_lng": 3.24469541353384 }, { "id": 22755, "department_code": "59", "insee_code": "59450", "zip_code": "59360", "name": "Ors", "slug": "ors", "gps_lat": 50.10725489208633, "gps_lng": 3.62573748201439 }, { "id": 22756, "department_code": "59", "insee_code": "59451", "zip_code": "59530", "name": "Orsinval", "slug": "orsinval", "gps_lat": 50.27223966666667, "gps_lng": 3.63027966666667 }, { "id": 22757, "department_code": "59", "insee_code": "59452", "zip_code": "59162", "name": "Ostricourt", "slug": "ostricourt", "gps_lat": 50.45777451923074, "gps_lng": 3.03043307692308 }, { "id": 22758, "department_code": "59", "insee_code": "59453", "zip_code": "59670", "name": "Oudezeele", "slug": "oudezeele", "gps_lat": 50.84269126213592, "gps_lng": 2.50896533980583 }, { "id": 22759, "department_code": "59", "insee_code": "59454", "zip_code": "59670", "name": "Oxelaëre", "slug": "oxelaere", "gps_lat": 50.78510714285715, "gps_lng": 2.46996 }, { "id": 23433, "department_code": "60", "insee_code": "60472", "zip_code": "60210", "name": "Offoy", "slug": "offoy", "gps_lat": 49.69707689655171, "gps_lng": 2.04199045977011 }, { "id": 23434, "department_code": "60", "insee_code": "60473", "zip_code": "60440", "name": "Ognes", "slug": "ognes", "gps_lat": 49.09938685185185, "gps_lng": 2.83627444444444 }, { "id": 23435, "department_code": "60", "insee_code": "60474", "zip_code": "60310", "name": "Ognolles", "slug": "ognolles", "gps_lat": 49.69157818181817, "gps_lng": 2.91668481818182 }, { "id": 23436, "department_code": "60", "insee_code": "60475", "zip_code": "60810", "name": "Ognon", "slug": "ognon", "gps_lat": 49.23867112499999, "gps_lng": 2.6465641250000003 }, { "id": 23437, "department_code": "60", "insee_code": "60476", "zip_code": "60220", "name": "Omécourt", "slug": "omecourt", "gps_lat": 49.61760392156864, "gps_lng": 1.8348188235294098 }, { "id": 23438, "department_code": "60", "insee_code": "60477", "zip_code": "60650", "name": "Ons-en-Bray", "slug": "ons en bray", "gps_lat": 49.4220588321168, "gps_lng": 1.92161627737226 }, { "id": 23439, "department_code": "60", "insee_code": "60478", "zip_code": "60620", "name": "Ormoy-le-Davien", "slug": "ormoy le davien", "gps_lat": 49.19840082191782, "gps_lng": 2.96301232876712 }, { "id": 23440, "department_code": "60", "insee_code": "60479", "zip_code": "60800", "name": "Ormoy-Villers", "slug": "ormoy villers", "gps_lat": 49.20225431578947, "gps_lng": 2.84715663157895 }, { "id": 23441, "department_code": "60", "insee_code": "60480", "zip_code": "60510", "name": "Oroër", "slug": "oroer", "gps_lat": 49.50035406779664, "gps_lng": 2.18060101694915 }, { "id": 23442, "department_code": "60", "insee_code": "60481", "zip_code": "60129", "name": "Orrouy", "slug": "orrouy", "gps_lat": 49.29672379310344, "gps_lng": 2.85638089655172 }, { "id": 23443, "department_code": "60", "insee_code": "60482", "zip_code": "60560", "name": "Orry-la-Ville", "slug": "orry la ville", "gps_lat": 49.14095238805971, "gps_lng": 2.51209462686567 }, { "id": 23444, "department_code": "60", "insee_code": "60483", "zip_code": "60490", "name": "Orvillers-Sorel", "slug": "orvillers sorel", "gps_lat": 49.5750475, "gps_lng": 2.70577177083333 }, { "id": 23445, "department_code": "60", "insee_code": "60484", "zip_code": "60860", "name": "Oudeuil", "slug": "oudeuil", "gps_lat": 49.54949771929823, "gps_lng": 2.03001070175439 }, { "id": 23446, "department_code": "60", "insee_code": "60485", "zip_code": "60480", "name": "Oursel-Maison", "slug": "oursel maison", "gps_lat": 49.59647557692308, "gps_lng": 2.17367403846154 }, { "id": 23905, "department_code": "61", "insee_code": "61314", "zip_code": "61200", "name": "Occagnes", "slug": "occagnes", "gps_lat": 48.78135140845072, "gps_lng": -0.06617112676056003 }, { "id": 23906, "department_code": "61", "insee_code": "61316", "zip_code": "61160", "name": "Ommoy", "slug": "ommoy", "gps_lat": 48.85571612676056, "gps_lng": -0.025915422535209953 }, { "id": 23907, "department_code": "61", "insee_code": "61317", "zip_code": "61230", "name": "Orgères", "slug": "orgeres", "gps_lat": 48.75102786458334, "gps_lng": 0.34476598958333 }, { "id": 23908, "department_code": "61", "insee_code": "61319", "zip_code": "61130", "name": "Origny-le-Roux", "slug": "origny le roux", "gps_lat": 48.33323242774565, "gps_lng": 0.42068 }, { "id": 24681, "department_code": "62", "insee_code": "62632", "zip_code": "62920", "name": "Oblinghem", "slug": "oblinghem", "gps_lat": 50.55201621621621, "gps_lng": 2.59443351351351 }, { "id": 24682, "department_code": "62", "insee_code": "62633", "zip_code": "62130", "name": "Œuf-en-Ternois", "slug": "oeuf en ternois", "gps_lat": 50.3633738541667, "gps_lng": 2.2125748958333302 }, { "id": 24683, "department_code": "62", "insee_code": "62634", "zip_code": "62370", "name": "Offekerque", "slug": "offekerque", "gps_lat": 50.93607978260872, "gps_lng": 2.01810032608696 }, { "id": 24684, "department_code": "62", "insee_code": "62635", "zip_code": "62990", "name": "Offin", "slug": "offin", "gps_lat": 50.44489015151517, "gps_lng": 1.9495971212121201 }, { "id": 24685, "department_code": "62", "insee_code": "62636", "zip_code": "62250", "name": "Offrethun", "slug": "offrethun", "gps_lat": 50.78507279411765, "gps_lng": 1.69736808823529 }, { "id": 24686, "department_code": "62", "insee_code": "62637", "zip_code": "62590", "name": "Oignies", "slug": "oignies", "gps_lat": 50.46702061855673, "gps_lng": 2.99911917525773 }, { "id": 24687, "department_code": "62", "insee_code": "62638", "zip_code": "62860", "name": "Oisy-le-Verger", "slug": "oisy le verger", "gps_lat": 50.25308496598643, "gps_lng": 3.11876741496599 }, { "id": 24688, "department_code": "62", "insee_code": "62639", "zip_code": "62580", "name": "Oppy", "slug": "oppy", "gps_lat": 50.34920960784314, "gps_lng": 2.8870401960784298 }, { "id": 24689, "department_code": "62", "insee_code": "62640", "zip_code": "62760", "name": "Orville", "slug": "orville", "gps_lat": 50.12729448979594, "gps_lng": 2.41935394557823 }, { "id": 24690, "department_code": "62", "insee_code": "62641", "zip_code": "62130", "name": "Ostreville", "slug": "ostreville", "gps_lat": 50.39402404255318, "gps_lng": 2.39558872340426 }, { "id": 24691, "department_code": "62", "insee_code": "62642", "zip_code": "62460", "name": "Ourton", "slug": "ourton", "gps_lat": 50.45363377358491, "gps_lng": 2.47265566037736 }, { "id": 24692, "department_code": "62", "insee_code": "62643", "zip_code": "62230", "name": "Outreau", "slug": "outreau", "gps_lat": 50.69569666666667, "gps_lng": 1.59282333333333 }, { "id": 24693, "department_code": "62", "insee_code": "62644", "zip_code": "62380", "name": "Ouve-Wirquin", "slug": "ouve wirquin", "gps_lat": 50.65389273972604, "gps_lng": 2.14584150684932 }, { "id": 24694, "department_code": "62", "insee_code": "62645", "zip_code": "62215", "name": "Oye-Plage", "slug": "oye plage", "gps_lat": 50.98690787439615, "gps_lng": 2.04822502415459 }, { "id": 25210, "department_code": "63", "insee_code": "63257", "zip_code": "63210", "name": "Olby", "slug": "olby", "gps_lat": 45.74697662698412, "gps_lng": 2.86654218253968 }, { "id": 25211, "department_code": "63", "insee_code": "63258", "zip_code": "63880", "name": "Olliergues", "slug": "olliergues", "gps_lat": 45.68982834319529, "gps_lng": 3.63124207100592 }, { "id": 25212, "department_code": "63", "insee_code": "63259", "zip_code": "63450", "name": "Olloix", "slug": "olloix", "gps_lat": 45.62585121621621, "gps_lng": 3.04973195945946 }, { "id": 25213, "department_code": "63", "insee_code": "63260", "zip_code": "63880", "name": "Olmet", "slug": "olmet", "gps_lat": 45.71629419047621, "gps_lng": 3.6620660000000003 }, { "id": 25214, "department_code": "63", "insee_code": "63261", "zip_code": "63500", "name": "Orbeil", "slug": "orbeil", "gps_lat": 45.57015776785714, "gps_lng": 3.27002151785714 }, { "id": 25215, "department_code": "63", "insee_code": "63262", "zip_code": "63670", "name": "Orcet", "slug": "orcet", "gps_lat": 45.70530836956522, "gps_lng": 3.17537239130435 }, { "id": 25216, "department_code": "63", "insee_code": "63263", "zip_code": "63870", "name": "Orcines", "slug": "orcines", "gps_lat": 45.78726036630035, "gps_lng": 3.01159523809524 }, { "id": 25217, "department_code": "63", "insee_code": "63264", "zip_code": "63210", "name": "Orcival", "slug": "orcival", "gps_lat": 45.6573129078014, "gps_lng": 2.83805095744681 }, { "id": 25218, "department_code": "63", "insee_code": "63265", "zip_code": "63190", "name": "Orléat", "slug": "orleat", "gps_lat": 45.8648876433121, "gps_lng": 3.44538108280255 }, { "id": 25831, "department_code": "64", "insee_code": "64420", "zip_code": "64190", "name": "Ogenne-Camptort", "slug": "ogenne camptort", "gps_lat": 43.31739730158731, "gps_lng": -0.69727978835979 }, { "id": 25832, "department_code": "64", "insee_code": "64421", "zip_code": "64680", "name": "Ogeu-les-Bains", "slug": "ogeu les bains", "gps_lat": 43.15127747311829, "gps_lng": -0.50968580645161 }, { "id": 25833, "department_code": "64", "insee_code": "64422", "zip_code": "64400", "name": "Oloron-Sainte-Marie", "slug": "oloron sainte marie", "gps_lat": 43.17393066086959, "gps_lng": -0.5891716 }, { "id": 25834, "department_code": "64", "insee_code": "64423", "zip_code": "64390", "name": "Oraàs", "slug": "oraas", "gps_lat": 43.43156682634731, "gps_lng": -0.96180688622754 }, { "id": 25835, "department_code": "64", "insee_code": "64424", "zip_code": "64130", "name": "Ordiarp", "slug": "ordiarp", "gps_lat": 43.19910883959045, "gps_lng": -0.95827979522184 }, { "id": 25836, "department_code": "64", "insee_code": "64425", "zip_code": "64120", "name": "Orègue", "slug": "oregue", "gps_lat": 43.41660535849056, "gps_lng": -1.1670547924528298 }, { "id": 25837, "department_code": "64", "insee_code": "64426", "zip_code": "64400", "name": "Orin", "slug": "orin", "gps_lat": 43.22511041237114, "gps_lng": -0.68226175257732 }, { "id": 25838, "department_code": "64", "insee_code": "64427", "zip_code": "64390", "name": "Orion", "slug": "orion", "gps_lat": 43.42084848341231, "gps_lng": -0.86505090047393 }, { "id": 25839, "department_code": "64", "insee_code": "64428", "zip_code": "64390", "name": "Orriule", "slug": "orriule", "gps_lat": 43.40857149068324, "gps_lng": -0.84326652173913 }, { "id": 25840, "department_code": "64", "insee_code": "64429", "zip_code": "64120", "name": "Orsanco", "slug": "orsanco", "gps_lat": 43.29064458015267, "gps_lng": -1.06944786259542 }, { "id": 25841, "department_code": "64", "insee_code": "64430", "zip_code": "64300", "name": "Orthez", "slug": "orthez", "gps_lat": 43.49418605863193, "gps_lng": -0.78055811074919 }, { "id": 25842, "department_code": "64", "insee_code": "64431", "zip_code": "64150", "name": "Os-Marsillon", "slug": "os marsillon", "gps_lat": 43.38560719101124, "gps_lng": -0.61793179775281 }, { "id": 25843, "department_code": "64", "insee_code": "64432", "zip_code": "64470", "name": "Ossas-Suhare", "slug": "ossas suhare", "gps_lat": 43.13813751592356, "gps_lng": -0.90215515923567 }, { "id": 25844, "department_code": "64", "insee_code": "64433", "zip_code": "64490", "name": "Osse-en-Aspe", "slug": "osse en aspe", "gps_lat": 43.01175688311688, "gps_lng": -0.65570662337662 }, { "id": 25845, "department_code": "64", "insee_code": "64434", "zip_code": "64190", "name": "Ossenx", "slug": "ossenx", "gps_lat": 43.37677944444444, "gps_lng": -0.807185 }, { "id": 25846, "department_code": "64", "insee_code": "64435", "zip_code": "64390", "name": "Osserain-Rivareyte", "slug": "osserain rivareyte", "gps_lat": 43.37069489795919, "gps_lng": -0.94810591836735 }, { "id": 25847, "department_code": "64", "insee_code": "64436", "zip_code": "64780", "name": "Ossès", "slug": "osses", "gps_lat": 43.2457179148936, "gps_lng": -1.2743945957446798 }, { "id": 25848, "department_code": "64", "insee_code": "64437", "zip_code": "64120", "name": "Ostabat-Asme", "slug": "ostabat asme", "gps_lat": 43.26206756097562, "gps_lng": -1.06746943089431 }, { "id": 25849, "department_code": "64", "insee_code": "64438", "zip_code": "64160", "name": "Ouillon", "slug": "ouillon", "gps_lat": 43.32791130841122, "gps_lng": -0.22792 }, { "id": 25850, "department_code": "64", "insee_code": "64439", "zip_code": "64320", "name": "Ousse", "slug": "ousse", "gps_lat": 43.27549124999999, "gps_lng": -0.26668912499999997 }, { "id": 25851, "department_code": "64", "insee_code": "64440", "zip_code": "64300", "name": "Ozenx-Montestrucq", "slug": "ozenx montestrucq", "gps_lat": 43.43450739130432, "gps_lng": -0.80811956521739 }, { "id": 26294, "department_code": "65", "insee_code": "65331", "zip_code": "65310", "name": "Odos", "slug": "odos", "gps_lat": 43.19537214285716, "gps_lng": 0.05671223214286 }, { "id": 26295, "department_code": "65", "insee_code": "65332", "zip_code": "65350", "name": "Oléac-Debat", "slug": "oleac debat", "gps_lat": 43.27305073170731, "gps_lng": 0.14352268292683 }, { "id": 26296, "department_code": "65", "insee_code": "65333", "zip_code": "65190", "name": "Oléac-Dessus", "slug": "oleac dessus", "gps_lat": 43.16097049382715, "gps_lng": 0.19800975308642 }, { "id": 26297, "department_code": "65", "insee_code": "65334", "zip_code": "65100", "name": "Omex", "slug": "omex", "gps_lat": 43.07868984375, "gps_lng": -0.09016500000000005 }, { "id": 26298, "department_code": "65", "insee_code": "65335", "zip_code": "65200", "name": "Ordizan", "slug": "ordizan", "gps_lat": 43.10756464912279, "gps_lng": 0.14512701754386 }, { "id": 26299, "department_code": "65", "insee_code": "65336", "zip_code": "65230", "name": "Organ", "slug": "organ", "gps_lat": 43.27747104166667, "gps_lng": 0.4807575 }, { "id": 26300, "department_code": "65", "insee_code": "65337", "zip_code": "65190", "name": "Orieux", "slug": "orieux", "gps_lat": 43.23414449704142, "gps_lng": 0.29628917159763 }, { "id": 26301, "department_code": "65", "insee_code": "65338", "zip_code": "65200", "name": "Orignac", "slug": "orignac", "gps_lat": 43.12500364532018, "gps_lng": 0.16535492610837 }, { "id": 26302, "department_code": "65", "insee_code": "65339", "zip_code": "65380", "name": "Orincles", "slug": "orincles", "gps_lat": 43.12138913580245, "gps_lng": 0.04162580246914 }, { "id": 26303, "department_code": "65", "insee_code": "65340", "zip_code": "65800", "name": "Orleix", "slug": "orleix", "gps_lat": 43.2776574736842, "gps_lng": 0.11730210526316 }, { "id": 26304, "department_code": "65", "insee_code": "65341", "zip_code": "65320", "name": "Oroix", "slug": "oroix", "gps_lat": 43.29652780701755, "gps_lng": -0.02196684210526001 }, { "id": 26305, "department_code": "65", "insee_code": "65342", "zip_code": "65350", "name": "Osmets", "slug": "osmets", "gps_lat": 43.30813986842105, "gps_lng": 0.26446078947368 }, { "id": 26306, "department_code": "65", "insee_code": "65343", "zip_code": "65100", "name": "Ossen", "slug": "ossen", "gps_lat": 43.06548907894738, "gps_lng": -0.07761684210525999 }, { "id": 26307, "department_code": "65", "insee_code": "65344", "zip_code": "65380", "name": "Ossun", "slug": "ossun", "gps_lat": 43.18653791366905, "gps_lng": -0.05002043165467995 }, { "id": 26308, "department_code": "65", "insee_code": "65345", "zip_code": "65100", "name": "Ossun-ez-Angles", "slug": "ossun ez angles", "gps_lat": 43.08035519999999, "gps_lng": 0.0563432 }, { "id": 26309, "department_code": "65", "insee_code": "65346", "zip_code": "65190", "name": "Oueilloux", "slug": "oueilloux", "gps_lat": 43.1761021904762, "gps_lng": 0.18060457142857 }, { "id": 26310, "department_code": "65", "insee_code": "65347", "zip_code": "65370", "name": "Ourde", "slug": "ourde", "gps_lat": 42.96611271428572, "gps_lng": 0.54232457142857 }, { "id": 26311, "department_code": "65", "insee_code": "65348", "zip_code": "65100", "name": "Ourdis-Cotdoussan", "slug": "ourdis cotdoussan", "gps_lat": 43.04249142857143, "gps_lng": 0.02715928571429 }, { "id": 26312, "department_code": "65", "insee_code": "65349", "zip_code": "65100", "name": "Ourdon", "slug": "ourdon", "gps_lat": 43.03442114285713, "gps_lng": -0.009875428571429978 }, { "id": 26313, "department_code": "65", "insee_code": "65350", "zip_code": "65490", "name": "Oursbelille", "slug": "oursbelille", "gps_lat": 43.28831962264149, "gps_lng": 0.02635188679245 }, { "id": 26314, "department_code": "65", "insee_code": "65351", "zip_code": "65100", "name": "Ousté", "slug": "ouste", "gps_lat": 43.04681558441558, "gps_lng": -0.01386025974025995 }, { "id": 26315, "department_code": "65", "insee_code": "65352", "zip_code": "65400", "name": "Ouzous", "slug": "ouzous", "gps_lat": 43.03124301886793, "gps_lng": -0.10401339622642003 }, { "id": 26316, "department_code": "65", "insee_code": "65353", "zip_code": "65190", "name": "Ozon", "slug": "ozon", "gps_lat": 43.17150100502511, "gps_lng": 0.25572522613065 }, { "id": 26564, "department_code": "66", "insee_code": "66125", "zip_code": "66360", "name": "Olette", "slug": "olette", "gps_lat": 42.58022766423356, "gps_lng": 2.25269379562044 }, { "id": 26565, "department_code": "66", "insee_code": "66126", "zip_code": "66400", "name": "Oms", "slug": "oms", "gps_lat": 42.52833025, "gps_lng": 2.7147264375 }, { "id": 26566, "department_code": "66", "insee_code": "66127", "zip_code": "66600", "name": "Opoul-Périllos", "slug": "opoul perillos", "gps_lat": 42.88531490566039, "gps_lng": 2.83450047169811 }, { "id": 26567, "department_code": "66", "insee_code": "66128", "zip_code": "66360", "name": "Oreilla", "slug": "oreilla", "gps_lat": 42.56864975, "gps_lng": 2.224761 }, { "id": 26568, "department_code": "66", "insee_code": "66129", "zip_code": "66560", "name": "Ortaffa", "slug": "ortaffa", "gps_lat": 42.58700688679246, "gps_lng": 2.91623264150943 }, { "id": 26569, "department_code": "66", "insee_code": "66130", "zip_code": "66340", "name": "Osséja", "slug": "osseja", "gps_lat": 42.40308337078652, "gps_lng": 1.99412073033708 }, { "id": 26982, "department_code": "67", "insee_code": "67338", "zip_code": "67230", "name": "Obenheim", "slug": "obenheim", "gps_lat": 48.35455859649122, "gps_lng": 7.68596719298246 }, { "id": 26984, "department_code": "67", "insee_code": "67340", "zip_code": "67110", "name": "Oberbronn", "slug": "oberbronn", "gps_lat": 48.93564127192982, "gps_lng": 7.59540065789473 }, { "id": 26985, "department_code": "67", "insee_code": "67341", "zip_code": "67360", "name": "Oberdorf-Spachbach", "slug": "oberdorf spachbach", "gps_lat": 48.92793387096773, "gps_lng": 7.7726911290322604 }, { "id": 26986, "department_code": "67", "insee_code": "67342", "zip_code": "67280", "name": "Oberhaslach", "slug": "oberhaslach", "gps_lat": 48.56401173652694, "gps_lng": 7.2973222754491 }, { "id": 26987, "department_code": "67", "insee_code": "67343", "zip_code": "67205", "name": "Oberhausbergen", "slug": "oberhausbergen", "gps_lat": 48.60715954545454, "gps_lng": 7.68545590909091 }, { "id": 26988, "department_code": "67", "insee_code": "67344", "zip_code": "67160", "name": "Oberhoffen-lès-Wissembourg", "slug": "oberhoffen les wissembourg", "gps_lat": 49.01108909090908, "gps_lng": 7.91480441558442 }, { "id": 26989, "department_code": "67", "insee_code": "67345", "zip_code": "67240", "name": "Oberhoffen-sur-Moder", "slug": "oberhoffen sur moder", "gps_lat": 48.77436483146068, "gps_lng": 7.89459168539325 }, { "id": 26990, "department_code": "67", "insee_code": "67346", "zip_code": "67160", "name": "Oberlauterbach", "slug": "oberlauterbach", "gps_lat": 48.9460368852459, "gps_lng": 8.06591524590164 }, { "id": 26991, "department_code": "67", "insee_code": "67347", "zip_code": "67330", "name": "Obermodern-Zutzendorf", "slug": "obermodern zutzendorf", "gps_lat": 48.84726849162011, "gps_lng": 7.54022625698324 }, { "id": 26992, "department_code": "67", "insee_code": "67348", "zip_code": "67210", "name": "Obernai", "slug": "obernai", "gps_lat": 48.45438796680498, "gps_lng": 7.46667373443984 }, { "id": 26993, "department_code": "67", "insee_code": "67349", "zip_code": "67250", "name": "Oberrœdern", "slug": "oberroedern", "gps_lat": 48.92785523364487, "gps_lng": 7.9693114018691595 }, { "id": 26994, "department_code": "67", "insee_code": "67350", "zip_code": "67203", "name": "Oberschaeffolsheim", "slug": "oberschaeffolsheim", "gps_lat": 48.58714596330279, "gps_lng": 7.64737100917431 }, { "id": 26996, "department_code": "67", "insee_code": "67352", "zip_code": "67330", "name": "Obersoultzbach", "slug": "obersoultzbach", "gps_lat": 48.84962709677418, "gps_lng": 7.4445714516129105 }, { "id": 26997, "department_code": "67", "insee_code": "67353", "zip_code": "67510", "name": "Obersteinbach", "slug": "obersteinbach", "gps_lat": 49.03602840425532, "gps_lng": 7.67428361702128 }, { "id": 26998, "department_code": "67", "insee_code": "67354", "zip_code": "67520", "name": "Odratzheim", "slug": "odratzheim", "gps_lat": 48.59935055555557, "gps_lng": 7.49129027777778 }, { "id": 26999, "department_code": "67", "insee_code": "67355", "zip_code": "67970", "name": "Oermingen", "slug": "oermingen", "gps_lat": 49.00215588888889, "gps_lng": 7.12105422222222 }, { "id": 27000, "department_code": "67", "insee_code": "67356", "zip_code": "67850", "name": "Offendorf", "slug": "offendorf", "gps_lat": 48.71466623655914, "gps_lng": 7.91611602150538 }, { "id": 27001, "department_code": "67", "insee_code": "67358", "zip_code": "67340", "name": "Offwiller", "slug": "offwiller", "gps_lat": 48.91809351351351, "gps_lng": 7.53870466216216 }, { "id": 27002, "department_code": "67", "insee_code": "67359", "zip_code": "67170", "name": "Ohlungen", "slug": "ohlungen", "gps_lat": 48.812046, "gps_lng": 7.699782 }, { "id": 27003, "department_code": "67", "insee_code": "67359", "zip_code": "67590", "name": "Ohlungen", "slug": "ohlungen", "gps_lat": 48.8184188, "gps_lng": 7.7181748 }, { "id": 27004, "department_code": "67", "insee_code": "67360", "zip_code": "67390", "name": "Ohnenheim", "slug": "ohnenheim", "gps_lat": 48.18468666666666, "gps_lng": 7.50410549019608 }, { "id": 27005, "department_code": "67", "insee_code": "67361", "zip_code": "67170", "name": "Olwisheim", "slug": "olwisheim", "gps_lat": 48.69701396825398, "gps_lng": 7.67402555555555 }, { "id": 27006, "department_code": "67", "insee_code": "67362", "zip_code": "67600", "name": "Orschwiller", "slug": "orschwiller", "gps_lat": 48.24305087248322, "gps_lng": 7.37077731543624 }, { "id": 27007, "department_code": "67", "insee_code": "67363", "zip_code": "67990", "name": "Osthoffen", "slug": "osthoffen", "gps_lat": 48.59002538461536, "gps_lng": 7.56352897435898 }, { "id": 27008, "department_code": "67", "insee_code": "67364", "zip_code": "67150", "name": "Osthouse", "slug": "osthouse", "gps_lat": 48.3928492857143, "gps_lng": 7.65474428571428 }, { "id": 27009, "department_code": "67", "insee_code": "67365", "zip_code": "67540", "name": "Ostwald", "slug": "ostwald", "gps_lat": 48.54489211764705, "gps_lng": 7.70845188235294 }, { "id": 27010, "department_code": "67", "insee_code": "67366", "zip_code": "67700", "name": "Ottersthal", "slug": "ottersthal", "gps_lat": 48.75586547169811, "gps_lng": 7.34679113207547 }, { "id": 27011, "department_code": "67", "insee_code": "67367", "zip_code": "67700", "name": "Otterswiller", "slug": "otterswiller", "gps_lat": 48.71929252525253, "gps_lng": 7.37804555555556 }, { "id": 27012, "department_code": "67", "insee_code": "67368", "zip_code": "67530", "name": "Ottrott", "slug": "ottrott", "gps_lat": 48.44577739534885, "gps_lng": 7.37446572093023 }, { "id": 27013, "department_code": "67", "insee_code": "67369", "zip_code": "67320", "name": "Ottwiller", "slug": "ottwiller", "gps_lat": 48.86328636363638, "gps_lng": 7.23119402597403 }, { "id": 27420, "department_code": "68", "insee_code": "68239", "zip_code": "68290", "name": "Oberbruck", "slug": "oberbruck", "gps_lat": 47.81626779411765, "gps_lng": 6.93199338235294 }, { "id": 27422, "department_code": "68", "insee_code": "68241", "zip_code": "68127", "name": "Oberentzen", "slug": "oberentzen", "gps_lat": 47.94734655913979, "gps_lng": 7.3590520430107595 }, { "id": 27423, "department_code": "68", "insee_code": "68242", "zip_code": "68127", "name": "Oberhergheim", "slug": "oberhergheim", "gps_lat": 47.97590822580644, "gps_lng": 7.36933612903226 }, { "id": 27424, "department_code": "68", "insee_code": "68243", "zip_code": "68480", "name": "Oberlarg", "slug": "oberlarg", "gps_lat": 47.45006375000001, "gps_lng": 7.2304253125 }, { "id": 27425, "department_code": "68", "insee_code": "68244", "zip_code": "68420", "name": "Obermorschwihr", "slug": "obermorschwihr", "gps_lat": 48.02336265625, "gps_lng": 7.293015625 }, { "id": 27426, "department_code": "68", "insee_code": "68245", "zip_code": "68130", "name": "Obermorschwiller", "slug": "obermorschwiller", "gps_lat": 47.64340578947368, "gps_lng": 7.31853513157895 }, { "id": 27427, "department_code": "68", "insee_code": "68246", "zip_code": "68600", "name": "Obersaasheim", "slug": "obersaasheim", "gps_lat": 47.98361025316456, "gps_lng": 7.56738113924051 }, { "id": 27428, "department_code": "68", "insee_code": "68247", "zip_code": "68830", "name": "Oderen", "slug": "oderen", "gps_lat": 47.92985196808508, "gps_lng": 6.9890769680851 }, { "id": 27429, "department_code": "68", "insee_code": "68248", "zip_code": "68480", "name": "Oltingue", "slug": "oltingue", "gps_lat": 47.4906176744186, "gps_lng": 7.3989411627907 }, { "id": 27430, "department_code": "68", "insee_code": "68249", "zip_code": "68370", "name": "Orbey", "slug": "orbey", "gps_lat": 48.10833067307691, "gps_lng": 7.14301615384615 }, { "id": 27431, "department_code": "68", "insee_code": "68250", "zip_code": "68500", "name": "Orschwihr", "slug": "orschwihr", "gps_lat": 47.93525898550723, "gps_lng": 7.23102391304348 }, { "id": 27432, "department_code": "68", "insee_code": "68251", "zip_code": "68570", "name": "Osenbach", "slug": "osenbach", "gps_lat": 47.99552666666665, "gps_lng": 7.2162450877193 }, { "id": 27433, "department_code": "68", "insee_code": "68252", "zip_code": "68150", "name": "Ostheim", "slug": "ostheim", "gps_lat": 48.15568696629213, "gps_lng": 7.37708640449438 }, { "id": 27434, "department_code": "68", "insee_code": "68253", "zip_code": "68490", "name": "Ottmarsheim", "slug": "ottmarsheim", "gps_lat": 47.79027794871794, "gps_lng": 7.50657461538462 }, { "id": 27706, "department_code": "69", "insee_code": "69145", "zip_code": "69460", "name": "Odenas", "slug": "odenas", "gps_lat": 46.09456307692307, "gps_lng": 4.64326923076923 }, { "id": 27708, "department_code": "69", "insee_code": "69148", "zip_code": "69530", "name": "Orliénas", "slug": "orlienas", "gps_lat": 45.65944514563108, "gps_lng": 4.7285185436893205 }, { "id": 27709, "department_code": "69", "insee_code": "69149", "zip_code": "69600", "name": "Oullins", "slug": "oullins", "gps_lat": 45.71674211267607, "gps_lng": 4.80122352112676 }, { "id": 27710, "department_code": "69", "insee_code": "69150", "zip_code": "69860", "name": "Ouroux", "slug": "ouroux", "gps_lat": 46.22675378881987, "gps_lng": 4.58350521739131 }, { "id": 28210, "department_code": "70", "insee_code": "70392", "zip_code": "70120", "name": "Oigney", "slug": "oigney", "gps_lat": 47.75349929411765, "gps_lng": 5.85391529411765 }, { "id": 28211, "department_code": "70", "insee_code": "70393", "zip_code": "70700", "name": "Oiselay-et-Grachaux", "slug": "oiselay et grachaux", "gps_lat": 47.42874445121954, "gps_lng": 5.92573292682927 }, { "id": 28212, "department_code": "70", "insee_code": "70394", "zip_code": "70100", "name": "Onay", "slug": "onay", "gps_lat": 47.39190731884057, "gps_lng": 5.68617652173913 }, { "id": 28213, "department_code": "70", "insee_code": "70395", "zip_code": "70110", "name": "Oppenans", "slug": "oppenans", "gps_lat": 47.58708947368421, "gps_lng": 6.38368631578947 }, { "id": 28214, "department_code": "70", "insee_code": "70396", "zip_code": "70110", "name": "Oricourt", "slug": "oricourt", "gps_lat": 47.598604625, "gps_lng": 6.393759875 }, { "id": 28215, "department_code": "70", "insee_code": "70397", "zip_code": "70230", "name": "Ormenans", "slug": "ormenans", "gps_lat": 47.45728862745097, "gps_lng": 6.21611274509804 }, { "id": 28216, "department_code": "70", "insee_code": "70398", "zip_code": "70300", "name": "Ormoiche", "slug": "ormoiche", "gps_lat": 47.81245515789473, "gps_lng": 6.30342178947368 }, { "id": 28217, "department_code": "70", "insee_code": "70399", "zip_code": "70500", "name": "Ormoy", "slug": "ormoy", "gps_lat": 47.88196709183674, "gps_lng": 5.98740887755102 }, { "id": 28218, "department_code": "70", "insee_code": "70400", "zip_code": "70500", "name": "Ouge", "slug": "ouge", "gps_lat": 47.79982886666669, "gps_lng": 5.70330593333333 }, { "id": 28219, "department_code": "70", "insee_code": "70401", "zip_code": "70360", "name": "Ovanches", "slug": "ovanches", "gps_lat": 47.62992653333333, "gps_lng": 5.95650466666667 }, { "id": 28220, "department_code": "70", "insee_code": "70402", "zip_code": "70600", "name": "Oyrières", "slug": "oyrieres", "gps_lat": 47.531139186046516, "gps_lng": 5.57690325581395 }, { "id": 28711, "department_code": "71", "insee_code": "71332", "zip_code": "71290", "name": "Ormes", "slug": "ormes", "gps_lat": 46.63813120967746, "gps_lng": 4.96848814516129 }, { "id": 28712, "department_code": "71", "insee_code": "71333", "zip_code": "71380", "name": "Oslon", "slug": "oslon", "gps_lat": 46.77796773809522, "gps_lng": 4.9339175 }, { "id": 28713, "department_code": "71", "insee_code": "71334", "zip_code": "71420", "name": "Oudry", "slug": "oudry", "gps_lat": 46.57621295454546, "gps_lng": 4.16409045454545 }, { "id": 28714, "department_code": "71", "insee_code": "71335", "zip_code": "71800", "name": "Ouroux-sous-le-Bois-Sainte-Marie", "slug": "ouroux sous le bois sainte marie", "gps_lat": 46.36143329545455, "gps_lng": 4.31087045454546 }, { "id": 28715, "department_code": "71", "insee_code": "71336", "zip_code": "71370", "name": "Ouroux-sur-Saône", "slug": "ouroux sur saone", "gps_lat": 46.72747349999999, "gps_lng": 4.95626294444444 }, { "id": 28716, "department_code": "71", "insee_code": "71337", "zip_code": "71800", "name": "Oyé", "slug": "oye", "gps_lat": 46.33112104895105, "gps_lng": 4.19482482517482 }, { "id": 28717, "department_code": "71", "insee_code": "71338", "zip_code": "71700", "name": "Ozenay", "slug": "ozenay", "gps_lat": 46.53416868055553, "gps_lng": 4.844715625 }, { "id": 28718, "department_code": "71", "insee_code": "71339", "zip_code": "71120", "name": "Ozolles", "slug": "ozolles", "gps_lat": 46.39075695187166, "gps_lng": 4.35018994652407 }, { "id": 29170, "department_code": "72", "insee_code": "72225", "zip_code": "72610", "name": "Oisseau-le-Petit", "slug": "oisseau le petit", "gps_lat": 48.34859313559324, "gps_lng": 0.0716436440678 }, { "id": 29171, "department_code": "72", "insee_code": "72226", "zip_code": "72330", "name": "Oizé", "slug": "oize", "gps_lat": 47.80000701863357, "gps_lng": 0.11337291925466 }, { "id": 29486, "department_code": "73", "insee_code": "73193", "zip_code": "73310", "name": "Ontex", "slug": "ontex", "gps_lat": 45.75525237288136, "gps_lng": 5.82202677966102 }, { "id": 29487, "department_code": "73", "insee_code": "73194", "zip_code": "73140", "name": "Orelle", "slug": "orelle", "gps_lat": 45.19788291479824, "gps_lng": 6.56287273542601 }, { "id": 29800, "department_code": "74", "insee_code": "74205", "zip_code": "74490", "name": "Onnion", "slug": "onnion", "gps_lat": 46.1817554716981, "gps_lng": 6.49782786163522 }, { "id": 29801, "department_code": "74", "insee_code": "74206", "zip_code": "74550", "name": "Orcier", "slug": "orcier", "gps_lat": 46.31614125000002, "gps_lng": 6.49761458333333 }, { "id": 30374, "department_code": "76", "insee_code": "76480", "zip_code": "76450", "name": "Ocqueville", "slug": "ocqueville", "gps_lat": 49.79856752941176, "gps_lng": 0.68327176470588 }, { "id": 30375, "department_code": "76", "insee_code": "76481", "zip_code": "76930", "name": "Octeville-sur-Mer", "slug": "octeville sur mer", "gps_lat": 49.5548180808081, "gps_lng": 0.12758515151515 }, { "id": 30376, "department_code": "76", "insee_code": "76482", "zip_code": "76550", "name": "Offranville", "slug": "offranville", "gps_lat": 49.86911255102041, "gps_lng": 1.04167224489796 }, { "id": 30377, "department_code": "76", "insee_code": "76483", "zip_code": "76560", "name": "Oherville", "slug": "oherville", "gps_lat": 49.72548336842106, "gps_lng": 0.68889505263158 }, { "id": 30378, "department_code": "76", "insee_code": "76484", "zip_code": "76350", "name": "Oissel", "slug": "oissel", "gps_lat": 49.34032343999999, "gps_lng": 1.06975272 }, { "id": 30379, "department_code": "76", "insee_code": "76485", "zip_code": "76730", "name": "Omonville", "slug": "omonville", "gps_lat": 49.79200869565216, "gps_lng": 1.04635043478261 }, { "id": 30380, "department_code": "76", "insee_code": "76486", "zip_code": "76500", "name": "Orival", "slug": "orival", "gps_lat": 49.31396158536585, "gps_lng": 0.9996693902439 }, { "id": 30381, "department_code": "76", "insee_code": "76487", "zip_code": "76660", "name": "Osmoy-Saint-Valery", "slug": "osmoy saint valery", "gps_lat": 49.79794169117648, "gps_lng": 1.30025316176471 }, { "id": 30382, "department_code": "76", "insee_code": "76488", "zip_code": "76450", "name": "Ouainville", "slug": "ouainville", "gps_lat": 49.7844151724138, "gps_lng": 0.58664120689655 }, { "id": 30383, "department_code": "76", "insee_code": "76489", "zip_code": "76430", "name": "Oudalle", "slug": "oudalle", "gps_lat": 49.50101173333334, "gps_lng": 0.2962596 }, { "id": 30384, "department_code": "76", "insee_code": "76490", "zip_code": "76450", "name": "Ourville-en-Caux", "slug": "ourville en caux", "gps_lat": 49.73253874999999, "gps_lng": 0.599223875 }, { "id": 30385, "department_code": "76", "insee_code": "76491", "zip_code": "76760", "name": "Ouville-l'Abbaye", "slug": "ouville l abbaye", "gps_lat": 49.69104948275862, "gps_lng": 0.86433051724138 }, { "id": 30386, "department_code": "76", "insee_code": "76492", "zip_code": "76860", "name": "Ouville-la-Rivière", "slug": "ouville la riviere", "gps_lat": 49.87089875, "gps_lng": 0.97324821428571 }, { "id": 30967, "department_code": "77", "insee_code": "77342", "zip_code": "77890", "name": "Obsonville", "slug": "obsonville", "gps_lat": 48.21817722222222, "gps_lng": 2.56778333333333 }, { "id": 30968, "department_code": "77", "insee_code": "77343", "zip_code": "77440", "name": "Ocquerre", "slug": "ocquerre", "gps_lat": 49.03606077922079, "gps_lng": 3.05856292207792 }, { "id": 30969, "department_code": "77", "insee_code": "77344", "zip_code": "77178", "name": "Oissery", "slug": "oissery", "gps_lat": 49.06974125000001, "gps_lng": 2.82135153846154 }, { "id": 30970, "department_code": "77", "insee_code": "77345", "zip_code": "77750", "name": "Orly-sur-Morin", "slug": "orly sur morin", "gps_lat": 48.90026242718447, "gps_lng": 3.22873883495146 }, { "id": 30972, "department_code": "77", "insee_code": "77348", "zip_code": "77167", "name": "Ormesson", "slug": "ormesson", "gps_lat": 48.24570545454545, "gps_lng": 2.64871324675325 }, { "id": 30973, "department_code": "77", "insee_code": "77349", "zip_code": "77280", "name": "Othis", "slug": "othis", "gps_lat": 49.08508262711865, "gps_lng": 2.64851449152542 }, { "id": 30974, "department_code": "77", "insee_code": "77350", "zip_code": "77330", "name": "Ozoir-la-Ferrière", "slug": "ozoir la ferriere", "gps_lat": 48.7630230612245, "gps_lng": 2.6682487755102002 }, { "id": 30975, "department_code": "77", "insee_code": "77352", "zip_code": "77390", "name": "Ozouer-le-Voulgis", "slug": "ozouer le voulgis", "gps_lat": 48.66184193277312, "gps_lng": 2.77302016806723 }, { "id": 31327, "department_code": "78", "insee_code": "78460", "zip_code": "78250", "name": "Oinville-sur-Montcient", "slug": "oinville sur montcient", "gps_lat": 49.02375960784314, "gps_lng": 1.8473231372549002 }, { "id": 31328, "department_code": "78", "insee_code": "78464", "zip_code": "78125", "name": "Orcemont", "slug": "orcemont", "gps_lat": 48.5973683962264, "gps_lng": 1.80617641509434 }, { "id": 31329, "department_code": "78", "insee_code": "78465", "zip_code": "78910", "name": "Orgerus", "slug": "orgerus", "gps_lat": 48.83682853146851, "gps_lng": 1.69862629370629 }, { "id": 31330, "department_code": "78", "insee_code": "78466", "zip_code": "78630", "name": "Orgeval", "slug": "orgeval", "gps_lat": 48.92016764705883, "gps_lng": 1.9669958823529399 }, { "id": 31331, "department_code": "78", "insee_code": "78470", "zip_code": "78125", "name": "Orphin", "slug": "orphin", "gps_lat": 48.57873282828283, "gps_lng": 1.78543616161616 }, { "id": 31332, "department_code": "78", "insee_code": "78472", "zip_code": "78660", "name": "Orsonville", "slug": "orsonville", "gps_lat": 48.47682950819671, "gps_lng": 1.82400573770492 }, { "id": 31333, "department_code": "78", "insee_code": "78474", "zip_code": "78910", "name": "Orvilliers", "slug": "orvilliers", "gps_lat": 48.855343676470596, "gps_lng": 1.6436389705882402 }, { "id": 31334, "department_code": "78", "insee_code": "78475", "zip_code": "78910", "name": "Osmoy", "slug": "osmoy", "gps_lat": 48.86458941176472, "gps_lng": 1.71980235294118 }, { "id": 31572, "department_code": "79", "insee_code": "79196", "zip_code": "79100", "name": "Oiron", "slug": "oiron", "gps_lat": 46.93310955555556, "gps_lng": -0.08820007407407005 }, { "id": 31573, "department_code": "79", "insee_code": "79197", "zip_code": "79390", "name": "Oroux", "slug": "oroux", "gps_lat": 46.6911631764706, "gps_lng": -0.09721482352941002 }, { "id": 32271, "department_code": "80", "insee_code": "80602", "zip_code": "80600", "name": "Occoches", "slug": "occoches", "gps_lat": 50.18391329896907, "gps_lng": 2.2888793814433 }, { "id": 32272, "department_code": "80", "insee_code": "80603", "zip_code": "80210", "name": "Ochancourt", "slug": "ochancourt", "gps_lat": 50.10115227272728, "gps_lng": 1.61325863636364 }, { "id": 32273, "department_code": "80", "insee_code": "80604", "zip_code": "80290", "name": "Offignies", "slug": "offignies", "gps_lat": 49.795141, "gps_lng": 1.8554743999999999 }, { "id": 32274, "department_code": "80", "insee_code": "80605", "zip_code": "80400", "name": "Offoy", "slug": "offoy", "gps_lat": 49.77332706896551, "gps_lng": 3.01504310344827 }, { "id": 32275, "department_code": "80", "insee_code": "80606", "zip_code": "80140", "name": "Oisemont", "slug": "oisemont", "gps_lat": 49.95227794117648, "gps_lng": 1.76034029411765 }, { "id": 32276, "department_code": "80", "insee_code": "80607", "zip_code": "80540", "name": "Oissy", "slug": "oissy", "gps_lat": 49.90246418918918, "gps_lng": 2.0581272972973 }, { "id": 32277, "department_code": "80", "insee_code": "80609", "zip_code": "80135", "name": "Oneux", "slug": "oneux", "gps_lat": 50.14926147826088, "gps_lng": 1.98588260869565 }, { "id": 32278, "department_code": "80", "insee_code": "80611", "zip_code": "80160", "name": "Oresmaux", "slug": "oresmaux", "gps_lat": 49.76975952380952, "gps_lng": 2.27909654761905 }, { "id": 32279, "department_code": "80", "insee_code": "80613", "zip_code": "80460", "name": "Oust-Marest", "slug": "oust marest", "gps_lat": 50.04314310344827, "gps_lng": 1.46700275862069 }, { "id": 32280, "department_code": "80", "insee_code": "80614", "zip_code": "80600", "name": "Outrebois", "slug": "outrebois", "gps_lat": 50.17150626984125, "gps_lng": 2.25174992063492 }, { "id": 32281, "department_code": "80", "insee_code": "80615", "zip_code": "80300", "name": "Ovillers-la-Boisselle", "slug": "ovillers la boisselle", "gps_lat": 50.02855543689321, "gps_lng": 2.69998980582524 }, { "id": 32675, "department_code": "81", "insee_code": "81198", "zip_code": "81120", "name": "Orban", "slug": "orban", "gps_lat": 43.83775027027027, "gps_lng": 2.07821477477478 }, { "id": 32940, "department_code": "82", "insee_code": "82136", "zip_code": "82370", "name": "Orgueil", "slug": "orgueil", "gps_lat": 43.89484524752476, "gps_lng": 1.40011415841584 }, { "id": 33088, "department_code": "83", "insee_code": "83089", "zip_code": "83470", "name": "Ollières", "slug": "ollieres", "gps_lat": 43.51187913580247, "gps_lng": 5.80453049382716 }, { "id": 33089, "department_code": "83", "insee_code": "83090", "zip_code": "83190", "name": "Ollioules", "slug": "ollioules", "gps_lat": 43.14178652173914, "gps_lng": 5.8596767826087 }, { "id": 33244, "department_code": "84", "insee_code": "84086", "zip_code": "84580", "name": "Oppède", "slug": "oppede", "gps_lat": 43.82597128205128, "gps_lng": 5.17129128205128 }, { "id": 33245, "department_code": "84", "insee_code": "84087", "zip_code": "84100", "name": "Orange", "slug": "orange", "gps_lat": 44.12312097674418, "gps_lng": 4.79979865116279 }, { "id": 33457, "department_code": "85", "insee_code": "85166", "zip_code": "85340", "name": "Olonne-sur-Mer", "slug": "olonne sur mer", "gps_lat": 46.5483990950226, "gps_lng": -1.78779796380091 }, { "id": 33459, "department_code": "85", "insee_code": "85168", "zip_code": "85420", "name": "Oulmes", "slug": "oulmes", "gps_lat": 46.39699696969696, "gps_lng": -0.66944045454545 }, { "id": 33751, "department_code": "86", "insee_code": "86182", "zip_code": "86230", "name": "Orches", "slug": "orches", "gps_lat": 46.87786947916668, "gps_lng": 0.3346175 }, { "id": 33753, "department_code": "86", "insee_code": "86184", "zip_code": "86380", "name": "Ouzilly", "slug": "ouzilly", "gps_lat": 46.7783356701031, "gps_lng": 0.35551319587629 }, { "id": 33754, "department_code": "86", "insee_code": "86186", "zip_code": "86220", "name": "Oyré", "slug": "oyre", "gps_lat": 46.86283846153847, "gps_lng": 0.63468076923077 }, { "id": 33961, "department_code": "87", "insee_code": "87109", "zip_code": "87210", "name": "Oradour-Saint-Genest", "slug": "oradour saint genest", "gps_lat": 46.24700725694446, "gps_lng": 1.0224934375 }, { "id": 33962, "department_code": "87", "insee_code": "87110", "zip_code": "87520", "name": "Oradour-sur-Glane", "slug": "oradour sur glane", "gps_lat": 45.94341757518797, "gps_lng": 1.01829567669173 }, { "id": 33963, "department_code": "87", "insee_code": "87111", "zip_code": "87150", "name": "Oradour-sur-Vayres", "slug": "oradour sur vayres", "gps_lat": 45.73398549632353, "gps_lng": 0.88464193014706 }, { "id": 34375, "department_code": "88", "insee_code": "88334", "zip_code": "88500", "name": "Oëlleville", "slug": "oelleville", "gps_lat": 48.33430234234235, "gps_lng": 6.02451297297297 }, { "id": 34376, "department_code": "88", "insee_code": "88335", "zip_code": "88500", "name": "Offroicourt", "slug": "offroicourt", "gps_lat": 48.28321798387098, "gps_lng": 6.03052677419355 }, { "id": 34377, "department_code": "88", "insee_code": "88336", "zip_code": "88170", "name": "Ollainville", "slug": "ollainville", "gps_lat": 48.27000290322578, "gps_lng": 5.80249817204301 }, { "id": 34378, "department_code": "88", "insee_code": "88338", "zip_code": "88700", "name": "Ortoncourt", "slug": "ortoncourt", "gps_lat": 48.36817113207547, "gps_lng": 6.51189075471698 }, { "id": 34816, "department_code": "89", "insee_code": "89282", "zip_code": "89400", "name": "Ormoy", "slug": "ormoy", "gps_lat": 47.95025981132075, "gps_lng": 3.5713583018867903 }, { "id": 34817, "department_code": "89", "insee_code": "89283", "zip_code": "89560", "name": "Ouanne", "slug": "ouanne", "gps_lat": 47.65862740000002, "gps_lng": 3.416711 }, { "id": 35069, "department_code": "90", "insee_code": "90075", "zip_code": "90300", "name": "Offemont", "slug": "offemont", "gps_lat": 47.66292918367345, "gps_lng": 6.87866183673469 }, { "id": 35224, "department_code": "91", "insee_code": "91461", "zip_code": "91340", "name": "Ollainville", "slug": "ollainville", "gps_lat": 48.60377151515147, "gps_lng": 2.2186003030303 }, { "id": 35225, "department_code": "91", "insee_code": "91463", "zip_code": "91490", "name": "Oncy-sur-École", "slug": "oncy sur ecole", "gps_lat": 48.37914848484849, "gps_lng": 2.45153393939394 }, { "id": 35226, "department_code": "91", "insee_code": "91468", "zip_code": "91540", "name": "Ormoy", "slug": "ormoy", "gps_lat": 48.5756248076923, "gps_lng": 2.45843961538462 }, { "id": 35227, "department_code": "91", "insee_code": "91469", "zip_code": "91150", "name": "Ormoy-la-Rivière", "slug": "ormoy la riviere", "gps_lat": 48.40057557894733, "gps_lng": 2.15734947368421 }, { "id": 35228, "department_code": "91", "insee_code": "91471", "zip_code": "91400", "name": "Orsay", "slug": "orsay", "gps_lat": 48.69565351063829, "gps_lng": 2.18802212765957 }, { "id": 35229, "department_code": "91", "insee_code": "91473", "zip_code": "91590", "name": "Orveau", "slug": "orveau", "gps_lat": 48.44827192307694, "gps_lng": 2.29560307692308 }, { "id": 35400, "department_code": "94", "insee_code": "94054", "zip_code": "94310", "name": "Orly", "slug": "orly", "gps_lat": 48.74261685714286, "gps_lng": 2.400232 }, { "id": 35401, "department_code": "94", "insee_code": "94055", "zip_code": "94490", "name": "Ormesson-sur-Marne", "slug": "ormesson sur marne", "gps_lat": 48.78572218181818, "gps_lng": 2.53887454545454 }, { "id": 35552, "department_code": "95", "insee_code": "95462", "zip_code": "95420", "name": "Omerville", "slug": "omerville", "gps_lat": 49.1413540776699, "gps_lng": 1.7242990291262101 }, { "id": 35553, "department_code": "95", "insee_code": "95476", "zip_code": "95520", "name": "Osny", "slug": "osny", "gps_lat": 49.06657884615384, "gps_lng": 2.06488871794872 }, { "id": 35694, "department_code": "973", "insee_code": "97314", "zip_code": "97380", "name": "Ouanary", "slug": "ouanary", "gps_lat": 4.1450410011778605, "gps_lng": -51.83164120141341 }, { "id": 35756, "department_code": "976", "insee_code": "97614", "zip_code": "97670", "name": "Ouangani", "slug": "ouangani", "gps_lat": -12.83840916666666, "gps_lng": 45.13916500000002 }, { "id": 35838, "department_code": "988", "insee_code": null, "zip_code": "98821", "name": "Ouégoa", "slug": "ouegoa", "gps_lat": -20.344958, "gps_lng": 164.4388081 }, { "id": 35839, "department_code": "988", "insee_code": null, "zip_code": "98814", "name": "Ouvéa", "slug": "ouvea", "gps_lat": -20.40773635, "gps_lng": 166.536432829221 }]
