[{ "id": 1141, "department_code": "02", "insee_code": "02754", "zip_code": "02300", "name": "Ugny-le-Gay", "slug": "ugny le gay", "gps_lat": 49.66411545454543, "gps_lng": 3.15740535353535 }, { "id": 1142, "department_code": "02", "insee_code": "02755", "zip_code": "02000", "name": "Urcel", "slug": "urcel", "gps_lat": 49.49139374999999, "gps_lng": 3.55550166666667 }, { "id": 1143, "department_code": "02", "insee_code": "02756", "zip_code": "02690", "name": "Urvillers", "slug": "urvillers", "gps_lat": 49.78859865979381, "gps_lng": 3.31796288659794 }, { "id": 1508, "department_code": "03", "insee_code": "03293", "zip_code": "03360", "name": "Urçay", "slug": "urcay", "gps_lat": 46.63953815533981, "gps_lng": 2.61212854368932 }, { "id": 1509, "department_code": "03", "insee_code": "03294", "zip_code": "03140", "name": "Ussel-d'Allier", "slug": "ussel d allier", "gps_lat": 46.20995891566265, "gps_lng": 3.18977698795181 }, { "id": 1561, "department_code": "04", "insee_code": "04033", "zip_code": "04340", "name": "Ubaye-Serre-Ponçon", "slug": "ubaye serre poncon", "gps_lat": 44.44304747474747, "gps_lng": 6.30406838383838 }, { "id": 1722, "department_code": "04", "insee_code": "04224", "zip_code": "04240", "name": "Ubraye", "slug": "ubraye", "gps_lat": 43.91033564705884, "gps_lng": 6.69000847058824 }, { "id": 1723, "department_code": "04", "insee_code": "04226", "zip_code": "04400", "name": "Uvernet-Fours", "slug": "uvernet fours", "gps_lat": 44.31568377260981, "gps_lng": 6.67571359173127 }, { "id": 1892, "department_code": "05", "insee_code": "05173", "zip_code": "05300", "name": "Upaix", "slug": "upaix", "gps_lat": 44.32156242937854, "gps_lng": 5.8852857627118595 }, { "id": 2059, "department_code": "06", "insee_code": "06151", "zip_code": "06450", "name": "Utelle", "slug": "utelle", "gps_lat": 43.93874746666673, "gps_lng": 7.2415358 }, { "id": 2391, "department_code": "07", "insee_code": "07325", "zip_code": "07200", "name": "Ucel", "slug": "ucel", "gps_lat": 44.64038506329114, "gps_lng": 4.39037417721519 }, { "id": 2392, "department_code": "07", "insee_code": "07326", "zip_code": "07510", "name": "Usclades-et-Rieutord", "slug": "usclades et rieutord", "gps_lat": 44.77407323741004, "gps_lng": 4.16692143884892 }, { "id": 2393, "department_code": "07", "insee_code": "07327", "zip_code": "07110", "name": "Uzer", "slug": "uzer", "gps_lat": 44.52002024691357, "gps_lng": 4.32664111111111 }, { "id": 3179, "department_code": "09", "insee_code": "09318", "zip_code": "09250", "name": "Unac", "slug": "unac", "gps_lat": 42.7550240909091, "gps_lng": 1.775375 }, { "id": 3180, "department_code": "09", "insee_code": "09319", "zip_code": "09100", "name": "Unzent", "slug": "unzent", "gps_lat": 43.17010506493508, "gps_lng": 1.53088818181818 }, { "id": 3181, "department_code": "09", "insee_code": "09320", "zip_code": "09310", "name": "Urs", "slug": "urs", "gps_lat": 42.77755652173914, "gps_lng": 1.73695608695652 }, { "id": 3182, "department_code": "09", "insee_code": "09321", "zip_code": "09400", "name": "Ussat", "slug": "ussat", "gps_lat": 42.83571444444444, "gps_lng": 1.6235322222222202 }, { "id": 3183, "department_code": "09", "insee_code": "09322", "zip_code": "09140", "name": "Ustou", "slug": "ustou", "gps_lat": 42.78412221739134, "gps_lng": 1.25014895652174 }, { "id": 3575, "department_code": "10", "insee_code": "10389", "zip_code": "10140", "name": "Unienville", "slug": "unienville", "gps_lat": 48.31665585585582, "gps_lng": 4.54775873873874 }, { "id": 3576, "department_code": "10", "insee_code": "10390", "zip_code": "10200", "name": "Urville", "slug": "urville", "gps_lat": 48.170861122449, "gps_lng": 4.66814948979592 }, { "id": 5019, "department_code": "14", "insee_code": "14719", "zip_code": "14190", "name": "Urville", "slug": "urville", "gps_lat": 49.02566158536585, "gps_lng": -0.29344048780487997 }, { "id": 5020, "department_code": "14", "insee_code": "14720", "zip_code": "14420", "name": "Ussy", "slug": "ussy", "gps_lat": 48.94639760273971, "gps_lng": -0.29621808219178003 }, { "id": 5278, "department_code": "15", "insee_code": "15244", "zip_code": "15300", "name": "Ussel", "slug": "ussel", "gps_lat": 45.07436748344372, "gps_lng": 2.95065509933775 }, { "id": 6422, "department_code": "18", "insee_code": "18268", "zip_code": "18190", "name": "Uzay-le-Venon", "slug": "uzay le venon", "gps_lat": 46.827850859375, "gps_lng": 2.467924921875 }, { "id": 6714, "department_code": "19", "insee_code": "19274", "zip_code": "19270", "name": "Ussac", "slug": "ussac", "gps_lat": 45.19096547231273, "gps_lng": 1.5170035504886 }, { "id": 6715, "department_code": "19", "insee_code": "19275", "zip_code": "19200", "name": "Ussel", "slug": "ussel", "gps_lat": 45.55441949152542, "gps_lng": 2.30326246973365 }, { "id": 6716, "department_code": "19", "insee_code": "19276", "zip_code": "19140", "name": "Uzerche", "slug": "uzerche", "gps_lat": 45.43254098550726, "gps_lng": 1.56874713043478 }, { "id": 7368, "department_code": "21", "insee_code": "21649", "zip_code": "21350", "name": "Uncey-le-Franc", "slug": "uncey le franc", "gps_lat": 47.34594300000002, "gps_lng": 4.575019 }, { "id": 7369, "department_code": "21", "insee_code": "21650", "zip_code": "21220", "name": "Urcy", "slug": "urcy", "gps_lat": 47.2625808045977, "gps_lng": 4.84926873563219 }, { "id": 7781, "department_code": "22", "insee_code": "22384", "zip_code": "22460", "name": "Uzel", "slug": "uzel", "gps_lat": 48.28021385542171, "gps_lng": -2.84817807228916 }, { "id": 8548, "department_code": "24", "insee_code": "24560", "zip_code": "24480", "name": "Urval", "slug": "urval", "gps_lat": 44.80497434343434, "gps_lng": 0.94208474747475 }, { "id": 9099, "department_code": "25", "insee_code": "25573", "zip_code": "25470", "name": "Urtière", "slug": "urtiere", "gps_lat": 47.25773587301588, "gps_lng": 6.92359984126984 }, { "id": 9100, "department_code": "25", "insee_code": "25574", "zip_code": "25340", "name": "Uzelle", "slug": "uzelle", "gps_lat": 47.46433666666665, "gps_lng": 6.44516083333333 }, { "id": 9496, "department_code": "26", "insee_code": "26358", "zip_code": "26120", "name": "Upie", "slug": "upie", "gps_lat": 44.79217358974359, "gps_lng": 4.9729755128205095 }, { "id": 10484, "department_code": "28", "insee_code": "28397", "zip_code": "28700", "name": "Umpeau", "slug": "umpeau", "gps_lat": 48.46843875, "gps_lng": 1.66940517857143 }, { "id": 10485, "department_code": "28", "insee_code": "28398", "zip_code": "28160", "name": "Unverre", "slug": "unverre", "gps_lat": 48.19296280757093, "gps_lng": 1.06075936908517 }, { "id": 10907, "department_code": "2A", "insee_code": "2A330", "zip_code": "20133", "name": "Ucciani", "slug": "ucciani", "gps_lat": 42.05186112195123, "gps_lng": 8.97640195121951 }, { "id": 10908, "department_code": "2A", "insee_code": "2A331", "zip_code": "20128", "name": "Urbalacone", "slug": "urbalacone", "gps_lat": 41.82637768115944, "gps_lng": 8.94897514492753 }, { "id": 11140, "department_code": "2B", "insee_code": "2B332", "zip_code": "20218", "name": "Urtaca", "slug": "urtaca", "gps_lat": 42.62648029411766, "gps_lng": 9.14130311764706 }, { "id": 11494, "department_code": "30", "insee_code": "30333", "zip_code": "30620", "name": "Uchaud", "slug": "uchaud", "gps_lat": 43.75696394230768, "gps_lng": 4.26830096153846 }, { "id": 11495, "department_code": "30", "insee_code": "30334", "zip_code": "30700", "name": "Uzès", "slug": "uzes", "gps_lat": 44.01666590163936, "gps_lng": 4.41334234972678 }, { "id": 12079, "department_code": "31", "insee_code": "31562", "zip_code": "31260", "name": "Urau", "slug": "urau", "gps_lat": 43.00956899999999, "gps_lng": 0.95135318181818 }, { "id": 12562, "department_code": "32", "insee_code": "32457", "zip_code": "32500", "name": "Urdens", "slug": "urdens", "gps_lat": 43.86536110236221, "gps_lng": 0.70749937007874 }, { "id": 12563, "department_code": "32", "insee_code": "32458", "zip_code": "32110", "name": "Urgosse", "slug": "urgosse", "gps_lat": 43.74010948717947, "gps_lng": -0.01784179487179005 }, { "id": 13097, "department_code": "33", "insee_code": "33537", "zip_code": "33730", "name": "Uzeste", "slug": "uzeste", "gps_lat": 44.43580913978496, "gps_lng": -0.33077279569892004 }, { "id": 13434, "department_code": "34", "insee_code": "34315", "zip_code": "34230", "name": "Usclas-d'Hérault", "slug": "usclas d herault", "gps_lat": 43.52154127659576, "gps_lng": 3.46463765957447 }, { "id": 13435, "department_code": "34", "insee_code": "34316", "zip_code": "34700", "name": "Usclas-du-Bosc", "slug": "usclas du bosc", "gps_lat": 43.72530022727273, "gps_lng": 3.39818 }, { "id": 14034, "department_code": "36", "insee_code": "36227", "zip_code": "36160", "name": "Urciers", "slug": "urciers", "gps_lat": 46.52669503999999, "gps_lng": 2.14894896 }, { "id": 15330, "department_code": "39", "insee_code": "39538", "zip_code": "39130", "name": "Uxelles", "slug": "uxelles", "gps_lat": 46.60208011904761, "gps_lng": 5.7949025 }, { "id": 15687, "department_code": "40", "insee_code": "40320", "zip_code": "40090", "name": "Uchacq-et-Parentis", "slug": "uchacq et parentis", "gps_lat": 43.94514091836736, "gps_lng": -0.55796765306122 }, { "id": 15688, "department_code": "40", "insee_code": "40321", "zip_code": "40320", "name": "Urgons", "slug": "urgons", "gps_lat": 43.63674936936937, "gps_lng": -0.43223918918919 }, { "id": 15689, "department_code": "40", "insee_code": "40322", "zip_code": "40170", "name": "Uza", "slug": "uza", "gps_lat": 44.02512583333333, "gps_lng": -1.20182111111111 }, { "id": 16278, "department_code": "42", "insee_code": "42315", "zip_code": "42210", "name": "Unias", "slug": "unias", "gps_lat": 45.61018000000001, "gps_lng": 4.2283585 }, { "id": 16279, "department_code": "42", "insee_code": "42316", "zip_code": "42240", "name": "Unieux", "slug": "unieux", "gps_lat": 45.40416383458646, "gps_lng": 4.2644852631578996 }, { "id": 16280, "department_code": "42", "insee_code": "42317", "zip_code": "42310", "name": "Urbise", "slug": "urbise", "gps_lat": 46.24978686440678, "gps_lng": 3.88953038135593 }, { "id": 16281, "department_code": "42", "insee_code": "42318", "zip_code": "42550", "name": "Usson-en-Forez", "slug": "usson en forez", "gps_lat": 45.38459526666671, "gps_lng": 3.93884848888889 }, { "id": 17410, "department_code": "46", "insee_code": "46323", "zip_code": "46240", "name": "Ussel", "slug": "ussel", "gps_lat": 44.59286564516128, "gps_lng": 1.49411580645161 }, { "id": 17411, "department_code": "46", "insee_code": "46324", "zip_code": "46310", "name": "Uzech", "slug": "uzech", "gps_lat": 44.59152042016807, "gps_lng": 1.38647521008403 }, { "id": 18599, "department_code": "50", "insee_code": "50610", "zip_code": "50700", "name": "Urville", "slug": "urville", "gps_lat": 49.45054934306569, "gps_lng": -1.4418318248175201 }, { "id": 19164, "department_code": "51", "insee_code": "51586", "zip_code": "51170", "name": "Unchair", "slug": "unchair", "gps_lat": 49.28851236842106, "gps_lng": 3.7469413157894698 }, { "id": 20451, "department_code": "54", "insee_code": "54537", "zip_code": "54870", "name": "Ugny", "slug": "ugny", "gps_lat": 49.46600669354841, "gps_lng": 5.70002459677419 }, { "id": 20452, "department_code": "54", "insee_code": "54538", "zip_code": "54112", "name": "Uruffe", "slug": "uruffe", "gps_lat": 48.56689651162788, "gps_lng": 5.74737511627907 }, { "id": 20964, "department_code": "55", "insee_code": "55522", "zip_code": "55140", "name": "Ugny-sur-Meuse", "slug": "ugny sur meuse", "gps_lat": 48.63732535714286, "gps_lng": 5.69053 }, { "id": 21925, "department_code": "57", "insee_code": "57683", "zip_code": "57270", "name": "Uckange", "slug": "uckange", "gps_lat": 49.30566486486488, "gps_lng": 6.15105405405405 }, { "id": 22297, "department_code": "58", "insee_code": "58300", "zip_code": "58130", "name": "Urzy", "slug": "urzy", "gps_lat": 47.0569279329609, "gps_lng": 3.20000201117318 }, { "id": 22907, "department_code": "59", "insee_code": "59605", "zip_code": "59229", "name": "Uxem", "slug": "uxem", "gps_lat": 51.02884789062502, "gps_lng": 2.486697109375 }, { "id": 23608, "department_code": "60", "insee_code": "60651", "zip_code": "60730", "name": "Ully-Saint-Georges", "slug": "ully saint georges", "gps_lat": 49.27112576271184, "gps_lng": 2.27647669491525 }, { "id": 25389, "department_code": "63", "insee_code": "63439", "zip_code": "63490", "name": "Usson", "slug": "usson", "gps_lat": 45.52662109999997, "gps_lng": 3.3437734 }, { "id": 25948, "department_code": "64", "insee_code": "64538", "zip_code": "64220", "name": "Uhart-Cize", "slug": "uhart cize", "gps_lat": 43.13260040485831, "gps_lng": -1.24980862348178 }, { "id": 25949, "department_code": "64", "insee_code": "64539", "zip_code": "64120", "name": "Uhart-Mixe", "slug": "uhart mixe", "gps_lat": 43.26807537634407, "gps_lng": -1.00883709677419 }, { "id": 25950, "department_code": "64", "insee_code": "64540", "zip_code": "64990", "name": "Urcuit", "slug": "urcuit", "gps_lat": 43.4795054973822, "gps_lng": -1.3486733507853401 }, { "id": 25951, "department_code": "64", "insee_code": "64541", "zip_code": "64370", "name": "Urdès", "slug": "urdes", "gps_lat": 43.43770462121212, "gps_lng": -0.58471022727273 }, { "id": 25952, "department_code": "64", "insee_code": "64542", "zip_code": "64490", "name": "Urdos", "slug": "urdos", "gps_lat": 42.83491106060607, "gps_lng": -0.54278767676768 }, { "id": 25953, "department_code": "64", "insee_code": "64543", "zip_code": "64430", "name": "Urepel", "slug": "urepel", "gps_lat": 43.0694014678899, "gps_lng": -1.3966210091743099 }, { "id": 25954, "department_code": "64", "insee_code": "64544", "zip_code": "64160", "name": "Urost", "slug": "urost", "gps_lat": 43.33941486486487, "gps_lng": -0.14954 }, { "id": 25955, "department_code": "64", "insee_code": "64545", "zip_code": "64122", "name": "Urrugne", "slug": "urrugne", "gps_lat": 43.3457598, "gps_lng": -1.7052325 }, { "id": 25956, "department_code": "64", "insee_code": "64545", "zip_code": "64700", "name": "Urrugne", "slug": "urrugne", "gps_lat": 43.340423, "gps_lng": -1.7392812 }, { "id": 25957, "department_code": "64", "insee_code": "64546", "zip_code": "64240", "name": "Urt", "slug": "urt", "gps_lat": 43.47459844106465, "gps_lng": -1.27690015209126 }, { "id": 25958, "department_code": "64", "insee_code": "64547", "zip_code": "64480", "name": "Ustaritz", "slug": "ustaritz", "gps_lat": 43.39852919999998, "gps_lng": -1.47744149333333 }, { "id": 25959, "department_code": "64", "insee_code": "64548", "zip_code": "64370", "name": "Uzan", "slug": "uzan", "gps_lat": 43.47332147540985, "gps_lng": -0.50307221311475 }, { "id": 25960, "department_code": "64", "insee_code": "64549", "zip_code": "64230", "name": "Uzein", "slug": "uzein", "gps_lat": 43.3975346753247, "gps_lng": -0.44045580086580005 }, { "id": 25961, "department_code": "64", "insee_code": "64550", "zip_code": "64110", "name": "Uzos", "slug": "uzos", "gps_lat": 43.25991018518518, "gps_lng": -0.35240092592593 }, { "id": 26417, "department_code": "65", "insee_code": "65456", "zip_code": "65300", "name": "Uglas", "slug": "uglas", "gps_lat": 43.15295707865168, "gps_lng": 0.44714 }, { "id": 26418, "department_code": "65", "insee_code": "65457", "zip_code": "65140", "name": "Ugnouas", "slug": "ugnouas", "gps_lat": 43.3423555, "gps_lng": 0.1025785 }, { "id": 26419, "department_code": "65", "insee_code": "65458", "zip_code": "65400", "name": "Uz", "slug": "uz", "gps_lat": 42.9583262, "gps_lng": -0.09193720000000005 }, { "id": 26420, "department_code": "65", "insee_code": "65459", "zip_code": "65200", "name": "Uzer", "slug": "uzer", "gps_lat": 43.08007574468085, "gps_lng": 0.1953470212766 }, { "id": 26654, "department_code": "66", "insee_code": "66218", "zip_code": "66760", "name": "Ur", "slug": "ur", "gps_lat": 42.4655003125, "gps_lng": 1.9354028125 }, { "id": 26655, "department_code": "66", "insee_code": "66219", "zip_code": "66500", "name": "Urbanya", "slug": "urbanya", "gps_lat": 42.64080136363635, "gps_lng": 2.30078196969697 }, { "id": 27132, "department_code": "67", "insee_code": "67497", "zip_code": "67350", "name": "Uhlwiller", "slug": "uhlwiller", "gps_lat": 48.82048605633804, "gps_lng": 7.67828704225352 }, { "id": 27133, "department_code": "67", "insee_code": "67498", "zip_code": "67350", "name": "Uhrwiller", "slug": "uhrwiller", "gps_lat": 48.88467973214286, "gps_lng": 7.579284375 }, { "id": 27134, "department_code": "67", "insee_code": "67499", "zip_code": "67220", "name": "Urbeis", "slug": "urbeis", "gps_lat": 48.33221086614175, "gps_lng": 7.20604850393701 }, { "id": 27135, "department_code": "67", "insee_code": "67500", "zip_code": "67280", "name": "Urmatt", "slug": "urmatt", "gps_lat": 48.5390374637681, "gps_lng": 7.29446985507246 }, { "id": 27136, "department_code": "67", "insee_code": "67501", "zip_code": "67150", "name": "Uttenheim", "slug": "uttenheim", "gps_lat": 48.4123363076923, "gps_lng": 7.59346184615385 }, { "id": 27137, "department_code": "67", "insee_code": "67502", "zip_code": "67110", "name": "Uttenhoffen", "slug": "uttenhoffen", "gps_lat": 48.89289544642856, "gps_lng": 7.65063035714285 }, { "id": 27138, "department_code": "67", "insee_code": "67503", "zip_code": "67330", "name": "Uttwiller", "slug": "uttwiller", "gps_lat": 48.84606666666667, "gps_lng": 7.497914 }, { "id": 27516, "department_code": "68", "insee_code": "68340", "zip_code": "68580", "name": "Ueberstrass", "slug": "ueberstrass", "gps_lat": 47.54565658536587, "gps_lng": 7.14688268292683 }, { "id": 27517, "department_code": "68", "insee_code": "68341", "zip_code": "68510", "name": "Uffheim", "slug": "uffheim", "gps_lat": 47.64658571428572, "gps_lng": 7.44191742857143 }, { "id": 27518, "department_code": "68", "insee_code": "68342", "zip_code": "68700", "name": "Uffholtz", "slug": "uffholtz", "gps_lat": 47.82714208333331, "gps_lng": 7.16875048611111 }, { "id": 27519, "department_code": "68", "insee_code": "68343", "zip_code": "68190", "name": "Ungersheim", "slug": "ungersheim", "gps_lat": 47.87329777777779, "gps_lng": 7.30695481481482 }, { "id": 27520, "department_code": "68", "insee_code": "68344", "zip_code": "68121", "name": "Urbès", "slug": "urbes", "gps_lat": 47.87999738095238, "gps_lng": 6.92986055555556 }, { "id": 27521, "department_code": "68", "insee_code": "68345", "zip_code": "68320", "name": "Urschenheim", "slug": "urschenheim", "gps_lat": 48.08138173076922, "gps_lng": 7.48818846153846 }, { "id": 28921, "department_code": "71", "insee_code": "71550", "zip_code": "71700", "name": "Uchizy", "slug": "uchizy", "gps_lat": 46.50107836538457, "gps_lng": 4.87808153846154 }, { "id": 28922, "department_code": "71", "insee_code": "71551", "zip_code": "71190", "name": "Uchon", "slug": "uchon", "gps_lat": 46.80780773333334, "gps_lng": 4.25869006666666 }, { "id": 28923, "department_code": "71", "insee_code": "71552", "zip_code": "71130", "name": "Uxeau", "slug": "uxeau", "gps_lat": 46.65608728, "gps_lng": 4.04151984 }, { "id": 29587, "department_code": "73", "insee_code": "73303", "zip_code": "73400", "name": "Ugine", "slug": "ugine", "gps_lat": 45.77627778210116, "gps_lng": 6.42871926070039 }, { "id": 29870, "department_code": "74", "insee_code": "74285", "zip_code": "74910", "name": "Usinens", "slug": "usinens", "gps_lat": 46.01260239999998, "gps_lng": 5.8514524 }, { "id": 31097, "department_code": "77", "insee_code": "77477", "zip_code": "77760", "name": "Ury", "slug": "ury", "gps_lat": 48.34303661290321, "gps_lng": 2.59842370967742 }, { "id": 31098, "department_code": "77", "insee_code": "77478", "zip_code": "77260", "name": "Ussy-sur-Marne", "slug": "ussy sur marne", "gps_lat": 48.96906436974791, "gps_lng": 3.08544117647059 }, { "id": 31683, "department_code": "79", "insee_code": "79334", "zip_code": "79210", "name": "Usseau", "slug": "usseau", "gps_lat": 46.17051405063291, "gps_lng": -0.5833485443038 }, { "id": 32424, "department_code": "80", "insee_code": "80771", "zip_code": "80400", "name": "Ugny-l'Équipée", "slug": "ugny l equipee", "gps_lat": 49.81283531914895, "gps_lng": 3.07004872340426 }, { "id": 33293, "department_code": "84", "insee_code": "84135", "zip_code": "84100", "name": "Uchaux", "slug": "uchaux", "gps_lat": 44.21107967391303, "gps_lng": 4.80026336956522 }, { "id": 33830, "department_code": "86", "insee_code": "86275", "zip_code": "86230", "name": "Usseau", "slug": "usseau", "gps_lat": 46.88818736263737, "gps_lng": 0.49749472527473 }, { "id": 33831, "department_code": "86", "insee_code": "86276", "zip_code": "86350", "name": "Usson-du-Poitou", "slug": "usson du poitou", "gps_lat": 46.28046480519483, "gps_lng": 0.54621493506494 }, { "id": 34511, "department_code": "88", "insee_code": "88480", "zip_code": "88130", "name": "Ubexy", "slug": "ubexy", "gps_lat": 48.340381015625, "gps_lng": 6.284800234375 }, { "id": 34512, "department_code": "88", "insee_code": "88481", "zip_code": "88220", "name": "Uriménil", "slug": "urimenil", "gps_lat": 48.10082573333332, "gps_lng": 6.3969712 }, { "id": 34513, "department_code": "88", "insee_code": "88482", "zip_code": "88140", "name": "Urville", "slug": "urville", "gps_lat": 48.18823963855422, "gps_lng": 5.74428469879518 }, { "id": 34514, "department_code": "88", "insee_code": "88483", "zip_code": "88390", "name": "Uxegney", "slug": "uxegney", "gps_lat": 48.19635678899083, "gps_lng": 6.3783895412844 }, { "id": 34515, "department_code": "88", "insee_code": "88484", "zip_code": "88220", "name": "Uzemain", "slug": "uzemain", "gps_lat": 48.09851810077517, "gps_lng": 6.34201286821705 }, { "id": 35091, "department_code": "90", "insee_code": "90098", "zip_code": "90800", "name": "Urcerey", "slug": "urcerey", "gps_lat": 47.61204404255317, "gps_lng": 6.8046076595744704 }, { "id": 35593, "department_code": "95", "insee_code": "95625", "zip_code": "95450", "name": "Us", "slug": "us", "gps_lat": 49.10513978494624, "gps_lng": 1.95814655913978 }, { "id": 35771, "department_code": "986", "insee_code": null, "zip_code": null, "name": "Uvea", "slug": "uvea", "gps_lat": -13.2544939, "gps_lng": -176.2578265 }, { "id": 35817, "department_code": "987", "insee_code": null, "zip_code": null, "name": "Ua-Huka", "slug": "ua huka", "gps_lat": -8.91005275, "gps_lng": -139.551261547391 }, { "id": 35818, "department_code": "987", "insee_code": null, "zip_code": null, "name": "Ua-Pou", "slug": "ua pou", "gps_lat": -9.4011139, "gps_lng": -140.079925473657 }, { "id": 35819, "department_code": "987", "insee_code": null, "zip_code": "98735", "name": "Uturoa", "slug": "uturoa", "gps_lat": -16.7215582, "gps_lng": -151.4492168 }]
