[{ "id": 1214, "department_code": "02", "insee_code": "02830", "zip_code": "02630", "name": "Wassigny", "slug": "wassigny", "gps_lat": 50.01921953846151, "gps_lng": 3.59911276923077 }, { "id": 1215, "department_code": "02", "insee_code": "02831", "zip_code": "02830", "name": "Watigny", "slug": "watigny", "gps_lat": 49.91483071428571, "gps_lng": 4.19873785714286 }, { "id": 1216, "department_code": "02", "insee_code": "02832", "zip_code": "02120", "name": "Wiège-Faty", "slug": "wiege faty", "gps_lat": 49.88461072916667, "gps_lng": 3.71463385416667 }, { "id": 1217, "department_code": "02", "insee_code": "02833", "zip_code": "02500", "name": "Wimy", "slug": "wimy", "gps_lat": 49.94429206185566, "gps_lng": 3.99605051546392 }, { "id": 1218, "department_code": "02", "insee_code": "02834", "zip_code": "02320", "name": "Wissignicourt", "slug": "wissignicourt", "gps_lat": 49.52365212962963, "gps_lng": 3.44982277777778 }, { "id": 2862, "department_code": "08", "insee_code": "08494", "zip_code": "08200", "name": "Wadelincourt", "slug": "wadelincourt", "gps_lat": 49.68008653846154, "gps_lng": 4.92871 }, { "id": 2863, "department_code": "08", "insee_code": "08496", "zip_code": "08270", "name": "Wagnon", "slug": "wagnon", "gps_lat": 49.64877563106795, "gps_lng": 4.45016645631068 }, { "id": 2864, "department_code": "08", "insee_code": "08497", "zip_code": "08000", "name": "Warcq", "slug": "warcq", "gps_lat": 49.76392491071429, "gps_lng": 4.66654446428571 }, { "id": 2865, "department_code": "08", "insee_code": "08498", "zip_code": "08090", "name": "Warnécourt", "slug": "warnecourt", "gps_lat": 49.73820771929824, "gps_lng": 4.65628333333334 }, { "id": 2866, "department_code": "08", "insee_code": "08499", "zip_code": "08270", "name": "Wasigny", "slug": "wasigny", "gps_lat": 49.62714265060242, "gps_lng": 4.35481457831325 }, { "id": 2867, "department_code": "08", "insee_code": "08500", "zip_code": "08270", "name": "Wignicourt", "slug": "wignicourt", "gps_lat": 49.58623911764706, "gps_lng": 4.57935176470588 }, { "id": 2868, "department_code": "08", "insee_code": "08501", "zip_code": "08110", "name": "Williers", "slug": "williers", "gps_lat": 49.66906178082191, "gps_lng": 5.30438794520548 }, { "id": 19233, "department_code": "51", "insee_code": "51659", "zip_code": "51800", "name": "Wargemoulin-Hurlus", "slug": "wargemoulin hurlus", "gps_lat": 49.16414309090911, "gps_lng": 4.66396327272727 }, { "id": 19234, "department_code": "51", "insee_code": "51660", "zip_code": "51110", "name": "Warmeriville", "slug": "warmeriville", "gps_lat": 49.359415593220334, "gps_lng": 4.24143440677966 }, { "id": 19235, "department_code": "51", "insee_code": "51662", "zip_code": "51420", "name": "Witry-lès-Reims", "slug": "witry les reims", "gps_lat": 49.29091470588233, "gps_lng": 4.11591756302521 }, { "id": 19668, "department_code": "52", "insee_code": "52550", "zip_code": "52130", "name": "Wassy", "slug": "wassy", "gps_lat": 48.49956596385541, "gps_lng": 4.91947572289156 }, { "id": 20507, "department_code": "54", "insee_code": "54593", "zip_code": "54890", "name": "Waville", "slug": "waville", "gps_lat": 49.00388613636364, "gps_lng": 5.93185984848485 }, { "id": 21009, "department_code": "55", "insee_code": "55577", "zip_code": "55250", "name": "Waly", "slug": "waly", "gps_lat": 49.02491852631579, "gps_lng": 5.09603042105263 }, { "id": 21010, "department_code": "55", "insee_code": "55578", "zip_code": "55400", "name": "Warcq", "slug": "warcq", "gps_lat": 49.19303607142857, "gps_lng": 5.64664702380952 }, { "id": 21011, "department_code": "55", "insee_code": "55579", "zip_code": "55160", "name": "Watronville", "slug": "watronville", "gps_lat": 49.13858688524589, "gps_lng": 5.54770573770492 }, { "id": 21012, "department_code": "55", "insee_code": "55580", "zip_code": "55150", "name": "Wavrille", "slug": "wavrille", "gps_lat": 49.3186480821918, "gps_lng": 5.37540589041096 }, { "id": 21013, "department_code": "55", "insee_code": "55581", "zip_code": "55500", "name": "Willeroncourt", "slug": "willeroncourt", "gps_lat": 48.714828125, "gps_lng": 5.35767984375 }, { "id": 21014, "department_code": "55", "insee_code": "55582", "zip_code": "55700", "name": "Wiseppe", "slug": "wiseppe", "gps_lat": 49.46000444444443, "gps_lng": 5.16403811111111 }, { "id": 21015, "department_code": "55", "insee_code": "55583", "zip_code": "55210", "name": "Woël", "slug": "woel", "gps_lat": 49.0385625, "gps_lng": 5.74053697916667 }, { "id": 21016, "department_code": "55", "insee_code": "55584", "zip_code": "55300", "name": "Woimbey", "slug": "woimbey", "gps_lat": 48.96522212121214, "gps_lng": 5.4502152272727304 }, { "id": 21975, "department_code": "57", "insee_code": "57738", "zip_code": "57720", "name": "Waldhouse", "slug": "waldhouse", "gps_lat": 49.14115734513274, "gps_lng": 7.4617603539823 }, { "id": 21976, "department_code": "57", "insee_code": "57739", "zip_code": "57320", "name": "Waldweistroff", "slug": "waldweistroff", "gps_lat": 49.36054746268659, "gps_lng": 6.49834776119403 }, { "id": 21977, "department_code": "57", "insee_code": "57740", "zip_code": "57480", "name": "Waldwisse", "slug": "waldwisse", "gps_lat": 49.41345950000001, "gps_lng": 6.52461091666667 }, { "id": 21978, "department_code": "57", "insee_code": "57741", "zip_code": "57720", "name": "Walschbronn", "slug": "walschbronn", "gps_lat": 49.15096191489362, "gps_lng": 7.4670589361702095 }, { "id": 21979, "department_code": "57", "insee_code": "57742", "zip_code": "57870", "name": "Walscheid", "slug": "walscheid", "gps_lat": 48.63375033632285, "gps_lng": 7.17843038116591 }, { "id": 21980, "department_code": "57", "insee_code": "57743", "zip_code": "57370", "name": "Waltembourg", "slug": "waltembourg", "gps_lat": 48.74920406250001, "gps_lng": 7.195838125 }, { "id": 21981, "department_code": "57", "insee_code": "57745", "zip_code": "57200", "name": "Wiesviller", "slug": "wiesviller", "gps_lat": 49.08101076190478, "gps_lng": 7.16343514285714 }, { "id": 21982, "department_code": "57", "insee_code": "57746", "zip_code": "57430", "name": "Willerwald", "slug": "willerwald", "gps_lat": 49.01852467289721, "gps_lng": 7.0387808411215 }, { "id": 21983, "department_code": "57", "insee_code": "57747", "zip_code": "57635", "name": "Wintersbourg", "slug": "wintersbourg", "gps_lat": 48.79425320987656, "gps_lng": 7.19465975308642 }, { "id": 21984, "department_code": "57", "insee_code": "57748", "zip_code": "57905", "name": "Wittring", "slug": "wittring", "gps_lat": 49.05500045454547, "gps_lng": 7.12555763636364 }, { "id": 21986, "department_code": "57", "insee_code": "57750", "zip_code": "57200", "name": "Wœlfling-lès-Sarreguemines", "slug": "woelfling les sarreguemines", "gps_lat": 49.08640317647058, "gps_lng": 7.1774654117647 }, { "id": 21987, "department_code": "57", "insee_code": "57751", "zip_code": "57140", "name": "Woippy", "slug": "woippy", "gps_lat": 49.16181929203538, "gps_lng": 6.15774168141593 }, { "id": 21988, "department_code": "57", "insee_code": "57752", "zip_code": "57915", "name": "Woustviller", "slug": "woustviller", "gps_lat": 49.08406233644858, "gps_lng": 7.00883598130841 }, { "id": 21989, "department_code": "57", "insee_code": "57753", "zip_code": "57170", "name": "Wuisse", "slug": "wuisse", "gps_lat": 48.85517190476191, "gps_lng": 6.65863654761905 }, { "id": 22931, "department_code": "59", "insee_code": "59630", "zip_code": "59261", "name": "Wahagnies", "slug": "wahagnies", "gps_lat": 50.48350656862745, "gps_lng": 3.02920656862745 }, { "id": 22932, "department_code": "59", "insee_code": "59631", "zip_code": "59127", "name": "Walincourt-Selvigny", "slug": "walincourt selvigny", "gps_lat": 50.07312470588235, "gps_lng": 3.33478247058824 }, { "id": 22933, "department_code": "59", "insee_code": "59632", "zip_code": "59135", "name": "Wallers", "slug": "wallers", "gps_lat": 50.37383279999998, "gps_lng": 3.38723805 }, { "id": 22934, "department_code": "59", "insee_code": "59633", "zip_code": "59132", "name": "Wallers-en-Fagne", "slug": "wallers en fagne", "gps_lat": 50.06606618705035, "gps_lng": 4.17540992805755 }, { "id": 22935, "department_code": "59", "insee_code": "59634", "zip_code": "59190", "name": "Wallon-Cappel", "slug": "wallon cappel", "gps_lat": 50.73144340425531, "gps_lng": 2.48352659574468 }, { "id": 22936, "department_code": "59", "insee_code": "59635", "zip_code": "59400", "name": "Wambaix", "slug": "wambaix", "gps_lat": 50.12854715909091, "gps_lng": 3.30785625 }, { "id": 22937, "department_code": "59", "insee_code": "59636", "zip_code": "59118", "name": "Wambrechies", "slug": "wambrechies", "gps_lat": 50.69340229299362, "gps_lng": 3.04299770700637 }, { "id": 22938, "department_code": "59", "insee_code": "59637", "zip_code": "59870", "name": "Wandignies-Hamage", "slug": "wandignies hamage", "gps_lat": 50.39915124999998, "gps_lng": 3.32399193181818 }, { "id": 22939, "department_code": "59", "insee_code": "59638", "zip_code": "59830", "name": "Wannehain", "slug": "wannehain", "gps_lat": 50.57015661290325, "gps_lng": 3.26829725806452 }, { "id": 22940, "department_code": "59", "insee_code": "59639", "zip_code": "59144", "name": "Wargnies-le-Grand", "slug": "wargnies le grand", "gps_lat": 50.30811203883495, "gps_lng": 3.65770631067961 }, { "id": 22941, "department_code": "59", "insee_code": "59640", "zip_code": "59144", "name": "Wargnies-le-Petit", "slug": "wargnies le petit", "gps_lat": 50.29972404494381, "gps_lng": 3.68272033707865 }, { "id": 22942, "department_code": "59", "insee_code": "59641", "zip_code": "59380", "name": "Warhem", "slug": "warhem", "gps_lat": 50.97704195876291, "gps_lng": 2.51023701030928 }, { "id": 22943, "department_code": "59", "insee_code": "59642", "zip_code": "59870", "name": "Warlaing", "slug": "warlaing", "gps_lat": 50.40805560975609, "gps_lng": 3.32446475609756 }, { "id": 22944, "department_code": "59", "insee_code": "59643", "zip_code": "59560", "name": "Warneton", "slug": "warneton", "gps_lat": 50.74699961538462, "gps_lng": 2.96740673076923 }, { "id": 22945, "department_code": "59", "insee_code": "59645", "zip_code": "59252", "name": "Wasnes-au-Bac", "slug": "wasnes au bac", "gps_lat": 50.26711727272727, "gps_lng": 3.25288333333333 }, { "id": 22946, "department_code": "59", "insee_code": "59646", "zip_code": "59290", "name": "Wasquehal", "slug": "wasquehal", "gps_lat": 50.67475966386553, "gps_lng": 3.12941201680672 }, { "id": 22947, "department_code": "59", "insee_code": "59647", "zip_code": "59143", "name": "Watten", "slug": "watten", "gps_lat": 50.82880757575759, "gps_lng": 2.224895 }, { "id": 22948, "department_code": "59", "insee_code": "59648", "zip_code": "59139", "name": "Wattignies", "slug": "wattignies", "gps_lat": 50.58593161764706, "gps_lng": 3.03950529411765 }, { "id": 22949, "department_code": "59", "insee_code": "59649", "zip_code": "59680", "name": "Wattignies-la-Victoire", "slug": "wattignies la victoire", "gps_lat": 50.20038028846155, "gps_lng": 4.00685846153846 }, { "id": 22950, "department_code": "59", "insee_code": "59650", "zip_code": "59150", "name": "Wattrelos", "slug": "wattrelos", "gps_lat": 50.70732293838857, "gps_lng": 3.21668668246446 }, { "id": 22951, "department_code": "59", "insee_code": "59651", "zip_code": "59220", "name": "Wavrechain-sous-Denain", "slug": "wavrechain sous denain", "gps_lat": 50.33585080645159, "gps_lng": 3.42271435483871 }, { "id": 22952, "department_code": "59", "insee_code": "59652", "zip_code": "59111", "name": "Wavrechain-sous-Faulx", "slug": "wavrechain sous faulx", "gps_lat": 50.26862630136988, "gps_lng": 3.28311561643836 }, { "id": 22953, "department_code": "59", "insee_code": "59653", "zip_code": "59136", "name": "Wavrin", "slug": "wavrin", "gps_lat": 50.57368168141591, "gps_lng": 2.93670831858407 }, { "id": 22954, "department_code": "59", "insee_code": "59654", "zip_code": "59119", "name": "Waziers", "slug": "waziers", "gps_lat": 50.38208384615385, "gps_lng": 3.113825 }, { "id": 22955, "department_code": "59", "insee_code": "59655", "zip_code": "59670", "name": "Wemaers-Cappel", "slug": "wemaers cappel", "gps_lat": 50.81532484848485, "gps_lng": 2.44151727272727 }, { "id": 22956, "department_code": "59", "insee_code": "59656", "zip_code": "59117", "name": "Wervicq-Sud", "slug": "wervicq sud", "gps_lat": 50.75749623529411, "gps_lng": 3.05252152941176 }, { "id": 22957, "department_code": "59", "insee_code": "59657", "zip_code": "59380", "name": "West-Cappel", "slug": "west cappel", "gps_lat": 50.91753760869564, "gps_lng": 2.50920347826087 }, { "id": 22958, "department_code": "59", "insee_code": "59658", "zip_code": "59134", "name": "Wicres", "slug": "wicres", "gps_lat": 50.5675487755102, "gps_lng": 2.86908020408163 }, { "id": 22959, "department_code": "59", "insee_code": "59659", "zip_code": "59212", "name": "Wignehies", "slug": "wignehies", "gps_lat": 50.01755301369862, "gps_lng": 4.00367383561644 }, { "id": 22960, "department_code": "59", "insee_code": "59660", "zip_code": "59780", "name": "Willems", "slug": "willems", "gps_lat": 50.63215966666669, "gps_lng": 3.23546133333333 }, { "id": 22961, "department_code": "59", "insee_code": "59661", "zip_code": "59740", "name": "Willies", "slug": "willies", "gps_lat": 50.11955311827955, "gps_lng": 4.11039129032258 }, { "id": 22962, "department_code": "59", "insee_code": "59662", "zip_code": "59670", "name": "Winnezeele", "slug": "winnezeele", "gps_lat": 50.85588184079603, "gps_lng": 2.57311049751244 }, { "id": 22963, "department_code": "59", "insee_code": "59663", "zip_code": "59470", "name": "Wormhout", "slug": "wormhout", "gps_lat": 50.88238253731342, "gps_lng": 2.48412485074627 }, { "id": 22964, "department_code": "59", "insee_code": "59664", "zip_code": "59143", "name": "Wulverdinghe", "slug": "wulverdinghe", "gps_lat": 50.82664968750001, "gps_lng": 2.25188828125 }, { "id": 22965, "department_code": "59", "insee_code": "59665", "zip_code": "59380", "name": "Wylder", "slug": "wylder", "gps_lat": 50.91229763636363, "gps_lng": 2.48544454545455 }, { "id": 23653, "department_code": "60", "insee_code": "60698", "zip_code": "60420", "name": "Wacquemoulin", "slug": "wacquemoulin", "gps_lat": 49.50850554545456, "gps_lng": 2.61802872727273 }, { "id": 23654, "department_code": "60", "insee_code": "60699", "zip_code": "60380", "name": "Wambez", "slug": "wambez", "gps_lat": 49.52251500000001, "gps_lng": 1.845086625 }, { "id": 23655, "department_code": "60", "insee_code": "60700", "zip_code": "60430", "name": "Warluis", "slug": "warluis", "gps_lat": 49.38544043715849, "gps_lng": 2.15846950819672 }, { "id": 23656, "department_code": "60", "insee_code": "60701", "zip_code": "60130", "name": "Wavignies", "slug": "wavignies", "gps_lat": 49.54690876712328, "gps_lng": 2.35605219178082 }, { "id": 23657, "department_code": "60", "insee_code": "60702", "zip_code": "60420", "name": "Welles-Pérennes", "slug": "welles perennes", "gps_lat": 49.61152081818182, "gps_lng": 2.48300372727273 }, { "id": 24913, "department_code": "62", "insee_code": "62866", "zip_code": "62180", "name": "Waben", "slug": "waben", "gps_lat": 50.38276958677684, "gps_lng": 1.64269867768595 }, { "id": 24914, "department_code": "62", "insee_code": "62867", "zip_code": "62250", "name": "Wacquinghen", "slug": "wacquinghen", "gps_lat": 50.78107666666666, "gps_lng": 1.668097 }, { "id": 24915, "department_code": "62", "insee_code": "62868", "zip_code": "62770", "name": "Wail", "slug": "wail", "gps_lat": 50.33600365591399, "gps_lng": 2.11966817204301 }, { "id": 24916, "department_code": "62", "insee_code": "62869", "zip_code": "62217", "name": "Wailly", "slug": "wailly", "gps_lat": 50.2479704054054, "gps_lng": 2.72263459459459 }, { "id": 24917, "department_code": "62", "insee_code": "62870", "zip_code": "62170", "name": "Wailly-Beaucamp", "slug": "wailly beaucamp", "gps_lat": 50.41087836538463, "gps_lng": 1.7262377884615399 }, { "id": 24918, "department_code": "62", "insee_code": "62871", "zip_code": "62140", "name": "Wambercourt", "slug": "wambercourt", "gps_lat": 50.43261548387094, "gps_lng": 2.03018258064516 }, { "id": 24919, "department_code": "62", "insee_code": "62872", "zip_code": "62770", "name": "Wamin", "slug": "wamin", "gps_lat": 50.41679155172415, "gps_lng": 2.06091767241379 }, { "id": 24920, "department_code": "62", "insee_code": "62873", "zip_code": "62128", "name": "Wancourt", "slug": "wancourt", "gps_lat": 50.25511585365852, "gps_lng": 2.85542951219512 }, { "id": 24921, "department_code": "62", "insee_code": "62874", "zip_code": "62123", "name": "Wanquetin", "slug": "wanquetin", "gps_lat": 50.2743917910448, "gps_lng": 2.61024776119403 }, { "id": 24922, "department_code": "62", "insee_code": "62875", "zip_code": "62120", "name": "Wardrecques", "slug": "wardrecques", "gps_lat": 50.70405716981132, "gps_lng": 2.34123716981132 }, { "id": 24923, "department_code": "62", "insee_code": "62876", "zip_code": "62450", "name": "Warlencourt-Eaucourt", "slug": "warlencourt eaucourt", "gps_lat": 50.08327323943661, "gps_lng": 2.78952577464789 }, { "id": 24924, "department_code": "62", "insee_code": "62877", "zip_code": "62760", "name": "Warlincourt-lès-Pas", "slug": "warlincourt les pas", "gps_lat": 50.18111597014926, "gps_lng": 2.50722208955224 }, { "id": 24925, "department_code": "62", "insee_code": "62878", "zip_code": "62123", "name": "Warlus", "slug": "warlus", "gps_lat": 50.27724985714287, "gps_lng": 2.66544842857143 }, { "id": 24926, "department_code": "62", "insee_code": "62879", "zip_code": "62810", "name": "Warluzel", "slug": "warluzel", "gps_lat": 50.23113523809525, "gps_lng": 2.46970071428571 }, { "id": 24929, "department_code": "62", "insee_code": "62882", "zip_code": "62380", "name": "Wavrans-sur-l'Aa", "slug": "wavrans sur l aa", "gps_lat": 50.6765846956522, "gps_lng": 2.14113739130435 }, { "id": 24930, "department_code": "62", "insee_code": "62883", "zip_code": "62130", "name": "Wavrans-sur-Ternoise", "slug": "wavrans sur ternoise", "gps_lat": 50.41105204545453, "gps_lng": 2.28696102272727 }, { "id": 24931, "department_code": "62", "insee_code": "62885", "zip_code": "62960", "name": "Westrehem", "slug": "westrehem", "gps_lat": 50.54396295454546, "gps_lng": 2.34299454545455 }, { "id": 24932, "department_code": "62", "insee_code": "62886", "zip_code": "62650", "name": "Wicquinghem", "slug": "wicquinghem", "gps_lat": 50.57360406249999, "gps_lng": 1.9542653125 }, { "id": 24933, "department_code": "62", "insee_code": "62887", "zip_code": "62630", "name": "Widehem", "slug": "widehem", "gps_lat": 50.58430705263157, "gps_lng": 1.6573987368421 }, { "id": 24934, "department_code": "62", "insee_code": "62888", "zip_code": "62830", "name": "Wierre-au-Bois", "slug": "wierre au bois", "gps_lat": 50.65246549450547, "gps_lng": 1.77062747252747 }, { "id": 24935, "department_code": "62", "insee_code": "62889", "zip_code": "62720", "name": "Wierre-Effroy", "slug": "wierre effroy", "gps_lat": 50.77118473684211, "gps_lng": 1.73883128654971 }, { "id": 24936, "department_code": "62", "insee_code": "62890", "zip_code": "62770", "name": "Willeman", "slug": "willeman", "gps_lat": 50.36013505154639, "gps_lng": 2.16664907216495 }, { "id": 24937, "department_code": "62", "insee_code": "62891", "zip_code": "62390", "name": "Willencourt", "slug": "willencourt", "gps_lat": 50.24004253968253, "gps_lng": 2.08283126984127 }, { "id": 24938, "department_code": "62", "insee_code": "62892", "zip_code": "62580", "name": "Willerval", "slug": "willerval", "gps_lat": 50.36185449999999, "gps_lng": 2.85079483333333 }, { "id": 24939, "department_code": "62", "insee_code": "62893", "zip_code": "62930", "name": "Wimereux", "slug": "wimereux", "gps_lat": 50.7768574, "gps_lng": 1.6110276 }, { "id": 24940, "department_code": "62", "insee_code": "62894", "zip_code": "62126", "name": "Wimille", "slug": "wimille", "gps_lat": 50.76492396226416, "gps_lng": 1.65034518867925 }, { "id": 24941, "department_code": "62", "insee_code": "62895", "zip_code": "62410", "name": "Wingles", "slug": "wingles", "gps_lat": 50.49026475, "gps_lng": 2.854068 }, { "id": 24942, "department_code": "62", "insee_code": "62896", "zip_code": "62240", "name": "Wirwignes", "slug": "wirwignes", "gps_lat": 50.68275192000001, "gps_lng": 1.7698715200000001 }, { "id": 24943, "department_code": "62", "insee_code": "62897", "zip_code": "62380", "name": "Wismes", "slug": "wismes", "gps_lat": 50.66267499999999, "gps_lng": 2.07800866666667 }, { "id": 24944, "department_code": "62", "insee_code": "62898", "zip_code": "62219", "name": "Wisques", "slug": "wisques", "gps_lat": 50.7252246031746, "gps_lng": 2.1942426984127 }, { "id": 24945, "department_code": "62", "insee_code": "62899", "zip_code": "62179", "name": "Wissant", "slug": "wissant", "gps_lat": 50.88041357723579, "gps_lng": 1.6777656910569099 }, { "id": 24946, "department_code": "62", "insee_code": "62900", "zip_code": "62120", "name": "Witternesse", "slug": "witternesse", "gps_lat": 50.61433836206896, "gps_lng": 2.3663456896551702 }, { "id": 24947, "department_code": "62", "insee_code": "62901", "zip_code": "62120", "name": "Wittes", "slug": "wittes", "gps_lat": 50.67228729411764, "gps_lng": 2.38313305882353 }, { "id": 24948, "department_code": "62", "insee_code": "62902", "zip_code": "62570", "name": "Wizernes", "slug": "wizernes", "gps_lat": 50.71576361904763, "gps_lng": 2.22696666666667 }, { "id": 26786, "department_code": "67", "insee_code": "67122", "zip_code": "67710", "name": "Wangenbourg-Engenthal", "slug": "wangenbourg engenthal", "gps_lat": 48.62461026845641, "gps_lng": 7.29733986577181 }, { "id": 27145, "department_code": "67", "insee_code": "67510", "zip_code": "67170", "name": "Wahlenheim", "slug": "wahlenheim", "gps_lat": 48.76529285714287, "gps_lng": 7.68750285714286 }, { "id": 27146, "department_code": "67", "insee_code": "67511", "zip_code": "67360", "name": "Walbourg", "slug": "walbourg", "gps_lat": 48.8862092356688, "gps_lng": 7.7894525477707 }, { "id": 27147, "department_code": "67", "insee_code": "67513", "zip_code": "67130", "name": "Waldersbach", "slug": "waldersbach", "gps_lat": 48.41441945454546, "gps_lng": 7.21772781818182 }, { "id": 27148, "department_code": "67", "insee_code": "67514", "zip_code": "67430", "name": "Waldhambach", "slug": "waldhambach", "gps_lat": 48.93067336601307, "gps_lng": 7.23200398692811 }, { "id": 27149, "department_code": "67", "insee_code": "67515", "zip_code": "67700", "name": "Waldolwisheim", "slug": "waldolwisheim", "gps_lat": 48.73381063157894, "gps_lng": 7.43797010526316 }, { "id": 27150, "department_code": "67", "insee_code": "67516", "zip_code": "67670", "name": "Waltenheim-sur-Zorn", "slug": "waltenheim sur zorn", "gps_lat": 48.74600571428575, "gps_lng": 7.62422210084034 }, { "id": 27151, "department_code": "67", "insee_code": "67517", "zip_code": "67520", "name": "Wangen", "slug": "wangen", "gps_lat": 48.61865723076924, "gps_lng": 7.46566015384615 }, { "id": 27153, "department_code": "67", "insee_code": "67520", "zip_code": "67310", "name": "Wasselonne", "slug": "wasselonne", "gps_lat": 48.64289289256198, "gps_lng": 7.44238 }, { "id": 27154, "department_code": "67", "insee_code": "67521", "zip_code": "67340", "name": "Weinbourg", "slug": "weinbourg", "gps_lat": 48.86967355932203, "gps_lng": 7.43219525423729 }, { "id": 27155, "department_code": "67", "insee_code": "67522", "zip_code": "67290", "name": "Weislingen", "slug": "weislingen", "gps_lat": 48.92038594594592, "gps_lng": 7.25336837837838 }, { "id": 27156, "department_code": "67", "insee_code": "67523", "zip_code": "67500", "name": "Weitbruch", "slug": "weitbruch", "gps_lat": 48.75794834437085, "gps_lng": 7.77739079470199 }, { "id": 27157, "department_code": "67", "insee_code": "67524", "zip_code": "67340", "name": "Weiterswiller", "slug": "weiterswiller", "gps_lat": 48.854574, "gps_lng": 7.41137 }, { "id": 27158, "department_code": "67", "insee_code": "67525", "zip_code": "67310", "name": "Westhoffen", "slug": "westhoffen", "gps_lat": 48.60396931034483, "gps_lng": 7.42155351724138 }, { "id": 27159, "department_code": "67", "insee_code": "67526", "zip_code": "67230", "name": "Westhouse", "slug": "westhouse", "gps_lat": 48.406739019607826, "gps_lng": 7.5736452941176395 }, { "id": 27160, "department_code": "67", "insee_code": "67527", "zip_code": "67440", "name": "Westhouse-Marmoutier", "slug": "westhouse marmoutier", "gps_lat": 48.68523107692307, "gps_lng": 7.45577784615385 }, { "id": 27161, "department_code": "67", "insee_code": "67528", "zip_code": "67320", "name": "Weyer", "slug": "weyer", "gps_lat": 48.85347551515152, "gps_lng": 7.157912 }, { "id": 27162, "department_code": "67", "insee_code": "67529", "zip_code": "67720", "name": "Weyersheim", "slug": "weyersheim", "gps_lat": 48.72574213017752, "gps_lng": 7.84806603550296 }, { "id": 27163, "department_code": "67", "insee_code": "67530", "zip_code": "67270", "name": "Wickersheim-Wilshausen", "slug": "wickersheim wilshausen", "gps_lat": 48.78079516129031, "gps_lng": 7.53466043010753 }, { "id": 27164, "department_code": "67", "insee_code": "67531", "zip_code": "67130", "name": "Wildersbach", "slug": "wildersbach", "gps_lat": 48.44076571428571, "gps_lng": 7.22424244897959 }, { "id": 27165, "department_code": "67", "insee_code": "67532", "zip_code": "67370", "name": "Willgottheim", "slug": "willgottheim", "gps_lat": 48.676889677419354, "gps_lng": 7.51361241935484 }, { "id": 27166, "department_code": "67", "insee_code": "67534", "zip_code": "67270", "name": "Wilwisheim", "slug": "wilwisheim", "gps_lat": 48.75250055944058, "gps_lng": 7.50211783216783 }, { "id": 27167, "department_code": "67", "insee_code": "67535", "zip_code": "67290", "name": "Wimmenau", "slug": "wimmenau", "gps_lat": 48.92151100877196, "gps_lng": 7.42038320175438 }, { "id": 27168, "department_code": "67", "insee_code": "67536", "zip_code": "67110", "name": "Windstein", "slug": "windstein", "gps_lat": 48.98943164285716, "gps_lng": 7.6944445 }, { "id": 27169, "department_code": "67", "insee_code": "67537", "zip_code": "67510", "name": "Wingen", "slug": "wingen", "gps_lat": 49.03536724409448, "gps_lng": 7.81227472440945 }, { "id": 27170, "department_code": "67", "insee_code": "67538", "zip_code": "67290", "name": "Wingen-sur-Moder", "slug": "wingen sur moder", "gps_lat": 48.92288590673576, "gps_lng": 7.37349860103627 }, { "id": 27171, "department_code": "67", "insee_code": "67539", "zip_code": "67170", "name": "Wingersheim les Quatre Bans", "slug": "wingersheim les quatre bans", "gps_lat": 48.7220579, "gps_lng": 7.635956 }, { "id": 27172, "department_code": "67", "insee_code": "67539", "zip_code": "67270", "name": "Wingersheim les Quatre Bans", "slug": "wingersheim les quatre bans", "gps_lat": 48.7220579, "gps_lng": 7.635956 }, { "id": 27173, "department_code": "67", "insee_code": "67540", "zip_code": "67590", "name": "Wintershouse", "slug": "wintershouse", "gps_lat": 48.79627358490565, "gps_lng": 7.70607094339623 }, { "id": 27174, "department_code": "67", "insee_code": "67541", "zip_code": "67470", "name": "Wintzenbach", "slug": "wintzenbach", "gps_lat": 48.93100979166667, "gps_lng": 8.10418979166667 }, { "id": 27175, "department_code": "67", "insee_code": "67542", "zip_code": "67370", "name": "Wintzenheim-Kochersberg", "slug": "wintzenheim kochersberg", "gps_lat": 48.65774324999997, "gps_lng": 7.5071405 }, { "id": 27176, "department_code": "67", "insee_code": "67543", "zip_code": "67130", "name": "Wisches", "slug": "wisches", "gps_lat": 48.51085905759165, "gps_lng": 7.22787183246073 }, { "id": 27177, "department_code": "67", "insee_code": "67544", "zip_code": "67160", "name": "Wissembourg", "slug": "wissembourg", "gps_lat": 49.02069178571428, "gps_lng": 7.97160909774435 }, { "id": 27178, "department_code": "67", "insee_code": "67545", "zip_code": "67230", "name": "Witternheim", "slug": "witternheim", "gps_lat": 48.31502488372093, "gps_lng": 7.61868534883721 }, { "id": 27179, "department_code": "67", "insee_code": "67546", "zip_code": "67670", "name": "Wittersheim", "slug": "wittersheim", "gps_lat": 48.7801062903226, "gps_lng": 7.65434661290323 }, { "id": 27180, "department_code": "67", "insee_code": "67547", "zip_code": "67820", "name": "Wittisheim", "slug": "wittisheim", "gps_lat": 48.26705801526717, "gps_lng": 7.60168465648855 }, { "id": 27181, "department_code": "67", "insee_code": "67548", "zip_code": "67370", "name": "Wiwersheim", "slug": "wiwersheim", "gps_lat": 48.63756075471699, "gps_lng": 7.59780603773585 }, { "id": 27182, "department_code": "67", "insee_code": "67550", "zip_code": "67360", "name": "Wœrth", "slug": "woerth", "gps_lat": 48.9424800763359, "gps_lng": 7.74622259541985 }, { "id": 27183, "department_code": "67", "insee_code": "67551", "zip_code": "67202", "name": "Wolfisheim", "slug": "wolfisheim", "gps_lat": 48.57836291666668, "gps_lng": 7.66487841666667 }, { "id": 27184, "department_code": "67", "insee_code": "67552", "zip_code": "67260", "name": "Wolfskirchen", "slug": "wolfskirchen", "gps_lat": 48.87658202020203, "gps_lng": 7.07184191919192 }, { "id": 27185, "department_code": "67", "insee_code": "67553", "zip_code": "67700", "name": "Wolschheim", "slug": "wolschheim", "gps_lat": 48.70844303571429, "gps_lng": 7.45721946428571 }, { "id": 27186, "department_code": "67", "insee_code": "67554", "zip_code": "67120", "name": "Wolxheim", "slug": "wolxheim", "gps_lat": 48.57004786885246, "gps_lng": 7.50663983606557 }, { "id": 27528, "department_code": "68", "insee_code": "68353", "zip_code": "68130", "name": "Wahlbach", "slug": "wahlbach", "gps_lat": 47.62622608695651, "gps_lng": 7.34845623188406 }, { "id": 27529, "department_code": "68", "insee_code": "68354", "zip_code": "68230", "name": "Walbach", "slug": "walbach", "gps_lat": 48.06946885714285, "gps_lng": 7.20836985714286 }, { "id": 27530, "department_code": "68", "insee_code": "68355", "zip_code": "68640", "name": "Waldighofen", "slug": "waldighofen", "gps_lat": 47.54820151162791, "gps_lng": 7.31677953488372 }, { "id": 27531, "department_code": "68", "insee_code": "68356", "zip_code": "68130", "name": "Walheim", "slug": "walheim", "gps_lat": 47.64109421052632, "gps_lng": 7.26752385964913 }, { "id": 27532, "department_code": "68", "insee_code": "68357", "zip_code": "68510", "name": "Waltenheim", "slug": "waltenheim", "gps_lat": 47.65522565217392, "gps_lng": 7.42419782608696 }, { "id": 27533, "department_code": "68", "insee_code": "68358", "zip_code": "68230", "name": "Wasserbourg", "slug": "wasserbourg", "gps_lat": 47.99743426666667, "gps_lng": 7.1555876 }, { "id": 27534, "department_code": "68", "insee_code": "68359", "zip_code": "68700", "name": "Wattwiller", "slug": "wattwiller", "gps_lat": 47.84140627450983, "gps_lng": 7.17894049019608 }, { "id": 27535, "department_code": "68", "insee_code": "68360", "zip_code": "68600", "name": "Weckolsheim", "slug": "weckolsheim", "gps_lat": 48.00197512195122, "gps_lng": 7.49728902439024 }, { "id": 27536, "department_code": "68", "insee_code": "68361", "zip_code": "68290", "name": "Wegscheid", "slug": "wegscheid", "gps_lat": 47.81522009708739, "gps_lng": 6.97778970873786 }, { "id": 27537, "department_code": "68", "insee_code": "68362", "zip_code": "68220", "name": "Wentzwiller", "slug": "wentzwiller", "gps_lat": 47.5488875, "gps_lng": 7.47450944444444 }, { "id": 27538, "department_code": "68", "insee_code": "68363", "zip_code": "68480", "name": "Werentzhouse", "slug": "werentzhouse", "gps_lat": 47.52097382978724, "gps_lng": 7.3614919148936195 }, { "id": 27539, "department_code": "68", "insee_code": "68364", "zip_code": "68250", "name": "Westhalten", "slug": "westhalten", "gps_lat": 47.97057677419353, "gps_lng": 7.25500419354839 }, { "id": 27540, "department_code": "68", "insee_code": "68365", "zip_code": "68920", "name": "Wettolsheim", "slug": "wettolsheim", "gps_lat": 48.05088830097088, "gps_lng": 7.31455766990291 }, { "id": 27541, "department_code": "68", "insee_code": "68366", "zip_code": "68320", "name": "Wickerschwihr", "slug": "wickerschwihr", "gps_lat": 48.11070403508772, "gps_lng": 7.44368842105263 }, { "id": 27542, "department_code": "68", "insee_code": "68367", "zip_code": "68320", "name": "Widensolen", "slug": "widensolen", "gps_lat": 48.06072735849057, "gps_lng": 7.48403566037736 }, { "id": 27543, "department_code": "68", "insee_code": "68368", "zip_code": "68230", "name": "Wihr-au-Val", "slug": "wihr au val", "gps_lat": 48.05574876106196, "gps_lng": 7.19910433628318 }, { "id": 27544, "department_code": "68", "insee_code": "68370", "zip_code": "68820", "name": "Wildenstein", "slug": "wildenstein", "gps_lat": 47.98365023437498, "gps_lng": 6.96189421875 }, { "id": 27545, "department_code": "68", "insee_code": "68371", "zip_code": "68960", "name": "Willer", "slug": "willer", "gps_lat": 47.57960979591836, "gps_lng": 7.32345163265306 }, { "id": 27546, "department_code": "68", "insee_code": "68372", "zip_code": "68760", "name": "Willer-sur-Thur", "slug": "willer sur thur", "gps_lat": 47.85286157232705, "gps_lng": 7.07834352201258 }, { "id": 27547, "department_code": "68", "insee_code": "68373", "zip_code": "68480", "name": "Winkel", "slug": "winkel", "gps_lat": 47.46133418181818, "gps_lng": 7.26439836363636 }, { "id": 27548, "department_code": "68", "insee_code": "68374", "zip_code": "68124", "name": "Wintzenheim", "slug": "wintzenheim", "gps_lat": 48.0837845, "gps_lng": 7.3165082 }, { "id": 27549, "department_code": "68", "insee_code": "68374", "zip_code": "68920", "name": "Wintzenheim", "slug": "wintzenheim", "gps_lat": 48.0596469, "gps_lng": 7.2648238 }, { "id": 27550, "department_code": "68", "insee_code": "68375", "zip_code": "68310", "name": "Wittelsheim", "slug": "wittelsheim", "gps_lat": 47.80490836734695, "gps_lng": 7.24882520408163 }, { "id": 27551, "department_code": "68", "insee_code": "68376", "zip_code": "68270", "name": "Wittenheim", "slug": "wittenheim", "gps_lat": 47.81250295652174, "gps_lng": 7.31752008695652 }, { "id": 27552, "department_code": "68", "insee_code": "68377", "zip_code": "68130", "name": "Wittersdorf", "slug": "wittersdorf", "gps_lat": 47.61625486111112, "gps_lng": 7.27323763888889 }, { "id": 27553, "department_code": "68", "insee_code": "68378", "zip_code": "68210", "name": "Wolfersdorf", "slug": "wolfersdorf", "gps_lat": 47.64787078947368, "gps_lng": 7.11281657894737 }, { "id": 27554, "department_code": "68", "insee_code": "68379", "zip_code": "68600", "name": "Wolfgantzen", "slug": "wolfgantzen", "gps_lat": 48.02687820512821, "gps_lng": 7.49794307692308 }, { "id": 27555, "department_code": "68", "insee_code": "68380", "zip_code": "68480", "name": "Wolschwiller", "slug": "wolschwiller", "gps_lat": 47.45465028985507, "gps_lng": 7.40628014492753 }, { "id": 27556, "department_code": "68", "insee_code": "68381", "zip_code": "68500", "name": "Wuenheim", "slug": "wuenheim", "gps_lat": 47.87027999999997, "gps_lng": 7.18579982758621 }, { "id": 30628, "department_code": "76", "insee_code": "76749", "zip_code": "76660", "name": "Wanchy-Capval", "slug": "wanchy capval", "gps_lat": 49.86359666666669, "gps_lng": 1.3703703030303 }, { "id": 32468, "department_code": "80", "insee_code": "80819", "zip_code": "80670", "name": "Wargnies", "slug": "wargnies", "gps_lat": 50.035635, "gps_lng": 2.25176386363636 }, { "id": 32469, "department_code": "80", "insee_code": "80820", "zip_code": "80300", "name": "Warloy-Baillon", "slug": "warloy baillon", "gps_lat": 50.01542406504067, "gps_lng": 2.52822902439024 }, { "id": 32470, "department_code": "80", "insee_code": "80821", "zip_code": "80270", "name": "Warlus", "slug": "warlus", "gps_lat": 49.91758870370371, "gps_lng": 1.95675388888889 }, { "id": 32471, "department_code": "80", "insee_code": "80822", "zip_code": "80500", "name": "Warsy", "slug": "warsy", "gps_lat": 49.70449533333333, "gps_lng": 2.64362266666667 }, { "id": 32472, "department_code": "80", "insee_code": "80823", "zip_code": "80170", "name": "Warvillers", "slug": "warvillers", "gps_lat": 49.7790947368421, "gps_lng": 2.6928105263157898 }, { "id": 32473, "department_code": "80", "insee_code": "80824", "zip_code": "80170", "name": "Wiencourt-l'Équipée", "slug": "wiencourt l equipee", "gps_lat": 49.83618710144928, "gps_lng": 2.60196434782609 }, { "id": 32474, "department_code": "80", "insee_code": "80825", "zip_code": "80270", "name": "Wiry-au-Mont", "slug": "wiry au mont", "gps_lat": 49.95529358208954, "gps_lng": 1.84392104477612 }, { "id": 32475, "department_code": "80", "insee_code": "80826", "zip_code": "80460", "name": "Woignarue", "slug": "woignarue", "gps_lat": 50.1261018095238, "gps_lng": 1.48881161904762 }, { "id": 32476, "department_code": "80", "insee_code": "80827", "zip_code": "80520", "name": "Woincourt", "slug": "woincourt", "gps_lat": 50.06366282608696, "gps_lng": 1.53689065217391 }, { "id": 32477, "department_code": "80", "insee_code": "80828", "zip_code": "80140", "name": "Woirel", "slug": "woirel", "gps_lat": 49.95874499999999, "gps_lng": 1.8177069047618999 }, { "id": 34557, "department_code": "88", "insee_code": "88526", "zip_code": "88520", "name": "Wisembach", "slug": "wisembach", "gps_lat": 48.25849727941177, "gps_lng": 7.10635580882353 }, { "id": 35293, "department_code": "91", "insee_code": "91689", "zip_code": "91320", "name": "Wissous", "slug": "wissous", "gps_lat": 48.73321333333333, "gps_lng": 2.32938098765432 }, { "id": 35609, "department_code": "95", "insee_code": "95690", "zip_code": "95420", "name": "Wy-dit-Joli-Village", "slug": "wy dit joli village", "gps_lat": 49.09766507246376, "gps_lng": 1.8262602898550702 }, { "id": 35770, "department_code": "986", "insee_code": null, "zip_code": null, "name": "Wallis et Futuna", "slug": "wallis et futuna", "gps_lat": -13.8173324, "gps_lng": -177.1489649 }]
