[{ "id": 5683, "department_code": "16", "insee_code": "16423", "zip_code": "16330", "name": "Xambes", "slug": "xambes", "gps_lat": 45.82375574712642, "gps_lng": 0.1059016091954 }, { "id": 17741, "department_code": "47", "insee_code": "47327", "zip_code": "47230", "name": "Xaintrailles", "slug": "xaintrailles", "gps_lat": 44.20440752212391, "gps_lng": 0.25651982300885 }, { "id": 20508, "department_code": "54", "insee_code": "54594", "zip_code": "54470", "name": "Xammes", "slug": "xammes", "gps_lat": 48.97898913043478, "gps_lng": 5.84889855072464 }, { "id": 20509, "department_code": "54", "insee_code": "54595", "zip_code": "54300", "name": "Xermaménil", "slug": "xermamenil", "gps_lat": 48.53753809045227, "gps_lng": 6.47446477386935 }, { "id": 20510, "department_code": "54", "insee_code": "54596", "zip_code": "54990", "name": "Xeuilley", "slug": "xeuilley", "gps_lat": 48.55995284313726, "gps_lng": 6.08798960784314 }, { "id": 20511, "department_code": "54", "insee_code": "54597", "zip_code": "54740", "name": "Xirocourt", "slug": "xirocourt", "gps_lat": 48.43197867403313, "gps_lng": 6.17781342541436 }, { "id": 20512, "department_code": "54", "insee_code": "54598", "zip_code": "54490", "name": "Xivry-Circourt", "slug": "xivry circourt", "gps_lat": 49.35855251851852, "gps_lng": 5.76309851851852 }, { "id": 20513, "department_code": "54", "insee_code": "54599", "zip_code": "54800", "name": "Xonville", "slug": "xonville", "gps_lat": 49.05539244444445, "gps_lng": 5.85509122222222 }, { "id": 20514, "department_code": "54", "insee_code": "54600", "zip_code": "54370", "name": "Xousse", "slug": "xousse", "gps_lat": 48.65326530612247, "gps_lng": 6.7099001020408195 }, { "id": 20515, "department_code": "54", "insee_code": "54601", "zip_code": "54370", "name": "Xures", "slug": "xures", "gps_lat": 48.68945530303029, "gps_lng": 6.65632303030303 }, { "id": 21017, "department_code": "55", "insee_code": "55586", "zip_code": "55300", "name": "Xivray-et-Marvoisin", "slug": "xivray et marvoisin", "gps_lat": 48.86885638888889, "gps_lng": 5.7332 }, { "id": 21990, "department_code": "57", "insee_code": "57754", "zip_code": "57630", "name": "Xanrey", "slug": "xanrey", "gps_lat": 48.74992306666667, "gps_lng": 6.5838702666666595 }, { "id": 21991, "department_code": "57", "insee_code": "57755", "zip_code": "57590", "name": "Xocourt", "slug": "xocourt", "gps_lat": 48.91075577319589, "gps_lng": 6.37878835051547 }, { "id": 21992, "department_code": "57", "insee_code": "57756", "zip_code": "57830", "name": "Xouaxange", "slug": "xouaxange", "gps_lat": 48.69344173913043, "gps_lng": 6.99287217391304 }, { "id": 31703, "department_code": "79", "insee_code": "79357", "zip_code": "79220", "name": "Xaintray", "slug": "xaintray", "gps_lat": 46.49932320574167, "gps_lng": -0.48615248803828004 }, { "id": 33575, "department_code": "85", "insee_code": "85306", "zip_code": "85240", "name": "Xanton-Chassenon", "slug": "xanton chassenon", "gps_lat": 46.45701475138122, "gps_lng": -0.69649756906077 }, { "id": 34558, "department_code": "88", "insee_code": "88527", "zip_code": "88700", "name": "Xaffévillers", "slug": "xaffevillers", "gps_lat": 48.41213117187502, "gps_lng": 6.61016171875 }, { "id": 34559, "department_code": "88", "insee_code": "88528", "zip_code": "88460", "name": "Xamontarupt", "slug": "xamontarupt", "gps_lat": 48.12387593939394, "gps_lng": 6.6442704242424195 }, { "id": 34560, "department_code": "88", "insee_code": "88529", "zip_code": "88130", "name": "Xaronval", "slug": "xaronval", "gps_lat": 48.37302747474746, "gps_lng": 6.18585757575758 }, { "id": 34561, "department_code": "88", "insee_code": "88530", "zip_code": "88220", "name": "Xertigny", "slug": "xertigny", "gps_lat": 48.04929633689841, "gps_lng": 6.35846144385026 }, { "id": 34562, "department_code": "88", "insee_code": "88531", "zip_code": "88400", "name": "Xonrupt-Longemer", "slug": "xonrupt longemer", "gps_lat": 48.07416213114755, "gps_lng": 6.94186879781421 }]
