[{ "id": 1534, "department_code": "03", "insee_code": "03320", "zip_code": "03160", "name": "Ygrande", "slug": "ygrande", "gps_lat": 46.54404738386305, "gps_lng": 2.94156885085574 }, { "id": 1535, "department_code": "03", "insee_code": "03321", "zip_code": "03400", "name": "Yzeure", "slug": "yzeure", "gps_lat": 46.5721224161074, "gps_lng": 3.37944697986577 }, { "id": 2869, "department_code": "08", "insee_code": "08502", "zip_code": "08210", "name": "Yoncq", "slug": "yoncq", "gps_lat": 49.56495615384617, "gps_lng": 5.01437623076923 }, { "id": 2870, "department_code": "08", "insee_code": "08503", "zip_code": "08430", "name": "Yvernaumont", "slug": "yvernaumont", "gps_lat": 49.6767705063291, "gps_lng": 4.65895291139241 }, { "id": 3628, "department_code": "10", "insee_code": "10445", "zip_code": "10500", "name": "Yèvres-le-Petit", "slug": "yevres le petit", "gps_lat": 48.47932191780821, "gps_lng": 4.49172890410959 }, { "id": 5299, "department_code": "15", "insee_code": "15265", "zip_code": "15210", "name": "Ydes", "slug": "ydes", "gps_lat": 45.34432556521737, "gps_lng": 2.45809573913043 }, { "id": 5300, "department_code": "15", "insee_code": "15266", "zip_code": "15130", "name": "Yolet", "slug": "yolet", "gps_lat": 44.92944500000002, "gps_lng": 2.53695892592593 }, { "id": 5301, "department_code": "15", "insee_code": "15267", "zip_code": "15000", "name": "Ytrac", "slug": "ytrac", "gps_lat": 44.92756019999999, "gps_lng": 2.4307539 }, { "id": 5302, "department_code": "15", "insee_code": "15267", "zip_code": "15130", "name": "Ytrac", "slug": "ytrac", "gps_lat": 44.914802, "gps_lng": 2.363343 }, { "id": 5684, "department_code": "16", "insee_code": "16424", "zip_code": "16210", "name": "Yviers", "slug": "yviers", "gps_lat": 45.27736333333335, "gps_lng": -0.02635624113474999 }, { "id": 5685, "department_code": "16", "insee_code": "16425", "zip_code": "16110", "name": "Yvrac-et-Malleyrand", "slug": "yvrac et malleyrand", "gps_lat": 45.73271938547485, "gps_lng": 0.4655394972067 }, { "id": 6150, "department_code": "17", "insee_code": "17483", "zip_code": "17340", "name": "Yves", "slug": "yves", "gps_lat": 46.03644892857141, "gps_lng": -1.036988 }, { "id": 6728, "department_code": "19", "insee_code": "19289", "zip_code": "19310", "name": "Yssandon", "slug": "yssandon", "gps_lat": 45.2048156521739, "gps_lng": 1.38636092391304 }, { "id": 7786, "department_code": "22", "insee_code": "22389", "zip_code": "22120", "name": "Yffiniac", "slug": "yffiniac", "gps_lat": 48.46787733840301, "gps_lng": -2.68574144486692 }, { "id": 7787, "department_code": "22", "insee_code": "22390", "zip_code": "22930", "name": "Yvias", "slug": "yvias", "gps_lat": 48.7168834463277, "gps_lng": -3.04582152542373 }, { "id": 7788, "department_code": "22", "insee_code": "22391", "zip_code": "22350", "name": "Yvignac-la-Tour", "slug": "yvignac la tour", "gps_lat": 48.3518382969432, "gps_lng": -2.16860131004367 }, { "id": 10506, "department_code": "28", "insee_code": "28423", "zip_code": "28130", "name": "Yermenonville", "slug": "yermenonville", "gps_lat": 48.552832, "gps_lng": 1.6229168999999999 }, { "id": 10507, "department_code": "28", "insee_code": "28424", "zip_code": "28160", "name": "Yèvres", "slug": "yevres", "gps_lat": 48.18771098290598, "gps_lng": 1.19594038461538 }, { "id": 10508, "department_code": "28", "insee_code": "28425", "zip_code": "28320", "name": "Ymeray", "slug": "ymeray", "gps_lat": 48.51059337209303, "gps_lng": 1.7064769767441899 }, { "id": 10509, "department_code": "28", "insee_code": "28426", "zip_code": "28150", "name": "Ymonville", "slug": "ymonville", "gps_lat": 48.24301288461541, "gps_lng": 1.74226461538461 }, { "id": 13114, "department_code": "33", "insee_code": "33554", "zip_code": "33370", "name": "Yvrac", "slug": "yvrac", "gps_lat": 44.88418192307692, "gps_lng": -0.46928641025641005 }, { "id": 14325, "department_code": "37", "insee_code": "37282", "zip_code": "37290", "name": "Yzeures-sur-Creuse", "slug": "yzeures sur creuse", "gps_lat": 46.78932999999999, "gps_lng": 0.87332047058823 }, { "id": 15699, "department_code": "40", "insee_code": "40332", "zip_code": "40160", "name": "Ychoux", "slug": "ychoux", "gps_lat": 44.35271111111111, "gps_lng": -0.94814388888889 }, { "id": 15700, "department_code": "40", "insee_code": "40333", "zip_code": "40110", "name": "Ygos-Saint-Saturnin", "slug": "ygos saint saturnin", "gps_lat": 43.98541516129031, "gps_lng": -0.7399223655914 }, { "id": 15701, "department_code": "40", "insee_code": "40334", "zip_code": "40180", "name": "Yzosse", "slug": "yzosse", "gps_lat": 43.72110277777778, "gps_lng": -1.01545555555556 }, { "id": 15974, "department_code": "41", "insee_code": "41297", "zip_code": "41600", "name": "Yvoy-le-Marron", "slug": "yvoy le marron", "gps_lat": 47.64443086419756, "gps_lng": 1.8583907818930099 }, { "id": 16562, "department_code": "43", "insee_code": "43268", "zip_code": "43200", "name": "Yssingeaux", "slug": "yssingeaux", "gps_lat": 45.14363796577945, "gps_lng": 4.12579733840304 }, { "id": 17102, "department_code": "45", "insee_code": "45348", "zip_code": "45300", "name": "Yèvre-la-Ville", "slug": "yevre la ville", "gps_lat": 48.1463024, "gps_lng": 2.3317202 }, { "id": 18126, "department_code": "49", "insee_code": "49381", "zip_code": "49360", "name": "Yzernay", "slug": "yzernay", "gps_lat": 47.03080188953489, "gps_lng": -0.68528959302326 }, { "id": 18620, "department_code": "50", "insee_code": "50647", "zip_code": "50400", "name": "Yquelon", "slug": "yquelon", "gps_lat": 48.8460084, "gps_lng": -1.55241733333333 }, { "id": 18621, "department_code": "50", "insee_code": "50648", "zip_code": "50700", "name": "Yvetot-Bocage", "slug": "yvetot bocage", "gps_lat": 49.48938309859155, "gps_lng": -1.50417809859155 }, { "id": 21993, "department_code": "57", "insee_code": "57757", "zip_code": "57970", "name": "Yutz", "slug": "yutz", "gps_lat": 49.35041418079096, "gps_lng": 6.20002745762712 }, { "id": 24955, "department_code": "62", "insee_code": "62909", "zip_code": "62124", "name": "Ytres", "slug": "ytres", "gps_lat": 50.06581494117648, "gps_lng": 2.99463270588235 }, { "id": 25421, "department_code": "63", "insee_code": "63471", "zip_code": "63700", "name": "Youx", "slug": "youx", "gps_lat": 46.13955980620155, "gps_lng": 2.8018387209302302 }, { "id": 25422, "department_code": "63", "insee_code": "63472", "zip_code": "63270", "name": "Yronde-et-Buron", "slug": "yronde et buron", "gps_lat": 45.61257351851853, "gps_lng": 3.25640092592593 }, { "id": 25423, "department_code": "63", "insee_code": "63473", "zip_code": "63200", "name": "Yssac-la-Tourette", "slug": "yssac la tourette", "gps_lat": 45.93329283950619, "gps_lng": 3.08855777777778 }, { "id": 27819, "department_code": "69", "insee_code": "69269", "zip_code": "69510", "name": "Yzeron", "slug": "yzeron", "gps_lat": 45.70892374999999, "gps_lng": 4.60139375 }, { "id": 29320, "department_code": "72", "insee_code": "72385", "zip_code": "72330", "name": "Yvré-le-Pôlin", "slug": "yvre le polin", "gps_lat": 47.82908643478261, "gps_lng": 0.15468356521739 }, { "id": 29321, "department_code": "72", "insee_code": "72386", "zip_code": "72530", "name": "Yvré-l'Évêque", "slug": "yvre l eveque", "gps_lat": 48.03293639097743, "gps_lng": 0.2911427443609 }, { "id": 29610, "department_code": "73", "insee_code": "73330", "zip_code": "73170", "name": "Yenne", "slug": "yenne", "gps_lat": 45.70661359712231, "gps_lng": 5.76622884892086 }, { "id": 29899, "department_code": "74", "insee_code": "74315", "zip_code": "74140", "name": "Yvoire", "slug": "yvoire", "gps_lat": 46.36344295774647, "gps_lng": 6.33093830985916 }, { "id": 30629, "department_code": "76", "insee_code": "76750", "zip_code": "76480", "name": "Yainville", "slug": "yainville", "gps_lat": 49.45800573529412, "gps_lng": 0.82986161764706 }, { "id": 30630, "department_code": "76", "insee_code": "76751", "zip_code": "76640", "name": "Yébleron", "slug": "yebleron", "gps_lat": 49.63113142857143, "gps_lng": 0.53943545454545 }, { "id": 30631, "department_code": "76", "insee_code": "76752", "zip_code": "76760", "name": "Yerville", "slug": "yerville", "gps_lat": 49.67203766666668, "gps_lng": 0.88825366666667 }, { "id": 30632, "department_code": "76", "insee_code": "76753", "zip_code": "76520", "name": "Ymare", "slug": "ymare", "gps_lat": 49.3457017977528, "gps_lng": 1.16618966292135 }, { "id": 30633, "department_code": "76", "insee_code": "76754", "zip_code": "76111", "name": "Yport", "slug": "yport", "gps_lat": 49.73511307692306, "gps_lng": 0.31648942307692 }, { "id": 30634, "department_code": "76", "insee_code": "76755", "zip_code": "76540", "name": "Ypreville-Biville", "slug": "ypreville biville", "gps_lat": 49.69358046511627, "gps_lng": 0.53113174418605 }, { "id": 30635, "department_code": "76", "insee_code": "76756", "zip_code": "76690", "name": "Yquebeuf", "slug": "yquebeuf", "gps_lat": 49.59218825396827, "gps_lng": 1.25589555555556 }, { "id": 30636, "department_code": "76", "insee_code": "76757", "zip_code": "76560", "name": "Yvecrique", "slug": "yvecrique", "gps_lat": 49.68781, "gps_lng": 0.81010078125 }, { "id": 30637, "department_code": "76", "insee_code": "76758", "zip_code": "76190", "name": "Yvetot", "slug": "yvetot", "gps_lat": 49.61585402061854, "gps_lng": 0.76488278350515 }, { "id": 30638, "department_code": "76", "insee_code": "76759", "zip_code": "76530", "name": "Yville-sur-Seine", "slug": "yville sur seine", "gps_lat": 49.41209771929825, "gps_lng": 0.88634719298246 }, { "id": 31148, "department_code": "77", "insee_code": "77534", "zip_code": "77390", "name": "Yèbles", "slug": "yebles", "gps_lat": 48.63949653846155, "gps_lng": 2.76778192307692 }, { "id": 32478, "department_code": "80", "insee_code": "80829", "zip_code": "80190", "name": "Y", "slug": "y", "gps_lat": 49.8048021875, "gps_lng": 2.984489375 }, { "id": 32479, "department_code": "80", "insee_code": "80830", "zip_code": "80135", "name": "Yaucourt-Bussus", "slug": "yaucourt bussus", "gps_lat": 50.1081408219178, "gps_lng": 1.9765801369862999 }, { "id": 32480, "department_code": "80", "insee_code": "80832", "zip_code": "80150", "name": "Yvrench", "slug": "yvrench", "gps_lat": 50.18448957142857, "gps_lng": 2.01438728571429 }, { "id": 32481, "department_code": "80", "insee_code": "80833", "zip_code": "80150", "name": "Yvrencheux", "slug": "yvrencheux", "gps_lat": 50.17537108433737, "gps_lng": 1.98721180722892 }, { "id": 32482, "department_code": "80", "insee_code": "80834", "zip_code": "80520", "name": "Yzengremer", "slug": "yzengremer", "gps_lat": 50.06076125000001, "gps_lng": 1.5187675 }, { "id": 32483, "department_code": "80", "insee_code": "80835", "zip_code": "80310", "name": "Yzeux", "slug": "yzeux", "gps_lat": 49.97982500000001, "gps_lng": 2.10839891304348 }, { "id": 32484, "department_code": "80", "insee_code": "80836", "zip_code": "80132", "name": "Yonval", "slug": "yonval", "gps_lat": 50.09191063829788, "gps_lng": 1.79281042553191 }, { "id": 33854, "department_code": "86", "insee_code": "86300", "zip_code": "86170", "name": "Yversay", "slug": "yversay", "gps_lat": 46.67317181818182, "gps_lng": 0.20920295454545 }, { "id": 34996, "department_code": "89", "insee_code": "89486", "zip_code": "89700", "name": "Yrouerre", "slug": "yrouerre", "gps_lat": 47.7842951612903, "gps_lng": 3.96053516129032 }, { "id": 35294, "department_code": "91", "insee_code": "91691", "zip_code": "91330", "name": "Yerres", "slug": "yerres", "gps_lat": 48.7132115625, "gps_lng": 2.49039822916667 }, { "id": 35851, "department_code": "988", "insee_code": null, "zip_code": "98834", "name": "Yaté", "slug": "yate", "gps_lat": -22.1593698, "gps_lng": 166.9442699 }]
