[{ "id": 10915, "department_code": "2A", "insee_code": "2A357", "zip_code": "20116", "name": "Zérubia", "slug": "zerubia", "gps_lat": 41.74813549295774, "gps_lng": 9.06513394366197 }, { "id": 10916, "department_code": "2A", "insee_code": "2A358", "zip_code": "20173", "name": "Zévaco", "slug": "zevaco", "gps_lat": 41.88900317919075, "gps_lng": 9.04797774566473 }, { "id": 10917, "department_code": "2A", "insee_code": "2A359", "zip_code": "20132", "name": "Zicavo", "slug": "zicavo", "gps_lat": 41.88835421383648, "gps_lng": 9.15423704402516 }, { "id": 10918, "department_code": "2A", "insee_code": "2A360", "zip_code": "20190", "name": "Zigliara", "slug": "zigliara", "gps_lat": 41.8363354787234, "gps_lng": 8.98465319148936 }, { "id": 10919, "department_code": "2A", "insee_code": "2A362", "zip_code": "20124", "name": "Zonza", "slug": "zonza", "gps_lat": 41.7496078, "gps_lng": 9.171863 }, { "id": 10920, "department_code": "2A", "insee_code": "2A362", "zip_code": "20144", "name": "Zonza", "slug": "zonza", "gps_lat": 41.6868954, "gps_lng": 9.356209400000001 }, { "id": 10921, "department_code": "2A", "insee_code": "2A363", "zip_code": "20112", "name": "Zoza", "slug": "zoza", "gps_lat": 41.71825794871794, "gps_lng": 9.06483423076923 }, { "id": 11159, "department_code": "2B", "insee_code": "2B356", "zip_code": "20272", "name": "Zalana", "slug": "zalana", "gps_lat": 42.25402028571429, "gps_lng": 9.37985707142857 }, { "id": 11160, "department_code": "2B", "insee_code": "2B361", "zip_code": "20214", "name": "Zilia", "slug": "zilia", "gps_lat": 42.52273640243902, "gps_lng": 8.89898408536586 }, { "id": 11161, "department_code": "2B", "insee_code": "2B364", "zip_code": "20272", "name": "Zuani", "slug": "zuani", "gps_lat": 42.2632825609756, "gps_lng": 9.34209682926829 }, { "id": 21994, "department_code": "57", "insee_code": "57759", "zip_code": "57340", "name": "Zarbeling", "slug": "zarbeling", "gps_lat": 48.88991164835167, "gps_lng": 6.68925824175824 }, { "id": 21995, "department_code": "57", "insee_code": "57760", "zip_code": "57905", "name": "Zetting", "slug": "zetting", "gps_lat": 49.07241112903227, "gps_lng": 7.12462032258065 }, { "id": 21996, "department_code": "57", "insee_code": "57761", "zip_code": "57370", "name": "Zilling", "slug": "zilling", "gps_lat": 48.78827954128442, "gps_lng": 7.21140422018348 }, { "id": 21997, "department_code": "57", "insee_code": "57762", "zip_code": "57690", "name": "Zimming", "slug": "zimming", "gps_lat": 49.12883245901639, "gps_lng": 6.57979393442623 }, { "id": 21998, "department_code": "57", "insee_code": "57763", "zip_code": "57260", "name": "Zommange", "slug": "zommange", "gps_lat": 48.82474737704918, "gps_lng": 6.7994114754098405 }, { "id": 21999, "department_code": "57", "insee_code": "57764", "zip_code": "57330", "name": "Zoufftgen", "slug": "zoufftgen", "gps_lat": 49.46665355263158, "gps_lng": 6.1360352631579 }, { "id": 22966, "department_code": "59", "insee_code": "59666", "zip_code": "59470", "name": "Zegerscappel", "slug": "zegerscappel", "gps_lat": 50.88032580645163, "gps_lng": 2.37425376344086 }, { "id": 22967, "department_code": "59", "insee_code": "59667", "zip_code": "59670", "name": "Zermezeele", "slug": "zermezeele", "gps_lat": 50.839734310344824, "gps_lng": 2.45928965517241 }, { "id": 22968, "department_code": "59", "insee_code": "59668", "zip_code": "59123", "name": "Zuydcoote", "slug": "zuydcoote", "gps_lat": 51.05939658536585, "gps_lng": 2.48929731707317 }, { "id": 22969, "department_code": "59", "insee_code": "59669", "zip_code": "59670", "name": "Zuytpeene", "slug": "zuytpeene", "gps_lat": 50.79090827586209, "gps_lng": 2.42785045977011 }, { "id": 24949, "department_code": "62", "insee_code": "62903", "zip_code": "62650", "name": "Zoteux", "slug": "zoteux", "gps_lat": 50.61626366197185, "gps_lng": 1.8879023943662 }, { "id": 24950, "department_code": "62", "insee_code": "62904", "zip_code": "62890", "name": "Zouafques", "slug": "zouafques", "gps_lat": 50.82143623188406, "gps_lng": 2.05630231884058 }, { "id": 24951, "department_code": "62", "insee_code": "62905", "zip_code": "62500", "name": "Zudausques", "slug": "zudausques", "gps_lat": 50.75246105882353, "gps_lng": 2.15943941176471 }, { "id": 24952, "department_code": "62", "insee_code": "62906", "zip_code": "62370", "name": "Zutkerque", "slug": "zutkerque", "gps_lat": 50.8535220855615, "gps_lng": 2.06213877005348 }, { "id": 27187, "department_code": "67", "insee_code": "67555", "zip_code": "67310", "name": "Zehnacker", "slug": "zehnacker", "gps_lat": 48.67159487179487, "gps_lng": 7.45244846153846 }, { "id": 27188, "department_code": "67", "insee_code": "67556", "zip_code": "67310", "name": "Zeinheim", "slug": "zeinheim", "gps_lat": 48.67712302325581, "gps_lng": 7.48835279069767 }, { "id": 27189, "department_code": "67", "insee_code": "67557", "zip_code": "67140", "name": "Zellwiller", "slug": "zellwiller", "gps_lat": 48.39949366336632, "gps_lng": 7.51755702970297 }, { "id": 27190, "department_code": "67", "insee_code": "67558", "zip_code": "67110", "name": "Zinswiller", "slug": "zinswiller", "gps_lat": 48.91455631901844, "gps_lng": 7.58969840490798 }, { "id": 27191, "department_code": "67", "insee_code": "67559", "zip_code": "67290", "name": "Zittersheim", "slug": "zittersheim", "gps_lat": 48.90134640000001, "gps_lng": 7.3427284 }, { "id": 27557, "department_code": "68", "insee_code": "68382", "zip_code": "68130", "name": "Zaessingue", "slug": "zaessingue", "gps_lat": 47.62069071428571, "gps_lng": 7.37585857142857 }, { "id": 27558, "department_code": "68", "insee_code": "68383", "zip_code": "68340", "name": "Zellenberg", "slug": "zellenberg", "gps_lat": 48.17268291666666, "gps_lng": 7.33218513888889 }, { "id": 27559, "department_code": "68", "insee_code": "68384", "zip_code": "68720", "name": "Zillisheim", "slug": "zillisheim", "gps_lat": 47.68874388349514, "gps_lng": 7.30465145631068 }, { "id": 27560, "department_code": "68", "insee_code": "68385", "zip_code": "68230", "name": "Zimmerbach", "slug": "zimmerbach", "gps_lat": 48.07466023255815, "gps_lng": 7.23302895348837 }, { "id": 27561, "department_code": "68", "insee_code": "68386", "zip_code": "68440", "name": "Zimmersheim", "slug": "zimmersheim", "gps_lat": 47.7184909589041, "gps_lng": 7.38247164383561 }, { "id": 34563, "department_code": "88", "insee_code": "88532", "zip_code": "88330", "name": "Zincourt", "slug": "zincourt", "gps_lat": 48.30741045454544, "gps_lng": 6.44403488636364 }]
