[{"id":133,"department_code":"01","insee_code":"01142","zip_code":"01120","name":"Dagneux","slug":"dagneux","gps_lat":45.85737752808989,"gps_lng":5.07446685393258},{"id":134,"department_code":"01","insee_code":"01143","zip_code":"01220","name":"Divonne-les-Bains","slug":"divonne les bains","gps_lat":46.37205264999999,"gps_lng":6.11931745000001},{"id":135,"department_code":"01","insee_code":"01145","zip_code":"01240","name":"Dompierre-sur-Veyle","slug":"dompierre sur veyle","gps_lat":46.06563677248678,"gps_lng":5.21518756613756},{"id":136,"department_code":"01","insee_code":"01146","zip_code":"01400","name":"Dompierre-sur-Chalaronne","slug":"dompierre sur chalaronne","gps_lat":46.14391727941179,"gps_lng":4.90061426470588},{"id":137,"department_code":"01","insee_code":"01147","zip_code":"01270","name":"Domsure","slug":"domsure","gps_lat":46.42420143312104,"gps_lng":5.29311321656051},{"id":138,"department_code":"01","insee_code":"01148","zip_code":"01590","name":"Dortan","slug":"dortan","gps_lat":46.31347978102192,"gps_lng":5.64523664233577},{"id":139,"department_code":"01","insee_code":"01149","zip_code":"01500","name":"Douvres","slug":"douvres","gps_lat":45.98536054945053,"gps_lng":5.37412945054945},{"id":140,"department_code":"01","insee_code":"01150","zip_code":"01250","name":"Drom","slug":"drom","gps_lat":46.22362682692308,"gps_lng":5.36996903846154},{"id":141,"department_code":"01","insee_code":"01151","zip_code":"01160","name":"Druillat","slug":"druillat","gps_lat":46.06840720588238,"gps_lng":5.29528764705882},{"id":661,"department_code":"02","insee_code":"02256","zip_code":"02140","name":"Dagny-Lambercy","slug":"dagny lambercy","gps_lat":49.77418212765959,"gps_lng":4.05192510638298},{"id":662,"department_code":"02","insee_code":"02257","zip_code":"02680","name":"Dallon","slug":"dallon","gps_lat":49.81984323076923,"gps_lng":3.23155646153846},{"id":663,"department_code":"02","insee_code":"02258","zip_code":"02470","name":"Dammard","slug":"dammard","gps_lat":49.14403333333335,"gps_lng":3.16748864864865},{"id":664,"department_code":"02","insee_code":"02259","zip_code":"02600","name":"Dampleux","slug":"dampleux","gps_lat":49.23609518518519,"gps_lng":3.15227407407407},{"id":665,"department_code":"02","insee_code":"02260","zip_code":"02800","name":"Danizy","slug":"danizy","gps_lat":49.66747578947369,"gps_lng":3.39946157894737},{"id":666,"department_code":"02","insee_code":"02261","zip_code":"02270","name":"Dercy","slug":"dercy","gps_lat":49.70732422222224,"gps_lng":3.68488555555555},{"id":667,"department_code":"02","insee_code":"02262","zip_code":"02700","name":"Deuillet","slug":"deuillet","gps_lat":49.62831686567164,"gps_lng":3.36344208955224},{"id":668,"department_code":"02","insee_code":"02263","zip_code":"02220","name":"Dhuizel","slug":"dhuizel","gps_lat":49.3629128,"gps_lng":3.6225712},{"id":669,"department_code":"02","insee_code":"02264","zip_code":"02340","name":"Dizy-le-Gros","slug":"dizy le gros","gps_lat":49.63944631578948,"gps_lng":4.02509642105263},{"id":670,"department_code":"02","insee_code":"02265","zip_code":"02360","name":"Dohis","slug":"dohis","gps_lat":49.76640151898733,"gps_lng":4.13426569620253},{"id":671,"department_code":"02","insee_code":"02266","zip_code":"02360","name":"Dolignon","slug":"dolignon","gps_lat":49.72663279279281,"gps_lng":4.08707171171171},{"id":672,"department_code":"02","insee_code":"02267","zip_code":"02600","name":"Dommiers","slug":"dommiers","gps_lat":49.32892524999998,"gps_lng":3.213781},{"id":673,"department_code":"02","insee_code":"02268","zip_code":"02310","name":"Domptin","slug":"domptin","gps_lat":49.01430936170213,"gps_lng":3.27037829787234},{"id":674,"department_code":"02","insee_code":"02269","zip_code":"02450","name":"Dorengt","slug":"dorengt","gps_lat":49.96695722891566,"gps_lng":3.70446524096385},{"id":675,"department_code":"02","insee_code":"02270","zip_code":"02590","name":"Douchy","slug":"douchy","gps_lat":49.79094306451613,"gps_lng":3.13222806451613},{"id":676,"department_code":"02","insee_code":"02271","zip_code":"02130","name":"Dravegny","slug":"dravegny","gps_lat":49.23997655844157,"gps_lng":3.64312688311688},{"id":677,"department_code":"02","insee_code":"02272","zip_code":"02210","name":"Droizy","slug":"droizy","gps_lat":49.27586669999998,"gps_lng":3.3841947},{"id":678,"department_code":"02","insee_code":"02273","zip_code":"02480","name":"Dury","slug":"dury","gps_lat":49.74700315789472,"gps_lng":3.136028},{"id":853,"department_code":"02","insee_code":"02458","zip_code":"02330","name":"Dhuys et Morin-en-Brie","slug":"dhuys et morin en brie","gps_lat":48.9290817,"gps_lng":3.5525729999999998},{"id":854,"department_code":"02","insee_code":"02458","zip_code":"02540","name":"Dhuys et Morin-en-Brie","slug":"dhuys et morin en brie","gps_lat":48.88310250000001,"gps_lng":3.484261},{"id":1314,"department_code":"03","insee_code":"03096","zip_code":"03140","name":"Deneuille-lès-Chantelle","slug":"deneuille les chantelle","gps_lat":46.24652127659575,"gps_lng":3.14669861702128},{"id":1315,"department_code":"03","insee_code":"03097","zip_code":"03170","name":"Deneuille-les-Mines","slug":"deneuille les mines","gps_lat":46.37778280193238,"gps_lng":2.77439381642512},{"id":1316,"department_code":"03","insee_code":"03098","zip_code":"03630","name":"Désertines","slug":"desertines","gps_lat":46.35737432432435,"gps_lng":2.62530045045045},{"id":1317,"department_code":"03","insee_code":"03099","zip_code":"03240","name":"Deux-Chaises","slug":"deux chaises","gps_lat":46.37269411552348,"gps_lng":3.04279992779784},{"id":1318,"department_code":"03","insee_code":"03100","zip_code":"03290","name":"Diou","slug":"diou","gps_lat":46.52263319796956,"gps_lng":3.73401263959391},{"id":1319,"department_code":"03","insee_code":"03101","zip_code":"03410","name":"Domérat","slug":"domerat","gps_lat":46.36810352941179,"gps_lng":2.54161235294118},{"id":1320,"department_code":"03","insee_code":"03102","zip_code":"03290","name":"Dompierre-sur-Besbre","slug":"dompierre sur besbre","gps_lat":46.53205682215745,"gps_lng":3.67855658892128},{"id":1322,"department_code":"03","insee_code":"03104","zip_code":"03170","name":"Doyet","slug":"doyet","gps_lat":46.3455857653061,"gps_lng":2.7907191326530603},{"id":1323,"department_code":"03","insee_code":"03105","zip_code":"03120","name":"Droiturier","slug":"droiturier","gps_lat":46.23130424242426,"gps_lng":3.70716909090909},{"id":1324,"department_code":"03","insee_code":"03106","zip_code":"03310","name":"Durdat-Larequille","slug":"durdat larequille","gps_lat":46.25492204761906,"gps_lng":2.68911438095238},{"id":1590,"department_code":"04","insee_code":"04068","zip_code":"04300","name":"Dauphin","slug":"dauphin","gps_lat":43.89147144067796,"gps_lng":5.77590610169491},{"id":1591,"department_code":"04","insee_code":"04069","zip_code":"04120","name":"Demandolx","slug":"demandolx","gps_lat":43.87002000000002,"gps_lng":6.55335409090909},{"id":1592,"department_code":"04","insee_code":"04070","zip_code":"04000","name":"Digne-les-Bains","slug":"digne les bains","gps_lat":44.08716544086023,"gps_lng":6.24783086021506},{"id":1593,"department_code":"04","insee_code":"04072","zip_code":"04420","name":"Draix","slug":"draix","gps_lat":44.13182845528453,"gps_lng":6.37132300813008},{"id":1862,"department_code":"05","insee_code":"05139","zip_code":"05250","name":"Dévoluy","slug":"devoluy","gps_lat":44.68315431754872,"gps_lng":5.88321579387187},{"id":1957,"department_code":"06","insee_code":"06053","zip_code":"06470","name":"Daluis","slug":"daluis","gps_lat":44.0409181111111,"gps_lng":6.81103238888889},{"id":1958,"department_code":"06","insee_code":"06054","zip_code":"06340","name":"Drap","slug":"drap","gps_lat":43.75826695652174,"gps_lng":7.34009226086956},{"id":1959,"department_code":"06","insee_code":"06055","zip_code":"06670","name":"Duranus","slug":"duranus","gps_lat":43.89695219653177,"gps_lng":7.28543040462428},{"id":2145,"department_code":"07","insee_code":"07077","zip_code":"07170","name":"Darbres","slug":"darbres","gps_lat":44.65737204188479,"gps_lng":4.51604607329843},{"id":2146,"department_code":"07","insee_code":"07078","zip_code":"07430","name":"Davézieux","slug":"davezieux","gps_lat":45.25269084337351,"gps_lng":4.69237084337349},{"id":2147,"department_code":"07","insee_code":"07079","zip_code":"07570","name":"Désaignes","slug":"desaignes","gps_lat":44.9968530976431,"gps_lng":4.50139808080808},{"id":2148,"department_code":"07","insee_code":"07080","zip_code":"07320","name":"Devesset","slug":"devesset","gps_lat":45.06878790513838,"gps_lng":4.39704387351779},{"id":2149,"department_code":"07","insee_code":"07081","zip_code":"07260","name":"Dompnac","slug":"dompnac","gps_lat":44.55845122302158,"gps_lng":4.11003374100719},{"id":2150,"department_code":"07","insee_code":"07082","zip_code":"07160","name":"Dornas","slug":"dornas","gps_lat":44.85382311258277,"gps_lng":4.35718536423841},{"id":2151,"department_code":"07","insee_code":"07083","zip_code":"07360","name":"Dunière-sur-Eyrieux","slug":"duniere sur eyrieux","gps_lat":44.8348497810219,"gps_lng":4.6487085401459805},{"id":2536,"department_code":"08","insee_code":"08136","zip_code":"08140","name":"Daigny","slug":"daigny","gps_lat":49.70408487804878,"gps_lng":5.00267536585366},{"id":2537,"department_code":"08","insee_code":"08137","zip_code":"08090","name":"Damouzy","slug":"damouzy","gps_lat":49.80926308108107,"gps_lng":4.6831518918918995},{"id":2539,"department_code":"08","insee_code":"08139","zip_code":"08800","name":"Deville","slug":"deville","gps_lat":49.87936785714285,"gps_lng":4.69178571428571},{"id":2540,"department_code":"08","insee_code":"08140","zip_code":"08160","name":"Dom-le-Mesnil","slug":"dom le mesnil","gps_lat":49.68660797752807,"gps_lng":4.8145804494382},{"id":2541,"department_code":"08","insee_code":"08141","zip_code":"08460","name":"Dommery","slug":"dommery","gps_lat":49.68019468750001,"gps_lng":4.4841065625},{"id":2542,"department_code":"08","insee_code":"08142","zip_code":"08350","name":"Donchery","slug":"donchery","gps_lat":49.73147821052635,"gps_lng":4.88594863157895},{"id":2543,"department_code":"08","insee_code":"08143","zip_code":"08220","name":"Doumely-Bégny","slug":"doumely begny","gps_lat":49.63335492537312,"gps_lng":4.30427686567164},{"id":2544,"department_code":"08","insee_code":"08144","zip_code":"08300","name":"Doux","slug":"doux","gps_lat":49.51465581818184,"gps_lng":4.42920818181818},{"id":2545,"department_code":"08","insee_code":"08145","zip_code":"08140","name":"Douzy","slug":"douzy","gps_lat":49.66287835748789,"gps_lng":5.04334492753623},{"id":2546,"department_code":"08","insee_code":"08146","zip_code":"08220","name":"Draize","slug":"draize","gps_lat":49.65319624999999,"gps_lng":4.33176875},{"id":2547,"department_code":"08","insee_code":"08147","zip_code":"08310","name":"Dricourt","slug":"dricourt","gps_lat":49.3923979245283,"gps_lng":4.51491245283019},{"id":2972,"department_code":"09","insee_code":"09104","zip_code":"09120","name":"Dalou","slug":"dalou","gps_lat":43.02852784810126,"gps_lng":1.64881734177215},{"id":2973,"department_code":"09","insee_code":"09105","zip_code":"09350","name":"Daumazan-sur-Arize","slug":"daumazan sur arize","gps_lat":43.14567169014084,"gps_lng":1.29854394366197},{"id":2974,"department_code":"09","insee_code":"09106","zip_code":"09300","name":"Dreuilhe","slug":"dreuilhe","gps_lat":42.94414616438356,"gps_lng":1.8676197260274},{"id":2975,"department_code":"09","insee_code":"09107","zip_code":"09600","name":"Dun","slug":"dun","gps_lat":43.0234961083744,"gps_lng":1.7869869950738901},{"id":2976,"department_code":"09","insee_code":"09108","zip_code":"09240","name":"Durban-sur-Arize","slug":"durban sur arize","gps_lat":43.01834100000001,"gps_lng":1.351670125},{"id":2977,"department_code":"09","insee_code":"09109","zip_code":"09130","name":"Durfort","slug":"durfort","gps_lat":43.19373169230768,"gps_lng":1.46126015384615},{"id":3314,"department_code":"10","insee_code":"10121","zip_code":"10240","name":"Dampierre","slug":"dampierre","gps_lat":48.56292811764705,"gps_lng":4.36754},{"id":3315,"department_code":"10","insee_code":"10122","zip_code":"10130","name":"Davrey","slug":"davrey","gps_lat":48.050081496063,"gps_lng":3.95618},{"id":3316,"department_code":"10","insee_code":"10123","zip_code":"10500","name":"Dienville","slug":"dienville","gps_lat":48.32675531914894,"gps_lng":4.5115714893617},{"id":3317,"department_code":"10","insee_code":"10124","zip_code":"10190","name":"Dierrey-Saint-Julien","slug":"dierrey saint julien","gps_lat":48.30102929577465,"gps_lng":3.83369056338028},{"id":3318,"department_code":"10","insee_code":"10125","zip_code":"10190","name":"Dierrey-Saint-Pierre","slug":"dierrey saint pierre","gps_lat":48.32821628205128,"gps_lng":3.83868320512821},{"id":3319,"department_code":"10","insee_code":"10126","zip_code":"10200","name":"Dolancourt","slug":"dolancourt","gps_lat":48.2696042,"gps_lng":4.613415},{"id":3320,"department_code":"10","insee_code":"10127","zip_code":"10240","name":"Dommartin-le-Coq","slug":"dommartin le coq","gps_lat":48.49499696202533,"gps_lng":4.35114291139241},{"id":3321,"department_code":"10","insee_code":"10128","zip_code":"10330","name":"Donnement","slug":"donnement","gps_lat":48.52042548387098,"gps_lng":4.43074112903226},{"id":3322,"department_code":"10","insee_code":"10129","zip_code":"10220","name":"Dosches","slug":"dosches","gps_lat":48.303914478527616,"gps_lng":4.28563601226994},{"id":3323,"department_code":"10","insee_code":"10130","zip_code":"10700","name":"Dosnon","slug":"dosnon","gps_lat":48.61693421052632,"gps_lng":4.24926105263158},{"id":3324,"department_code":"10","insee_code":"10131","zip_code":"10170","name":"Droupt-Saint-Basle","slug":"droupt saint basle","gps_lat":48.48114702702703,"gps_lng":3.94513162162162},{"id":3325,"department_code":"10","insee_code":"10132","zip_code":"10170","name":"Droupt-Sainte-Marie","slug":"droupt sainte marie","gps_lat":48.49371992857142,"gps_lng":3.92577271428571},{"id":3744,"department_code":"11","insee_code":"11117","zip_code":"11330","name":"Davejean","slug":"davejean","gps_lat":42.97030244897958,"gps_lng":2.60420020408163},{"id":3745,"department_code":"11","insee_code":"11118","zip_code":"11330","name":"Dernacueillette","slug":"dernacueillette","gps_lat":42.92908833333333,"gps_lng":2.607233},{"id":3748,"department_code":"11","insee_code":"11121","zip_code":"11240","name":"Donazac","slug":"donazac","gps_lat":43.07858978723404,"gps_lng":2.12876095744681},{"id":3749,"department_code":"11","insee_code":"11122","zip_code":"11700","name":"Douzens","slug":"douzens","gps_lat":43.17982037974683,"gps_lng":2.61080987341772},{"id":3750,"department_code":"11","insee_code":"11123","zip_code":"11350","name":"Duilhac-sous-Peyrepertuse","slug":"duilhac sous peyrepertuse","gps_lat":42.86159304347825,"gps_lng":2.56430202898551},{"id":3751,"department_code":"11","insee_code":"11124","zip_code":"11360","name":"Durban-Corbières","slug":"durban corbieres","gps_lat":42.98944399999999,"gps_lng":2.82760955555555},{"id":4149,"department_code":"12","insee_code":"12089","zip_code":"12300","name":"Decazeville","slug":"decazeville","gps_lat":44.56678713567839,"gps_lng":2.25847396984925},{"id":4150,"department_code":"12","insee_code":"12090","zip_code":"12000","name":"Druelle Balsac","slug":"druelle balsac","gps_lat":44.3467485,"gps_lng":2.5742907},{"id":4151,"department_code":"12","insee_code":"12090","zip_code":"12510","name":"Druelle Balsac","slug":"druelle balsac","gps_lat":44.402442,"gps_lng":2.443968},{"id":4152,"department_code":"12","insee_code":"12091","zip_code":"12350","name":"Drulhe","slug":"drulhe","gps_lat":44.45649673366834,"gps_lng":2.13634115577889},{"id":4153,"department_code":"12","insee_code":"12092","zip_code":"12170","name":"Durenque","slug":"durenque","gps_lat":44.10426715953306,"gps_lng":2.62022408560311},{"id":4664,"department_code":"14","insee_code":"14216","zip_code":"14620","name":"Damblainville","slug":"damblainville","gps_lat":48.91845585585585,"gps_lng":-0.12461594594595005},{"id":4665,"department_code":"14","insee_code":"14218","zip_code":"14430","name":"Danestal","slug":"danestal","gps_lat":49.24532869863014,"gps_lng":0.02728363013699},{"id":4666,"department_code":"14","insee_code":"14220","zip_code":"14800","name":"Deauville","slug":"deauville","gps_lat":49.35333931818181,"gps_lng":0.07648068181818},{"id":4667,"department_code":"14","insee_code":"14221","zip_code":"14840","name":"Démouville","slug":"demouville","gps_lat":49.17744145833333,"gps_lng":-0.26301312499999996},{"id":4669,"department_code":"14","insee_code":"14224","zip_code":"14230","name":"Deux-Jumeaux","slug":"deux jumeaux","gps_lat":49.35611277777778,"gps_lng":-0.97082875},{"id":4670,"department_code":"14","insee_code":"14225","zip_code":"14160","name":"Dives-sur-Mer","slug":"dives sur mer","gps_lat":49.28127336633666,"gps_lng":-0.08812811881187999},{"id":4671,"department_code":"14","insee_code":"14226","zip_code":"14220","name":"Donnay","slug":"donnay","gps_lat":48.94899007936507,"gps_lng":-0.42612055555556005},{"id":4672,"department_code":"14","insee_code":"14227","zip_code":"14430","name":"Douville-en-Auge","slug":"douville en auge","gps_lat":49.26277098039214,"gps_lng":-0.020047352941179986},{"id":4673,"department_code":"14","insee_code":"14228","zip_code":"14440","name":"Douvres-la-Délivrande","slug":"douvres la delivrande","gps_lat":49.29378287671233,"gps_lng":-0.39558315068493},{"id":4674,"department_code":"14","insee_code":"14229","zip_code":"14430","name":"Dozulé","slug":"dozule","gps_lat":49.23153192307696,"gps_lng":-0.04650173076923003},{"id":4675,"department_code":"14","insee_code":"14230","zip_code":"14130","name":"Drubec","slug":"drubec","gps_lat":49.24864898305087,"gps_lng":0.10680305084746},{"id":4677,"department_code":"14","insee_code":"14232","zip_code":"14250","name":"Ducy-Sainte-Marguerite","slug":"ducy sainte marguerite","gps_lat":49.22568380952379,"gps_lng":-0.6202369047619001},{"id":4766,"department_code":"14","insee_code":"14347","zip_code":"14260","name":"Dialan sur Chaîne","slug":"dialan sur chaine","gps_lat":49.00236807971014,"gps_lng":-0.7392042028985499},{"id":5108,"department_code":"15","insee_code":"15060","zip_code":"15110","name":"Deux-Verges","slug":"deux verges","gps_lat":44.80925857142857,"gps_lng":3.01955514285714},{"id":5109,"department_code":"15","insee_code":"15061","zip_code":"15300","name":"Dienne","slug":"dienne","gps_lat":45.16977360594797,"gps_lng":2.80729550185874},{"id":5110,"department_code":"15","insee_code":"15063","zip_code":"15140","name":"Drugeac","slug":"drugeac","gps_lat":45.1628744483986,"gps_lng":2.38775345195729},{"id":5412,"department_code":"16","insee_code":"16118","zip_code":"16190","name":"Deviat","slug":"deviat","gps_lat":45.41420724489797,"gps_lng":0.00923520408163},{"id":5413,"department_code":"16","insee_code":"16119","zip_code":"16410","name":"Dignac","slug":"dignac","gps_lat":45.55412033980586,"gps_lng":0.28597218446602},{"id":5414,"department_code":"16","insee_code":"16120","zip_code":"16410","name":"Dirac","slug":"dirac","gps_lat":45.59879632978722,"gps_lng":0.24013893617021},{"id":5415,"department_code":"16","insee_code":"16121","zip_code":"16290","name":"Douzat","slug":"douzat","gps_lat":45.70164020000001,"gps_lng":-0.00007990000000002162},{"id":5816,"department_code":"17","insee_code":"17138","zip_code":"17470","name":"Dampierre-sur-Boutonne","slug":"dampierre sur boutonne","gps_lat":46.0769195862069,"gps_lng":-0.39179186206897},{"id":5817,"department_code":"17","insee_code":"17139","zip_code":"17330","name":"Dœuil-sur-le-Mignon","slug":"doeuil sur le mignon","gps_lat":46.12688931034481,"gps_lng":-0.53848267241379},{"id":5818,"department_code":"17","insee_code":"17140","zip_code":"17550","name":"Dolus-d'Oléron","slug":"dolus d oleron","gps_lat":45.9185479245283,"gps_lng":-1.2565678490566001},{"id":5819,"department_code":"17","insee_code":"17141","zip_code":"17610","name":"Dompierre-sur-Charente","slug":"dompierre sur charente","gps_lat":45.71021033613447,"gps_lng":-0.49934504201680996},{"id":5820,"department_code":"17","insee_code":"17142","zip_code":"17139","name":"Dompierre-sur-Mer","slug":"dompierre sur mer","gps_lat":46.18254648351648,"gps_lng":-1.06582714285714},{"id":6237,"department_code":"18","insee_code":"18084","zip_code":"18260","name":"Dampierre-en-Crot","slug":"dampierre en crot","gps_lat":47.45957690140848,"gps_lng":2.58058190140845},{"id":6238,"department_code":"18","insee_code":"18085","zip_code":"18310","name":"Dampierre-en-Graçay","slug":"dampierre en gracay","gps_lat":47.18555793650795,"gps_lng":1.9395253968254},{"id":6239,"department_code":"18","insee_code":"18086","zip_code":"18200","name":"Drevant","slug":"drevant","gps_lat":46.69595786666667,"gps_lng":2.52397066666667},{"id":6240,"department_code":"18","insee_code":"18087","zip_code":"18130","name":"Dun-sur-Auron","slug":"dun sur auron","gps_lat":46.87857586206894,"gps_lng":2.57548556650246},{"id":6513,"department_code":"19","insee_code":"19068","zip_code":"19360","name":"Dampniat","slug":"dampniat","gps_lat":45.15967016326529,"gps_lng":1.63564432653061},{"id":6514,"department_code":"19","insee_code":"19069","zip_code":"19220","name":"Darazac","slug":"darazac","gps_lat":45.17102422310755,"gps_lng":2.08105689243028},{"id":6515,"department_code":"19","insee_code":"19070","zip_code":"19300","name":"Darnets","slug":"darnets","gps_lat":45.41812025787968,"gps_lng":2.11633853868195},{"id":6516,"department_code":"19","insee_code":"19071","zip_code":"19250","name":"Davignac","slug":"davignac","gps_lat":45.49372789473684,"gps_lng":2.07506701754386},{"id":6517,"department_code":"19","insee_code":"19072","zip_code":"19270","name":"Donzenac","slug":"donzenac","gps_lat":45.23048381294963,"gps_lng":1.52958503597122},{"id":6947,"department_code":"21","insee_code":"21223","zip_code":"21121","name":"Daix","slug":"daix","gps_lat":47.35974926829269,"gps_lng":4.97515008130081},{"id":6948,"department_code":"21","insee_code":"21224","zip_code":"21350","name":"Dampierre-en-Montagne","slug":"dampierre en montagne","gps_lat":47.44386860465114,"gps_lng":4.55737139534884},{"id":6949,"department_code":"21","insee_code":"21225","zip_code":"21310","name":"Dampierre-et-Flée","slug":"dampierre et flee","gps_lat":47.47953046783628,"gps_lng":5.35673093567251},{"id":6950,"department_code":"21","insee_code":"21226","zip_code":"21150","name":"Darcey","slug":"darcey","gps_lat":47.54619733944953,"gps_lng":4.57188385321101},{"id":6951,"department_code":"21","insee_code":"21227","zip_code":"21121","name":"Darois","slug":"darois","gps_lat":47.39695115384615,"gps_lng":4.93028782051282},{"id":6952,"department_code":"21","insee_code":"21228","zip_code":"21220","name":"Détain-et-Bruant","slug":"detain et bruant","gps_lat":47.17378812080538,"gps_lng":4.78902241610738},{"id":6953,"department_code":"21","insee_code":"21229","zip_code":"21430","name":"Diancey","slug":"diancey","gps_lat":47.17499841059603,"gps_lng":4.3637080794702},{"id":6954,"department_code":"21","insee_code":"21230","zip_code":"21120","name":"Diénay","slug":"dienay","gps_lat":47.5234331858407,"gps_lng":5.05442557522124},{"id":6955,"department_code":"21","insee_code":"21231","zip_code":"21000","name":"Dijon","slug":"dijon","gps_lat":47.3251831336405,"gps_lng":5.03567285714286},{"id":6956,"department_code":"21","insee_code":"21232","zip_code":"21390","name":"Dompierre-en-Morvan","slug":"dompierre en morvan","gps_lat":47.40012442211054,"gps_lng":4.22834859296482},{"id":6957,"department_code":"21","insee_code":"21233","zip_code":"21270","name":"Drambon","slug":"drambon","gps_lat":47.33236204081631,"gps_lng":5.37965653061225},{"id":6958,"department_code":"21","insee_code":"21234","zip_code":"21540","name":"Drée","slug":"dree","gps_lat":47.34337531645569,"gps_lng":4.69966886075949},{"id":6959,"department_code":"21","insee_code":"21235","zip_code":"21510","name":"Duesme","slug":"duesme","gps_lat":47.63882027210885,"gps_lng":4.69199755102041},{"id":7478,"department_code":"22","insee_code":"22050","zip_code":"22100","name":"Dinan","slug":"dinan","gps_lat":48.45057038461538,"gps_lng":-2.04761865384615},{"id":7479,"department_code":"22","insee_code":"22052","zip_code":"22160","name":"Duault","slug":"duault","gps_lat":48.36386362559244,"gps_lng":-3.43910549763033},{"id":7860,"department_code":"23","insee_code":"23072","zip_code":"23140","name":"Domeyrot","slug":"domeyrot","gps_lat":46.25302377260978,"gps_lng":2.1416407751938},{"id":7861,"department_code":"23","insee_code":"23073","zip_code":"23700","name":"Dontreix","slug":"dontreix","gps_lat":45.98093526881723,"gps_lng":2.5414984587813603},{"id":7863,"department_code":"23","insee_code":"23075","zip_code":"23800","name":"Dun-le-Palestel","slug":"dun le palestel","gps_lat":46.29741693877553,"gps_lng":1.6628712925170102},{"id":8179,"department_code":"24","insee_code":"24150","zip_code":"24250","name":"Daglan","slug":"daglan","gps_lat":44.74635062068963,"gps_lng":1.18803055172414},{"id":8180,"department_code":"24","insee_code":"24151","zip_code":"24170","name":"Doissat","slug":"doissat","gps_lat":44.72396322580647,"gps_lng":1.08327974193548},{"id":8181,"department_code":"24","insee_code":"24152","zip_code":"24250","name":"Domme","slug":"domme","gps_lat":44.80666410852714,"gps_lng":1.24642410852713},{"id":8183,"department_code":"24","insee_code":"24154","zip_code":"24350","name":"Douchapt","slug":"douchapt","gps_lat":45.23661444444445,"gps_lng":0.444573},{"id":8184,"department_code":"24","insee_code":"24155","zip_code":"24140","name":"Douville","slug":"douville","gps_lat":44.99846228070176,"gps_lng":0.59313245614035},{"id":8186,"department_code":"24","insee_code":"24157","zip_code":"24190","name":"Douzillac","slug":"douzillac","gps_lat":45.0943735526316,"gps_lng":0.39810684210526},{"id":8187,"department_code":"24","insee_code":"24158","zip_code":"24270","name":"Dussac","slug":"dussac","gps_lat":45.39509734234236,"gps_lng":1.07745153153153},{"id":8737,"department_code":"25","insee_code":"25187","zip_code":"25150","name":"Dambelin","slug":"dambelin","gps_lat":47.37408240601504,"gps_lng":6.67296631578948},{"id":8738,"department_code":"25","insee_code":"25188","zip_code":"25600","name":"Dambenois","slug":"dambenois","gps_lat":47.54442844444443,"gps_lng":6.87277311111111},{"id":8739,"department_code":"25","insee_code":"25189","zip_code":"25110","name":"Dammartin-les-Templiers","slug":"dammartin les templiers","gps_lat":47.2941343023256,"gps_lng":6.28191023255814},{"id":8740,"department_code":"25","insee_code":"25190","zip_code":"25490","name":"Dampierre-les-Bois","slug":"dampierre les bois","gps_lat":47.50907242424241,"gps_lng":6.92000575757576},{"id":8741,"department_code":"25","insee_code":"25191","zip_code":"25420","name":"Dampierre-sur-le-Doubs","slug":"dampierre sur le doubs","gps_lat":47.46265339285714,"gps_lng":6.73512839285714},{"id":8742,"department_code":"25","insee_code":"25192","zip_code":"25190","name":"Dampjoux","slug":"dampjoux","gps_lat":47.33887350649352,"gps_lng":6.74504662337662},{"id":8743,"department_code":"25","insee_code":"25193","zip_code":"25450","name":"Damprichard","slug":"damprichard","gps_lat":47.23819257575761,"gps_lng":6.87521742424243},{"id":8744,"department_code":"25","insee_code":"25194","zip_code":"25310","name":"Dannemarie","slug":"dannemarie","gps_lat":47.38983306122449,"gps_lng":6.89954959183673},{"id":8745,"department_code":"25","insee_code":"25195","zip_code":"25410","name":"Dannemarie-sur-Crète","slug":"dannemarie sur crete","gps_lat":47.21014585365855,"gps_lng":5.86571182926829},{"id":8746,"department_code":"25","insee_code":"25196","zip_code":"25230","name":"Dasle","slug":"dasle","gps_lat":47.48198448717948,"gps_lng":6.89815012820513},{"id":8747,"department_code":"25","insee_code":"25197","zip_code":"25960","name":"Deluz","slug":"deluz","gps_lat":47.29808745762713,"gps_lng":6.19705694915254},{"id":8748,"department_code":"25","insee_code":"25198","zip_code":"25750","name":"Désandans","slug":"desandans","gps_lat":47.53713483870968,"gps_lng":6.67329677419355},{"id":8749,"department_code":"25","insee_code":"25199","zip_code":"25330","name":"Déservillers","slug":"deservillers","gps_lat":46.99862913043476,"gps_lng":6.07510720496894},{"id":8750,"department_code":"25","insee_code":"25200","zip_code":"25870","name":"Devecey","slug":"devecey","gps_lat":47.32382309278351,"gps_lng":6.0154618556701},{"id":8751,"department_code":"25","insee_code":"25201","zip_code":"25300","name":"Dommartin","slug":"dommartin","gps_lat":46.92800000000001,"gps_lng":6.31250638888889},{"id":8752,"department_code":"25","insee_code":"25202","zip_code":"25560","name":"Dompierre-les-Tilleuls","slug":"dompierre les tilleuls","gps_lat":46.88853000000002,"gps_lng":6.1627901369863},{"id":8753,"department_code":"25","insee_code":"25203","zip_code":"25510","name":"Domprel","slug":"domprel","gps_lat":47.19638441860467,"gps_lng":6.47999104651163},{"id":8754,"department_code":"25","insee_code":"25204","zip_code":"25300","name":"Doubs","slug":"doubs","gps_lat":46.93385652542374,"gps_lng":6.36174398305085},{"id":8755,"department_code":"25","insee_code":"25207","zip_code":"25550","name":"Dung","slug":"dung","gps_lat":47.50692954545455,"gps_lng":6.74323659090909},{"id":8756,"department_code":"25","insee_code":"25208","zip_code":"25580","name":"Durnes","slug":"durnes","gps_lat":47.1077998969072,"gps_lng":6.22177175257732},{"id":9261,"department_code":"26","insee_code":"26113","zip_code":"26150","name":"Die","slug":"die","gps_lat":44.7485367037037,"gps_lng":5.38418540740741},{"id":9262,"department_code":"26","insee_code":"26114","zip_code":"26220","name":"Dieulefit","slug":"dieulefit","gps_lat":44.53404959016392,"gps_lng":5.07304729508197},{"id":9263,"department_code":"26","insee_code":"26115","zip_code":"26400","name":"Divajeu","slug":"divajeu","gps_lat":44.70138677018632,"gps_lng":5.00570099378882},{"id":9264,"department_code":"26","insee_code":"26116","zip_code":"26290","name":"Donzère","slug":"donzere","gps_lat":44.43022274509806,"gps_lng":4.70436},{"id":9697,"department_code":"27","insee_code":"27199","zip_code":"27720","name":"Dangu","slug":"dangu","gps_lat":49.25948394366196,"gps_lng":1.69780774647887},{"id":9698,"department_code":"27","insee_code":"27200","zip_code":"27930","name":"Dardez","slug":"dardez","gps_lat":49.08524784313725,"gps_lng":1.2127421568627401},{"id":9699,"department_code":"27","insee_code":"27201","zip_code":"27110","name":"Daubeuf-la-Campagne","slug":"daubeuf la campagne","gps_lat":49.18701238095239,"gps_lng":1.03187297619048},{"id":9700,"department_code":"27","insee_code":"27202","zip_code":"27430","name":"Daubeuf-près-Vatteville","slug":"daubeuf pres vatteville","gps_lat":49.264394921875,"gps_lng":1.3071603125},{"id":9701,"department_code":"27","insee_code":"27203","zip_code":"27120","name":"Douains","slug":"douains","gps_lat":49.03892869047619,"gps_lng":1.42971726190476},{"id":9702,"department_code":"27","insee_code":"27204","zip_code":"27150","name":"Doudeauville-en-Vexin","slug":"doudeauville en vexin","gps_lat":49.32537578125,"gps_lng":1.58977453125},{"id":9703,"department_code":"27","insee_code":"27205","zip_code":"27380","name":"Douville-sur-Andelle","slug":"douville sur andelle","gps_lat":49.33447,"gps_lng":1.30726888888889},{"id":9704,"department_code":"27","insee_code":"27206","zip_code":"27320","name":"Droisy","slug":"droisy","gps_lat":48.79738393103449,"gps_lng":1.11902910344828},{"id":9705,"department_code":"27","insee_code":"27207","zip_code":"27230","name":"Drucourt","slug":"drucourt","gps_lat":49.11484487804879,"gps_lng":0.45320768292683},{"id":9706,"department_code":"27","insee_code":"27208","zip_code":"27230","name":"Duranville","slug":"duranville","gps_lat":49.14460408163266,"gps_lng":0.50088265306122},{"id":10241,"department_code":"28","insee_code":"28121","zip_code":"28140","name":"Dambron","slug":"dambron","gps_lat":48.11807452380953,"gps_lng":1.86581404761905},{"id":10242,"department_code":"28","insee_code":"28122","zip_code":"28360","name":"Dammarie","slug":"dammarie","gps_lat":48.33644938931294,"gps_lng":1.50015015267176},{"id":10243,"department_code":"28","insee_code":"28123","zip_code":"28160","name":"Dampierre-sous-Brou","slug":"dampierre sous brou","gps_lat":48.22367,"gps_lng":1.11551628571429},{"id":10244,"department_code":"28","insee_code":"28124","zip_code":"28350","name":"Dampierre-sur-Avre","slug":"dampierre sur avre","gps_lat":48.75873312101911,"gps_lng":1.1403478343949},{"id":10245,"department_code":"28","insee_code":"28126","zip_code":"28800","name":"Dancy","slug":"dancy","gps_lat":48.15565125000001,"gps_lng":1.4612885416666699},{"id":10246,"department_code":"28","insee_code":"28127","zip_code":"28160","name":"Dangeau","slug":"dangeau","gps_lat":48.21393166037734,"gps_lng":1.27122373584906},{"id":10247,"department_code":"28","insee_code":"28128","zip_code":"28190","name":"Dangers","slug":"dangers","gps_lat":48.50655537313431,"gps_lng":1.35174880597015},{"id":10248,"department_code":"28","insee_code":"28129","zip_code":"28700","name":"Denonville","slug":"denonville","gps_lat":48.39213944444446,"gps_lng":1.80111722222222},{"id":10249,"department_code":"28","insee_code":"28130","zip_code":"28250","name":"Digny","slug":"digny","gps_lat":48.530472994350276,"gps_lng":1.13523802259887},{"id":10250,"department_code":"28","insee_code":"28132","zip_code":"28200","name":"Donnemain-Saint-Mamès","slug":"donnemain saint mames","gps_lat":48.10134048543691,"gps_lng":1.36807495145631},{"id":10251,"department_code":"28","insee_code":"28134","zip_code":"28100","name":"Dreux","slug":"dreux","gps_lat":48.74842735294118,"gps_lng":1.3584160588235301},{"id":10252,"department_code":"28","insee_code":"28135","zip_code":"28230","name":"Droue-sur-Drouette","slug":"droue sur drouette","gps_lat":48.6058792682927,"gps_lng":1.700535},{"id":10551,"department_code":"29","insee_code":"29043","zip_code":"29460","name":"Daoulas","slug":"daoulas","gps_lat":48.35728987421383,"gps_lng":-4.26838830188679},{"id":10552,"department_code":"29","insee_code":"29044","zip_code":"29150","name":"Dinéault","slug":"dineault","gps_lat":48.22286548172758,"gps_lng":-4.16110531561462},{"id":10553,"department_code":"29","insee_code":"29045","zip_code":"29460","name":"Dirinon","slug":"dirinon","gps_lat":48.40081746928745,"gps_lng":-4.27077872235872},{"id":10554,"department_code":"29","insee_code":"29046","zip_code":"29100","name":"Douarnenez","slug":"douarnenez","gps_lat":48.08454207983194,"gps_lng":-4.33166478991597},{"id":11262,"department_code":"30","insee_code":"30101","zip_code":"30360","name":"Deaux","slug":"deaux","gps_lat":44.06991215384616,"gps_lng":4.15843230769231},{"id":11263,"department_code":"30","insee_code":"30102","zip_code":"30190","name":"Dions","slug":"dions","gps_lat":43.92023440476191,"gps_lng":4.29748321428571},{"id":11264,"department_code":"30","insee_code":"30103","zip_code":"30390","name":"Domazan","slug":"domazan","gps_lat":43.94167172413792,"gps_lng":4.65674362068966},{"id":11265,"department_code":"30","insee_code":"30104","zip_code":"30350","name":"Domessargues","slug":"domessargues","gps_lat":43.97630872340425,"gps_lng":4.16291255319149},{"id":11266,"department_code":"30","insee_code":"30105","zip_code":"30750","name":"Dourbies","slug":"dourbies","gps_lat":44.0698272303207,"gps_lng":3.48309909620991},{"id":11267,"department_code":"30","insee_code":"30106","zip_code":"30170","name":"Durfort-et-Saint-Martin-de-Sossenac","slug":"durfort et saint martin de sossenac","gps_lat":43.98580475000003,"gps_lng":3.9524433125},{"id":11676,"department_code":"31","insee_code":"31160","zip_code":"31700","name":"Daux","slug":"daux","gps_lat":43.6914740909091,"gps_lng":1.2666696590909101},{"id":11677,"department_code":"31","insee_code":"31161","zip_code":"31450","name":"Deyme","slug":"deyme","gps_lat":43.47994249999999,"gps_lng":1.52971985294118},{"id":11678,"department_code":"31","insee_code":"31162","zip_code":"31450","name":"Donneville","slug":"donneville","gps_lat":43.47296884057972,"gps_lng":1.55258391304348},{"id":11679,"department_code":"31","insee_code":"31163","zip_code":"31280","name":"Drémil-Lafage","slug":"dremil lafage","gps_lat":43.58920716417913,"gps_lng":1.60020567164179},{"id":11680,"department_code":"31","insee_code":"31164","zip_code":"31480","name":"Drudas","slug":"drudas","gps_lat":43.76794445255474,"gps_lng":1.1007578102189801},{"id":12224,"department_code":"32","insee_code":"32115","zip_code":"32190","name":"Dému","slug":"demu","gps_lat":43.76112609756095,"gps_lng":0.16995272357724},{"id":12225,"department_code":"32","insee_code":"32116","zip_code":"32170","name":"Duffort","slug":"duffort","gps_lat":43.34087026785716,"gps_lng":0.42571419642857},{"id":12226,"department_code":"32","insee_code":"32117","zip_code":"32810","name":"Duran","slug":"duran","gps_lat":43.67268052631579,"gps_lng":0.56254328947368},{"id":12227,"department_code":"32","insee_code":"32118","zip_code":"32260","name":"Durban","slug":"durban","gps_lat":43.53712655629139,"gps_lng":0.57024516556291},{"id":12720,"department_code":"33","insee_code":"33147","zip_code":"33420","name":"Daignac","slug":"daignac","gps_lat":44.80021922413792,"gps_lng":-0.24230293103447997},{"id":12721,"department_code":"33","insee_code":"33148","zip_code":"33420","name":"Dardenac","slug":"dardenac","gps_lat":44.78435071428571,"gps_lng":-0.24175714285714},{"id":12722,"department_code":"33","insee_code":"33149","zip_code":"33540","name":"Daubèze","slug":"daubeze","gps_lat":44.70843918367348,"gps_lng":-0.13559418367346998},{"id":12723,"department_code":"33","insee_code":"33150","zip_code":"33580","name":"Dieulivol","slug":"dieulivol","gps_lat":44.67582694805193,"gps_lng":0.10924149350649},{"id":12724,"department_code":"33","insee_code":"33151","zip_code":"33860","name":"Donnezac","slug":"donnezac","gps_lat":45.23855990291261,"gps_lng":-0.44981893203884005},{"id":12725,"department_code":"33","insee_code":"33152","zip_code":"33410","name":"Donzac","slug":"donzac","gps_lat":44.65142126436782,"gps_lng":-0.25767448275862004},{"id":12726,"department_code":"33","insee_code":"33153","zip_code":"33350","name":"Doulezon","slug":"doulezon","gps_lat":44.79072919540229,"gps_lng":-0.0020747126436799768},{"id":13208,"department_code":"34","insee_code":"34093","zip_code":"34650","name":"Dio-et-Valquières","slug":"dio et valquieres","gps_lat":43.67216790476189,"gps_lng":3.22699047619048},{"id":13550,"department_code":"35","insee_code":"35093","zip_code":"35800","name":"Dinard","slug":"dinard","gps_lat":48.63061117021275,"gps_lng":-2.05537319148936},{"id":13551,"department_code":"35","insee_code":"35094","zip_code":"35440","name":"Dingé","slug":"dinge","gps_lat":48.34773421195652,"gps_lng":-1.703428125},{"id":13552,"department_code":"35","insee_code":"35095","zip_code":"35120","name":"Dol-de-Bretagne","slug":"dol de bretagne","gps_lat":48.53481135593215,"gps_lng":-1.74168271186441},{"id":13553,"department_code":"35","insee_code":"35096","zip_code":"35113","name":"Domagné","slug":"domagne","gps_lat":48.0647200813008,"gps_lng":-1.40992390243902},{"id":13554,"department_code":"35","insee_code":"35097","zip_code":"35680","name":"Domalain","slug":"domalain","gps_lat":47.99241854237287,"gps_lng":-1.24799094915254},{"id":13556,"department_code":"35","insee_code":"35099","zip_code":"35410","name":"Domloup","slug":"domloup","gps_lat":48.06992630057804,"gps_lng":-1.54359306358382},{"id":13557,"department_code":"35","insee_code":"35100","zip_code":"35210","name":"Dompierre-du-Chemin","slug":"dompierre du chemin","gps_lat":48.26758545454544,"gps_lng":-1.15027666666667},{"id":13558,"department_code":"35","insee_code":"35101","zip_code":"35450","name":"Dourdain","slug":"dourdain","gps_lat":48.19503017361112,"gps_lng":-1.38015444444444},{"id":13559,"department_code":"35","insee_code":"35102","zip_code":"35130","name":"Drouges","slug":"drouges","gps_lat":47.89997950276239,"gps_lng":-1.26127723756906},{"id":13873,"department_code":"36","insee_code":"36063","zip_code":"36130","name":"Déols","slug":"deols","gps_lat":46.83649537499998,"gps_lng":1.6981316875},{"id":13874,"department_code":"36","insee_code":"36064","zip_code":"36130","name":"Diors","slug":"diors","gps_lat":46.82772285714286,"gps_lng":1.8171385714285702},{"id":13875,"department_code":"36","insee_code":"36065","zip_code":"36260","name":"Diou","slug":"diou","gps_lat":47.04370134328358,"gps_lng":2.0162676119403},{"id":13876,"department_code":"36","insee_code":"36066","zip_code":"36300","name":"Douadic","slug":"douadic","gps_lat":46.70207711538461,"gps_lng":1.11748673076923},{"id":13877,"department_code":"36","insee_code":"36067","zip_code":"36310","name":"Dunet","slug":"dunet","gps_lat":46.47122979999998,"gps_lng":1.2907098000000001},{"id":13878,"department_code":"36","insee_code":"36068","zip_code":"36210","name":"Dun-le-Poëlier","slug":"dun le poelier","gps_lat":47.21839539325841,"gps_lng":1.73973101123596},{"id":14144,"department_code":"37","insee_code":"37095","zip_code":"37110","name":"Dame-Marie-les-Bois","slug":"dame marie les bois","gps_lat":47.55116767441861,"gps_lng":1.05313441860465},{"id":14145,"department_code":"37","insee_code":"37096","zip_code":"37150","name":"Dierre","slug":"dierre","gps_lat":47.35756042253523,"gps_lng":0.95966563380282},{"id":14146,"department_code":"37","insee_code":"37097","zip_code":"37310","name":"Dolus-le-Sec","slug":"dolus le sec","gps_lat":47.16155736434111,"gps_lng":0.8851888372093},{"id":14147,"department_code":"37","insee_code":"37098","zip_code":"37800","name":"Draché","slug":"drache","gps_lat":47.07025205607474,"gps_lng":0.63465551401869},{"id":14148,"department_code":"37","insee_code":"37099","zip_code":"37190","name":"Druye","slug":"druye","gps_lat":47.29949128440364,"gps_lng":0.5337247706422},{"id":14163,"department_code":"37","insee_code":"37115","zip_code":"37160","name":"Descartes","slug":"descartes","gps_lat":46.9941003821656,"gps_lng":0.68734828025478},{"id":14455,"department_code":"38","insee_code":"38144","zip_code":"38790","name":"Diémoz","slug":"diemoz","gps_lat":45.58977072463767,"gps_lng":5.08658144927536},{"id":14456,"department_code":"38","insee_code":"38146","zip_code":"38460","name":"Dizimieu","slug":"dizimieu","gps_lat":45.71412738562091,"gps_lng":5.28020006535947},{"id":14457,"department_code":"38","insee_code":"38147","zip_code":"38730","name":"Doissin","slug":"doissin","gps_lat":45.50295568181818,"gps_lng":5.42682045454546},{"id":14458,"department_code":"38","insee_code":"38148","zip_code":"38110","name":"Dolomieu","slug":"dolomieu","gps_lat":45.61394348214284,"gps_lng":5.48180741071429},{"id":14459,"department_code":"38","insee_code":"38149","zip_code":"38300","name":"Domarin","slug":"domarin","gps_lat":45.58080157894737,"gps_lng":5.24654175438597},{"id":14460,"department_code":"38","insee_code":"38150","zip_code":"38420","name":"Domène","slug":"domene","gps_lat":45.20305568181821,"gps_lng":5.8427825},{"id":15021,"department_code":"39","insee_code":"39188","zip_code":"39290","name":"Dammartin-Marpain","slug":"dammartin marpain","gps_lat":47.25385849624062,"gps_lng":5.55327759398496},{"id":15022,"department_code":"39","insee_code":"39189","zip_code":"39500","name":"Damparis","slug":"damparis","gps_lat":47.07061829059827,"gps_lng":5.39942282051282},{"id":15023,"department_code":"39","insee_code":"39190","zip_code":"39700","name":"Dampierre","slug":"dampierre","gps_lat":47.16473859649123,"gps_lng":5.74177719298246},{"id":15024,"department_code":"39","insee_code":"39191","zip_code":"39230","name":"Darbonnay","slug":"darbonnay","gps_lat":46.82342782608698,"gps_lng":5.60749469565217},{"id":15025,"department_code":"39","insee_code":"39192","zip_code":"39130","name":"Denezières","slug":"denezieres","gps_lat":46.62395571428569,"gps_lng":5.8014975},{"id":15027,"department_code":"39","insee_code":"39194","zip_code":"39140","name":"Desnes","slug":"desnes","gps_lat":46.76706170454545,"gps_lng":5.46321954545455},{"id":15029,"department_code":"39","insee_code":"39197","zip_code":"39190","name":"Digna","slug":"digna","gps_lat":46.5179405263158,"gps_lng":5.38627271929824},{"id":15030,"department_code":"39","insee_code":"39198","zip_code":"39100","name":"Dole","slug":"dole","gps_lat":47.07980210045665,"gps_lng":5.4896212328767096},{"id":15031,"department_code":"39","insee_code":"39199","zip_code":"39210","name":"Domblans","slug":"domblans","gps_lat":46.75922829999999,"gps_lng":5.5903091499999995},{"id":15032,"department_code":"39","insee_code":"39200","zip_code":"39270","name":"Dompierre-sur-Mont","slug":"dompierre sur mont","gps_lat":46.55945228915663,"gps_lng":5.60923686746988},{"id":15033,"department_code":"39","insee_code":"39201","zip_code":"39130","name":"Doucier","slug":"doucier","gps_lat":46.64672820083684,"gps_lng":5.77103556485356},{"id":15034,"department_code":"39","insee_code":"39202","zip_code":"39110","name":"Dournon","slug":"dournon","gps_lat":46.93125224489798,"gps_lng":5.97486897959184},{"id":15035,"department_code":"39","insee_code":"39203","zip_code":"39250","name":"Doye","slug":"doye","gps_lat":46.76834657534248,"gps_lng":6.01340410958904},{"id":15036,"department_code":"39","insee_code":"39204","zip_code":"39240","name":"Dramelay","slug":"dramelay","gps_lat":46.40309366666672,"gps_lng":5.53058005555555},{"id":15456,"department_code":"40","insee_code":"40088","zip_code":"40100","name":"Dax","slug":"dax","gps_lat":43.69987447761195,"gps_lng":-1.05416305970149},{"id":15457,"department_code":"40","insee_code":"40089","zip_code":"40700","name":"Doazit","slug":"doazit","gps_lat":43.6917522459893,"gps_lng":-0.6532165240641701},{"id":15458,"department_code":"40","insee_code":"40090","zip_code":"40360","name":"Donzacq","slug":"donzacq","gps_lat":43.65621808743168,"gps_lng":-0.8054938251366099},{"id":15459,"department_code":"40","insee_code":"40091","zip_code":"40800","name":"Duhort-Bachen","slug":"duhort bachen","gps_lat":43.71783324074073,"gps_lng":-0.31936546296296},{"id":15460,"department_code":"40","insee_code":"40092","zip_code":"40500","name":"Dumes","slug":"dumes","gps_lat":43.70306681818183,"gps_lng":-0.58180090909091},{"id":15766,"department_code":"41","insee_code":"41073","zip_code":"41160","name":"Danzé","slug":"danze","gps_lat":47.90641067114095,"gps_lng":1.01054523489933},{"id":15767,"department_code":"41","insee_code":"41074","zip_code":"41220","name":"Dhuizon","slug":"dhuizon","gps_lat":47.58988612500003,"gps_lng":1.6796239375000002},{"id":15768,"department_code":"41","insee_code":"41075","zip_code":"41270","name":"Droué","slug":"droue","gps_lat":48.0286670810811,"gps_lng":1.05663432432432},{"id":16053,"department_code":"42","insee_code":"42082","zip_code":"42260","name":"Dancé","slug":"dance","gps_lat":45.90684788135592,"gps_lng":4.03684415254237},{"id":16054,"department_code":"42","insee_code":"42083","zip_code":"42800","name":"Dargoire","slug":"dargoire","gps_lat":45.56261933333334,"gps_lng":4.6734195},{"id":16055,"department_code":"42","insee_code":"42084","zip_code":"42130","name":"Débats-Rivière-d'Orpra","slug":"debats riviere d orpra","gps_lat":45.7568994520548,"gps_lng":3.93917671232877},{"id":16056,"department_code":"42","insee_code":"42085","zip_code":"42740","name":"Doizieux","slug":"doizieux","gps_lat":45.42354776470587,"gps_lng":4.58602552941176},{"id":16387,"department_code":"43","insee_code":"43085","zip_code":"43300","name":"Desges","slug":"desges","gps_lat":45.0223373979592,"gps_lng":3.44759010204082},{"id":16388,"department_code":"43","insee_code":"43086","zip_code":"43230","name":"Domeyrat","slug":"domeyrat","gps_lat":45.24676052325584,"gps_lng":3.50375273255814},{"id":16389,"department_code":"43","insee_code":"43087","zip_code":"43220","name":"Dunières","slug":"dunieres","gps_lat":45.21484101083033,"gps_lng":4.34792397111913},{"id":16588,"department_code":"44","insee_code":"44029","zip_code":"44450","name":"Divatte-sur-Loire","slug":"divatte sur loire","gps_lat":47.28608833333332,"gps_lng":-1.3165709302325599},{"id":16607,"department_code":"44","insee_code":"44051","zip_code":"44590","name":"Derval","slug":"derval","gps_lat":47.67098551282052,"gps_lng":-1.6833278525641},{"id":16608,"department_code":"44","insee_code":"44052","zip_code":"44480","name":"Donges","slug":"donges","gps_lat":47.34648335877866,"gps_lng":-2.08637595419847},{"id":16609,"department_code":"44","insee_code":"44053","zip_code":"44530","name":"Drefféac","slug":"dreffeac","gps_lat":47.46629444444444,"gps_lng":-2.06187271604938},{"id":16885,"department_code":"45","insee_code":"45119","zip_code":"45300","name":"Dadonville","slug":"dadonville","gps_lat":48.15681643939394,"gps_lng":2.27087060606061},{"id":16886,"department_code":"45","insee_code":"45120","zip_code":"45420","name":"Dammarie-en-Puisaye","slug":"dammarie en puisaye","gps_lat":47.63006724137932,"gps_lng":2.86709603448276},{"id":16887,"department_code":"45","insee_code":"45121","zip_code":"45230","name":"Dammarie-sur-Loing","slug":"dammarie sur loing","gps_lat":47.78278515151516,"gps_lng":2.88449348484849},{"id":16888,"department_code":"45","insee_code":"45122","zip_code":"45570","name":"Dampierre-en-Burly","slug":"dampierre en burly","gps_lat":47.75371632478632,"gps_lng":2.53963837606838},{"id":16889,"department_code":"45","insee_code":"45123","zip_code":"45150","name":"Darvoy","slug":"darvoy","gps_lat":47.85165898305084,"gps_lng":2.08774915254237},{"id":16890,"department_code":"45","insee_code":"45124","zip_code":"45390","name":"Desmonts","slug":"desmonts","gps_lat":48.22533571428572,"gps_lng":2.49882928571429},{"id":16891,"department_code":"45","insee_code":"45125","zip_code":"45390","name":"Dimancheville","slug":"dimancheville","gps_lat":48.23756859649124,"gps_lng":2.42511315789474},{"id":16892,"department_code":"45","insee_code":"45126","zip_code":"45450","name":"Donnery","slug":"donnery","gps_lat":47.91252330985913,"gps_lng":2.10931507042254},{"id":16893,"department_code":"45","insee_code":"45127","zip_code":"45680","name":"Dordives","slug":"dordives","gps_lat":48.15138410071941,"gps_lng":2.7773645323741},{"id":16894,"department_code":"45","insee_code":"45129","zip_code":"45220","name":"Douchy-Montcorbon","slug":"douchy montcorbon","gps_lat":47.96122021505378,"gps_lng":3.06968408602151},{"id":16895,"department_code":"45","insee_code":"45130","zip_code":"45370","name":"Dry","slug":"dry","gps_lat":47.79196985294117,"gps_lng":1.7339983823529401},{"id":17184,"department_code":"46","insee_code":"46087","zip_code":"46340","name":"Dégagnac","slug":"degagnac","gps_lat":44.67197686084142,"gps_lng":1.32066275080906},{"id":17185,"department_code":"46","insee_code":"46088","zip_code":"46140","name":"Douelle","slug":"douelle","gps_lat":44.46960071428569,"gps_lng":1.3594468367346901},{"id":17186,"department_code":"46","insee_code":"46089","zip_code":"46700","name":"Duravel","slug":"duravel","gps_lat":44.52146405594404,"gps_lng":1.07957755244755},{"id":17187,"department_code":"46","insee_code":"46090","zip_code":"46320","name":"Durbans","slug":"durbans","gps_lat":44.6762829,"gps_lng":1.7623858000000001},{"id":17501,"department_code":"47","insee_code":"47078","zip_code":"47160","name":"Damazan","slug":"damazan","gps_lat":44.28935838709675,"gps_lng":0.27610032258065},{"id":17502,"department_code":"47","insee_code":"47079","zip_code":"47140","name":"Dausse","slug":"dausse","gps_lat":44.38609131578948,"gps_lng":0.88530947368421},{"id":17503,"department_code":"47","insee_code":"47080","zip_code":"47210","name":"Dévillac","slug":"devillac","gps_lat":44.60715822222222,"gps_lng":0.81052933333333},{"id":17504,"department_code":"47","insee_code":"47081","zip_code":"47110","name":"Dolmayrac","slug":"dolmayrac","gps_lat":44.35967884615382,"gps_lng":0.58070897435897},{"id":17505,"department_code":"47","insee_code":"47082","zip_code":"47470","name":"Dondas","slug":"dondas","gps_lat":44.243219,"gps_lng":0.85440666666667},{"id":17506,"department_code":"47","insee_code":"47083","zip_code":"47210","name":"Doudrac","slug":"doudrac","gps_lat":44.66584776397514,"gps_lng":0.6748747826087},{"id":17507,"department_code":"47","insee_code":"47084","zip_code":"47330","name":"Douzains","slug":"douzains","gps_lat":44.6368344155844,"gps_lng":0.54470538961039},{"id":17508,"department_code":"47","insee_code":"47085","zip_code":"47420","name":"Durance","slug":"durance","gps_lat":44.15388608695653,"gps_lng":0.17328282608696},{"id":17509,"department_code":"47","insee_code":"47086","zip_code":"47120","name":"Duras","slug":"duras","gps_lat":44.67992187499999,"gps_lng":0.19544721153846},{"id":17976,"department_code":"49","insee_code":"49120","zip_code":"49190","name":"Denée","slug":"denee","gps_lat":47.36906854304635,"gps_lng":-0.60468079470199},{"id":17977,"department_code":"49","insee_code":"49121","zip_code":"49700","name":"Dénezé-sous-Doué","slug":"deneze sous doue","gps_lat":47.25198932835825,"gps_lng":-0.25565992537313},{"id":17978,"department_code":"49","insee_code":"49123","zip_code":"49400","name":"Distré","slug":"distre","gps_lat":47.22551901639345,"gps_lng":-0.12404532786885003},{"id":17979,"department_code":"49","insee_code":"49125","zip_code":"49700","name":"Doué-en-Anjou","slug":"doue en anjou","gps_lat":47.20000613913044,"gps_lng":-0.31340283478261},{"id":17980,"department_code":"49","insee_code":"49127","zip_code":"49430","name":"Durtal","slug":"durtal","gps_lat":47.67952822454303,"gps_lng":-0.25041402088773},{"id":18247,"department_code":"50","insee_code":"50159","zip_code":"50750","name":"Dangy","slug":"dangy","gps_lat":49.02694391752574,"gps_lng":-1.22276046391753},{"id":18248,"department_code":"50","insee_code":"50160","zip_code":"50580","name":"Denneville","slug":"denneville","gps_lat":49.31853858585858,"gps_lng":-1.6571012121212099},{"id":18250,"department_code":"50","insee_code":"50162","zip_code":"50110","name":"Digosville","slug":"digosville","gps_lat":49.63410244755245,"gps_lng":-1.52992958041958},{"id":18251,"department_code":"50","insee_code":"50164","zip_code":"50420","name":"Domjean","slug":"domjean","gps_lat":48.99381622641509,"gps_lng":-1.02505786163522},{"id":18252,"department_code":"50","insee_code":"50165","zip_code":"50350","name":"Donville-les-Bains","slug":"donville les bains","gps_lat":48.84832146341464,"gps_lng":-1.57044243902439},{"id":18253,"department_code":"50","insee_code":"50166","zip_code":"50250","name":"Doville","slug":"doville","gps_lat":49.33567420212766,"gps_lng":-1.54833026595745},{"id":18254,"department_code":"50","insee_code":"50167","zip_code":"50530","name":"Dragey-Ronthon","slug":"dragey ronthon","gps_lat":48.72000554687503,"gps_lng":-1.487218359375},{"id":18255,"department_code":"50","insee_code":"50168","zip_code":"50220","name":"Ducey-Les Chéris","slug":"ducey les cheris","gps_lat":48.62473198581558,"gps_lng":-1.26463755319149},{"id":18813,"department_code":"51","insee_code":"51204","zip_code":"51480","name":"Damery","slug":"damery","gps_lat":49.07920928994085,"gps_lng":3.88130946745562},{"id":18814,"department_code":"51","insee_code":"51205","zip_code":"51400","name":"Dampierre-au-Temple","slug":"dampierre au temple","gps_lat":49.04035474576272,"gps_lng":4.39487440677966},{"id":18815,"department_code":"51","insee_code":"51206","zip_code":"51330","name":"Dampierre-le-Château","slug":"dampierre le chateau","gps_lat":49.00782194805195,"gps_lng":4.79894935064935},{"id":18816,"department_code":"51","insee_code":"51208","zip_code":"51240","name":"Dampierre-sur-Moivre","slug":"dampierre sur moivre","gps_lat":48.88392500000001,"gps_lng":4.57206382978723},{"id":18817,"department_code":"51","insee_code":"51210","zip_code":"51530","name":"Dizy","slug":"dizy","gps_lat":49.07059229508197,"gps_lng":3.97149278688525},{"id":18818,"department_code":"51","insee_code":"51211","zip_code":"51800","name":"Dommartin-Dampierre","slug":"dommartin dampierre","gps_lat":49.06803389473682,"gps_lng":4.82310621052631},{"id":18819,"department_code":"51","insee_code":"51212","zip_code":"51320","name":"Dommartin-Lettrée","slug":"dommartin lettree","gps_lat":48.76932866666668,"gps_lng":4.29283716666667},{"id":18820,"department_code":"51","insee_code":"51213","zip_code":"51800","name":"Dommartin-sous-Hans","slug":"dommartin sous hans","gps_lat":49.12984923076924,"gps_lng":4.79593892307692},{"id":18821,"department_code":"51","insee_code":"51214","zip_code":"51330","name":"Dommartin-Varimont","slug":"dommartin varimont","gps_lat":48.98096142857143,"gps_lng":4.77688047619048},{"id":18822,"department_code":"51","insee_code":"51215","zip_code":"51300","name":"Dompremy","slug":"dompremy","gps_lat":48.73233228571433,"gps_lng":4.73421780952381},{"id":18823,"department_code":"51","insee_code":"51216","zip_code":"51490","name":"Dontrien","slug":"dontrien","gps_lat":49.24089816091955,"gps_lng":4.41484011494253},{"id":18824,"department_code":"51","insee_code":"51217","zip_code":"51700","name":"Dormans","slug":"dormans","gps_lat":49.0636111,"gps_lng":3.6512715},{"id":18826,"department_code":"51","insee_code":"51219","zip_code":"51290","name":"Drosnay","slug":"drosnay","gps_lat":48.57214333333333,"gps_lng":4.61808865384615},{"id":18827,"department_code":"51","insee_code":"51220","zip_code":"51300","name":"Drouilly","slug":"drouilly","gps_lat":48.77085019230768,"gps_lng":4.51697384615385},{"id":19362,"department_code":"52","insee_code":"52160","zip_code":"52110","name":"Daillancourt","slug":"daillancourt","gps_lat":48.2959178313253,"gps_lng":4.93544493975904},{"id":19363,"department_code":"52","insee_code":"52161","zip_code":"52240","name":"Daillecourt","slug":"daillecourt","gps_lat":48.07525038834955,"gps_lng":5.50348349514563},{"id":19364,"department_code":"52","insee_code":"52162","zip_code":"52140","name":"Dammartin-sur-Meuse","slug":"dammartin sur meuse","gps_lat":47.98207748251748,"gps_lng":5.58782923076923},{"id":19365,"department_code":"52","insee_code":"52163","zip_code":"52360","name":"Dampierre","slug":"dampierre","gps_lat":47.95849764705882,"gps_lng":5.39880713235294},{"id":19366,"department_code":"52","insee_code":"52164","zip_code":"52400","name":"Damrémont","slug":"damremont","gps_lat":47.94772151515151,"gps_lng":5.63691712121212},{"id":19367,"department_code":"52","insee_code":"52165","zip_code":"52210","name":"Dancevoir","slug":"dancevoir","gps_lat":47.92818240310078,"gps_lng":4.87217240310078},{"id":19368,"department_code":"52","insee_code":"52167","zip_code":"52700","name":"Darmannes","slug":"darmannes","gps_lat":48.17377304687503,"gps_lng":5.22370765625},{"id":19369,"department_code":"52","insee_code":"52168","zip_code":"52120","name":"Dinteville","slug":"dinteville","gps_lat":48.03719721311474,"gps_lng":4.80348204918033},{"id":19370,"department_code":"52","insee_code":"52169","zip_code":"52130","name":"Domblain","slug":"domblain","gps_lat":48.46724393939394,"gps_lng":5.00478090909091},{"id":19371,"department_code":"52","insee_code":"52170","zip_code":"52190","name":"Dommarien","slug":"dommarien","gps_lat":47.69170335877863,"gps_lng":5.35616580152672},{"id":19372,"department_code":"52","insee_code":"52171","zip_code":"52110","name":"Dommartin-le-Franc","slug":"dommartin le franc","gps_lat":48.42873418367347,"gps_lng":4.9294334693877495},{"id":19373,"department_code":"52","insee_code":"52172","zip_code":"52110","name":"Dommartin-le-Saint-Père","slug":"dommartin le saint pere","gps_lat":48.40618046153843,"gps_lng":4.91472892307692},{"id":19374,"department_code":"52","insee_code":"52173","zip_code":"52270","name":"Domremy-Landéville","slug":"domremy landeville","gps_lat":48.36070403508771,"gps_lng":5.25478307017544},{"id":19375,"department_code":"52","insee_code":"52174","zip_code":"52150","name":"Doncourt-sur-Meuse","slug":"doncourt sur meuse","gps_lat":48.14241770114943,"gps_lng":5.58655413793104},{"id":19376,"department_code":"52","insee_code":"52175","zip_code":"52300","name":"Donjeux","slug":"donjeux","gps_lat":48.35366576470589,"gps_lng":5.16416970588235},{"id":19377,"department_code":"52","insee_code":"52177","zip_code":"52270","name":"Doulaincourt-Saucourt","slug":"doulaincourt saucourt","gps_lat":48.31946782608694,"gps_lng":5.20324246376812},{"id":19378,"department_code":"52","insee_code":"52178","zip_code":"52110","name":"Doulevant-le-Château","slug":"doulevant le chateau","gps_lat":48.37118778894475,"gps_lng":4.91861939698492},{"id":19379,"department_code":"52","insee_code":"52179","zip_code":"52130","name":"Doulevant-le-Petit","slug":"doulevant le petit","gps_lat":48.44977000000001,"gps_lng":4.94908372881356},{"id":19748,"department_code":"53","insee_code":"53089","zip_code":"53200","name":"Daon","slug":"daon","gps_lat":47.75835319018406,"gps_lng":-0.62696006134969},{"id":19749,"department_code":"53","insee_code":"53090","zip_code":"53400","name":"Denazé","slug":"denaze","gps_lat":47.87688541666668,"gps_lng":-0.88562236111111},{"id":19750,"department_code":"53","insee_code":"53091","zip_code":"53190","name":"Désertines","slug":"desertines","gps_lat":48.47718757407412,"gps_lng":-0.86899561111111},{"id":19751,"department_code":"53","insee_code":"53092","zip_code":"53150","name":"Deux-Évailles","slug":"deux evailles","gps_lat":48.19058650000001,"gps_lng":-0.5266022142857101},{"id":20075,"department_code":"54","insee_code":"54152","zip_code":"54360","name":"Damelevières","slug":"damelevieres","gps_lat":48.56445,"gps_lng":6.39025980582524},{"id":20076,"department_code":"54","insee_code":"54153","zip_code":"54470","name":"Dampvitoux","slug":"dampvitoux","gps_lat":49.0069063414634,"gps_lng":5.82777469512195},{"id":20077,"department_code":"54","insee_code":"54154","zip_code":"54120","name":"Deneuvre","slug":"deneuvre","gps_lat":48.4295362015504,"gps_lng":6.71964782945736},{"id":20078,"department_code":"54","insee_code":"54155","zip_code":"54370","name":"Deuxville","slug":"deuxville","gps_lat":48.61812530864198,"gps_lng":6.45823975308642},{"id":20079,"department_code":"54","insee_code":"54156","zip_code":"54930","name":"Diarville","slug":"diarville","gps_lat":48.38787992592594,"gps_lng":6.12911303703704},{"id":20080,"department_code":"54","insee_code":"54157","zip_code":"54380","name":"Dieulouard","slug":"dieulouard","gps_lat":48.83758471264368,"gps_lng":6.05106310344828},{"id":20081,"department_code":"54","insee_code":"54158","zip_code":"54170","name":"Dolcourt","slug":"dolcourt","gps_lat":48.4907855963303,"gps_lng":5.97407293577982},{"id":20082,"department_code":"54","insee_code":"54159","zip_code":"54110","name":"Dombasle-sur-Meurthe","slug":"dombasle sur meurthe","gps_lat":48.62153709923665,"gps_lng":6.35888427480916},{"id":20083,"department_code":"54","insee_code":"54160","zip_code":"54385","name":"Domèvre-en-Haye","slug":"domevre en haye","gps_lat":48.81539133928569,"gps_lng":5.93693357142858},{"id":20084,"department_code":"54","insee_code":"54161","zip_code":"54450","name":"Domèvre-sur-Vezouze","slug":"domevre sur vezouze","gps_lat":48.5621494375,"gps_lng":6.7994505},{"id":20085,"department_code":"54","insee_code":"54162","zip_code":"54119","name":"Domgermain","slug":"domgermain","gps_lat":48.64154233918127,"gps_lng":5.8235367251462},{"id":20086,"department_code":"54","insee_code":"54163","zip_code":"54450","name":"Domjevin","slug":"domjevin","gps_lat":48.57909087431694,"gps_lng":6.69821639344262},{"id":20087,"department_code":"54","insee_code":"54164","zip_code":"54115","name":"Dommarie-Eulmont","slug":"dommarie eulmont","gps_lat":48.41973152380951,"gps_lng":6.03181504761905},{"id":20088,"department_code":"54","insee_code":"54165","zip_code":"54130","name":"Dommartemont","slug":"dommartemont","gps_lat":48.71751999999999,"gps_lng":6.21787157894737},{"id":20089,"department_code":"54","insee_code":"54166","zip_code":"54470","name":"Dommartin-la-Chaussée","slug":"dommartin la chaussee","gps_lat":49.01112811320755,"gps_lng":5.86758943396226},{"id":20090,"department_code":"54","insee_code":"54167","zip_code":"54200","name":"Dommartin-lès-Toul","slug":"dommartin les toul","gps_lat":48.66913440860215,"gps_lng":5.92377516129032},{"id":20091,"department_code":"54","insee_code":"54168","zip_code":"54770","name":"Dommartin-sous-Amance","slug":"dommartin sous amance","gps_lat":48.73593595505617,"gps_lng":6.24880292134832},{"id":20092,"department_code":"54","insee_code":"54169","zip_code":"54490","name":"Domprix","slug":"domprix","gps_lat":49.32910385416664,"gps_lng":5.76151885416667},{"id":20093,"department_code":"54","insee_code":"54170","zip_code":"54290","name":"Domptail-en-l'Air","slug":"domptail en l air","gps_lat":48.51215354430381,"gps_lng":6.33091075949367},{"id":20094,"department_code":"54","insee_code":"54171","zip_code":"54800","name":"Doncourt-lès-Conflans","slug":"doncourt les conflans","gps_lat":49.14749492063491,"gps_lng":5.92493365079365},{"id":20095,"department_code":"54","insee_code":"54172","zip_code":"54620","name":"Doncourt-lès-Longuyon","slug":"doncourt les longuyon","gps_lat":49.44170632911392,"gps_lng":5.7127235443038},{"id":20096,"department_code":"54","insee_code":"54173","zip_code":"54370","name":"Drouville","slug":"drouville","gps_lat":48.66967093333335,"gps_lng":6.409434},{"id":20638,"department_code":"55","insee_code":"55141","zip_code":"55500","name":"Dagonville","slug":"dagonville","gps_lat":48.78867817073171,"gps_lng":5.3827887804878},{"id":20639,"department_code":"55","insee_code":"55142","zip_code":"55130","name":"Dainville-Bertheléville","slug":"dainville bertheleville","gps_lat":48.45077092391304,"gps_lng":5.50627847826087},{"id":20640,"department_code":"55","insee_code":"55143","zip_code":"55400","name":"Damloup","slug":"damloup","gps_lat":49.20094295238095,"gps_lng":5.49832476190477},{"id":20641,"department_code":"55","insee_code":"55144","zip_code":"55500","name":"Dammarie-sur-Saulx","slug":"dammarie sur saulx","gps_lat":48.59866150375939,"gps_lng":5.24254496240602},{"id":20642,"department_code":"55","insee_code":"55145","zip_code":"55150","name":"Damvillers","slug":"damvillers","gps_lat":49.34529139860138,"gps_lng":5.41879020979021},{"id":20643,"department_code":"55","insee_code":"55146","zip_code":"55110","name":"Dannevoux","slug":"dannevoux","gps_lat":49.30556388489206,"gps_lng":5.2339790647482},{"id":20644,"department_code":"55","insee_code":"55148","zip_code":"55130","name":"Delouze-Rosières","slug":"delouze rosieres","gps_lat":48.56762663551402,"gps_lng":5.53218289719626},{"id":20645,"department_code":"55","insee_code":"55149","zip_code":"55150","name":"Delut","slug":"delut","gps_lat":49.40641986666667,"gps_lng":5.42364093333333},{"id":20646,"department_code":"55","insee_code":"55150","zip_code":"55130","name":"Demange-aux-Eaux","slug":"demange aux eaux","gps_lat":48.59067227272729,"gps_lng":5.46391579545454},{"id":20647,"department_code":"55","insee_code":"55153","zip_code":"55400","name":"Dieppe-sous-Douaumont","slug":"dieppe sous douaumont","gps_lat":49.21957705128208,"gps_lng":5.52453846153846},{"id":20648,"department_code":"55","insee_code":"55154","zip_code":"55320","name":"Dieue-sur-Meuse","slug":"dieue sur meuse","gps_lat":49.07869014705882,"gps_lng":5.42529970588235},{"id":20649,"department_code":"55","insee_code":"55155","zip_code":"55120","name":"Dombasle-en-Argonne","slug":"dombasle en argonne","gps_lat":49.14607755725193,"gps_lng":5.19695603053435},{"id":20650,"department_code":"55","insee_code":"55156","zip_code":"55150","name":"Dombras","slug":"dombras","gps_lat":49.38256681818179,"gps_lng":5.44999568181818},{"id":20651,"department_code":"55","insee_code":"55157","zip_code":"55160","name":"Dommartin-la-Montagne","slug":"dommartin la montagne","gps_lat":49.0267103030303,"gps_lng":5.60277287878788},{"id":20652,"department_code":"55","insee_code":"55158","zip_code":"55240","name":"Dommary-Baroncourt","slug":"dommary baroncourt","gps_lat":49.28472297979796,"gps_lng":5.71605126262626},{"id":20653,"department_code":"55","insee_code":"55159","zip_code":"55300","name":"Dompcevrin","slug":"dompcevrin","gps_lat":48.93235781250001,"gps_lng":5.47781552083333},{"id":20654,"department_code":"55","insee_code":"55160","zip_code":"55300","name":"Dompierre-aux-Bois","slug":"dompierre aux bois","gps_lat":48.99926776119403,"gps_lng":5.59470955223881},{"id":20655,"department_code":"55","insee_code":"55162","zip_code":"55240","name":"Domremy-la-Canne","slug":"domremy la canne","gps_lat":49.29681305084745,"gps_lng":5.69378966101695},{"id":20656,"department_code":"55","insee_code":"55163","zip_code":"55160","name":"Doncourt-aux-Templiers","slug":"doncourt aux templiers","gps_lat":49.06009776119402,"gps_lng":5.72474119402985},{"id":20657,"department_code":"55","insee_code":"55164","zip_code":"55100","name":"Douaumont","slug":"douaumont","gps_lat":49.22089912499999,"gps_lng":5.430304},{"id":20658,"department_code":"55","insee_code":"55165","zip_code":"55110","name":"Doulcon","slug":"doulcon","gps_lat":49.38754880597015,"gps_lng":5.15866432835821},{"id":20659,"department_code":"55","insee_code":"55166","zip_code":"55100","name":"Dugny-sur-Meuse","slug":"dugny sur meuse","gps_lat":49.10158786729858,"gps_lng":5.36943450236967},{"id":20660,"department_code":"55","insee_code":"55167","zip_code":"55110","name":"Dun-sur-Meuse","slug":"dun sur meuse","gps_lat":49.38315625,"gps_lng":5.19682805555555},{"id":20661,"department_code":"55","insee_code":"55168","zip_code":"55230","name":"Duzey","slug":"duzey","gps_lat":49.36060111111111,"gps_lng":5.62642174603175},{"id":21067,"department_code":"56","insee_code":"56052","zip_code":"56750","name":"Damgan","slug":"damgan","gps_lat":47.52107785425102,"gps_lng":-2.58800546558705},{"id":21427,"department_code":"57","insee_code":"57163","zip_code":"57850","name":"Dabo","slug":"dabo","gps_lat":48.6503890214797,"gps_lng":7.2196439379475},{"id":21428,"department_code":"57","insee_code":"57165","zip_code":"57550","name":"Dalem","slug":"dalem","gps_lat":49.23890219999998,"gps_lng":6.6123179},{"id":21429,"department_code":"57","insee_code":"57166","zip_code":"57340","name":"Dalhain","slug":"dalhain","gps_lat":48.8897107017544,"gps_lng":6.5592729824561395},{"id":21430,"department_code":"57","insee_code":"57167","zip_code":"57320","name":"Dalstein","slug":"dalstein","gps_lat":49.30664418918918,"gps_lng":6.4025839189189195},{"id":21431,"department_code":"57","insee_code":"57168","zip_code":"57370","name":"Danne-et-Quatre-Vents","slug":"danne et quatre vents","gps_lat":48.76274022388058,"gps_lng":7.2882373880597005},{"id":21432,"department_code":"57","insee_code":"57169","zip_code":"57820","name":"Dannelbourg","slug":"dannelbourg","gps_lat":48.74260421874999,"gps_lng":7.23985234375},{"id":21433,"department_code":"57","insee_code":"57171","zip_code":"57590","name":"Delme","slug":"delme","gps_lat":48.88344039603962,"gps_lng":6.38420891089109},{"id":21434,"department_code":"57","insee_code":"57172","zip_code":"57220","name":"Denting","slug":"denting","gps_lat":49.18290172043011,"gps_lng":6.5473119354838705},{"id":21435,"department_code":"57","insee_code":"57173","zip_code":"57260","name":"Desseling","slug":"desseling","gps_lat":48.78652357894735,"gps_lng":6.8467526315789495},{"id":21436,"department_code":"57","insee_code":"57174","zip_code":"57340","name":"Destry","slug":"destry","gps_lat":48.94932229885057,"gps_lng":6.58649666666667},{"id":21437,"department_code":"57","insee_code":"57175","zip_code":"57830","name":"Diane-Capelle","slug":"diane capelle","gps_lat":48.72993901639344,"gps_lng":6.9312806557377},{"id":21438,"department_code":"57","insee_code":"57176","zip_code":"57980","name":"Diebling","slug":"diebling","gps_lat":49.10542765432098,"gps_lng":6.93638160493827},{"id":21439,"department_code":"57","insee_code":"57177","zip_code":"57260","name":"Dieuze","slug":"dieuze","gps_lat":48.80681046153845,"gps_lng":6.71572376923077},{"id":21440,"department_code":"57","insee_code":"57178","zip_code":"57660","name":"Diffembach-lès-Hellimer","slug":"diffembach les hellimer","gps_lat":49.00675660130719,"gps_lng":6.85830816993464},{"id":21441,"department_code":"57","insee_code":"57179","zip_code":"57925","name":"Distroff","slug":"distroff","gps_lat":49.33576786764702,"gps_lng":6.25748823529412},{"id":21442,"department_code":"57","insee_code":"57180","zip_code":"57400","name":"Dolving","slug":"dolving","gps_lat":48.76967203125,"gps_lng":7.02179984375},{"id":21443,"department_code":"57","insee_code":"57181","zip_code":"57260","name":"Domnom-lès-Dieuze","slug":"domnom les dieuze","gps_lat":48.8599562264151,"gps_lng":6.82418367924528},{"id":21444,"department_code":"57","insee_code":"57182","zip_code":"57590","name":"Donjeux","slug":"donjeux","gps_lat":48.87792819672132,"gps_lng":6.41179786885246},{"id":21445,"department_code":"57","insee_code":"57183","zip_code":"57810","name":"Donnelay","slug":"donnelay","gps_lat":48.74999362831858,"gps_lng":6.68895690265487},{"id":22000,"department_code":"57","insee_code":"57765","zip_code":"57890","name":"Diesen","slug":"diesen","gps_lat":49.17419843373494,"gps_lng":6.69000397590361},{"id":22093,"department_code":"58","insee_code":"58094","zip_code":"58310","name":"Dampierre-sous-Bouhy","slug":"dampierre sous bouhy","gps_lat":47.51017656488548,"gps_lng":3.13025709923664},{"id":22094,"department_code":"58","insee_code":"58095","zip_code":"58300","name":"Decize","slug":"decize","gps_lat":46.80956060606064,"gps_lng":3.46930363636363},{"id":22095,"department_code":"58","insee_code":"58096","zip_code":"58300","name":"Devay","slug":"devay","gps_lat":46.80644984126982,"gps_lng":3.54433079365079},{"id":22096,"department_code":"58","insee_code":"58097","zip_code":"58340","name":"Diennes-Aubigny","slug":"diennes aubigny","gps_lat":46.915158961039,"gps_lng":3.57902255411256},{"id":22097,"department_code":"58","insee_code":"58098","zip_code":"58190","name":"Dirol","slug":"dirol","gps_lat":47.3248378804348,"gps_lng":3.64020086956522},{"id":22098,"department_code":"58","insee_code":"58099","zip_code":"58120","name":"Dommartin","slug":"dommartin","gps_lat":47.07024233160623,"gps_lng":3.84763284974093},{"id":22099,"department_code":"58","insee_code":"58101","zip_code":"58350","name":"Dompierre-sur-Nièvre","slug":"dompierre sur nievre","gps_lat":47.22986611842106,"gps_lng":3.25322842105263},{"id":22100,"department_code":"58","insee_code":"58102","zip_code":"58220","name":"Donzy","slug":"donzy","gps_lat":47.38298539823007,"gps_lng":3.10616199115044},{"id":22101,"department_code":"58","insee_code":"58103","zip_code":"58530","name":"Dornecy","slug":"dornecy","gps_lat":47.44243408163265,"gps_lng":3.5839662585034002},{"id":22102,"department_code":"58","insee_code":"58104","zip_code":"58390","name":"Dornes","slug":"dornes","gps_lat":46.72379321428572,"gps_lng":3.33836985714286},{"id":22103,"department_code":"58","insee_code":"58105","zip_code":"58160","name":"Druy-Parigny","slug":"druy parigny","gps_lat":46.88075672413789,"gps_lng":3.37374331034483},{"id":22104,"department_code":"58","insee_code":"58106","zip_code":"58230","name":"Dun-les-Places","slug":"dun les places","gps_lat":47.28918996969698,"gps_lng":4.02058078787879},{"id":22105,"department_code":"58","insee_code":"58107","zip_code":"58110","name":"Dun-sur-Grandry","slug":"dun sur grandry","gps_lat":47.08816736263735,"gps_lng":3.79526994505494},{"id":22476,"department_code":"59","insee_code":"59169","zip_code":"59680","name":"Damousies","slug":"damousies","gps_lat":50.21995850746269,"gps_lng":4.01208768656716},{"id":22477,"department_code":"59","insee_code":"59170","zip_code":"59187","name":"Dechy","slug":"dechy","gps_lat":50.34855029411764,"gps_lng":3.13393480392157},{"id":22478,"department_code":"59","insee_code":"59171","zip_code":"59127","name":"Dehéries","slug":"deheries","gps_lat":50.04945965517242,"gps_lng":3.3441558620689698},{"id":22479,"department_code":"59","insee_code":"59172","zip_code":"59220","name":"Denain","slug":"denain","gps_lat":50.33131443037973,"gps_lng":3.38874746835443},{"id":22480,"department_code":"59","insee_code":"59173","zip_code":"59890","name":"Deûlémont","slug":"deulemont","gps_lat":50.72767468750001,"gps_lng":2.96819239583333},{"id":22481,"department_code":"59","insee_code":"59174","zip_code":"59740","name":"Dimechaux","slug":"dimechaux","gps_lat":50.20066407643312,"gps_lng":4.04722356687898},{"id":22482,"department_code":"59","insee_code":"59175","zip_code":"59216","name":"Dimont","slug":"dimont","gps_lat":50.18775159722223,"gps_lng":4.01855166666667},{"id":22483,"department_code":"59","insee_code":"59176","zip_code":"59400","name":"Doignies","slug":"doignies","gps_lat":50.13346564356436,"gps_lng":3.01521564356436},{"id":22484,"department_code":"59","insee_code":"59177","zip_code":"59440","name":"Dompierre-sur-Helpe","slug":"dompierre sur helpe","gps_lat":50.14255199999998,"gps_lng":3.8526650212766},{"id":22485,"department_code":"59","insee_code":"59178","zip_code":"59500","name":"Douai","slug":"douai","gps_lat":50.38328086734693,"gps_lng":3.09362132653061},{"id":22486,"department_code":"59","insee_code":"59179","zip_code":"59282","name":"Douchy-les-Mines","slug":"douchy les mines","gps_lat":50.29890535433071,"gps_lng":3.38786456692913},{"id":22488,"department_code":"59","insee_code":"59181","zip_code":"59440","name":"Dourlers","slug":"dourlers","gps_lat":50.17692585585587,"gps_lng":3.9419763963964},{"id":22489,"department_code":"59","insee_code":"59182","zip_code":"59630","name":"Drincham","slug":"drincham","gps_lat":50.90926166666667,"gps_lng":2.3227366666666702},{"id":22490,"department_code":"59","insee_code":"59183","zip_code":"59140","name":"Dunkerque","slug":"dunkerque","gps_lat":51.0460018,"gps_lng":2.3579275},{"id":22491,"department_code":"59","insee_code":"59183","zip_code":"59240","name":"Dunkerque","slug":"dunkerque","gps_lat":51.0450181,"gps_lng":2.4062944},{"id":22492,"department_code":"59","insee_code":"59183","zip_code":"59279","name":"Dunkerque","slug":"dunkerque","gps_lat":51.00158,"gps_lng":2.2274287},{"id":22493,"department_code":"59","insee_code":"59183","zip_code":"59430","name":"Dunkerque","slug":"dunkerque","gps_lat":51.03351499999999,"gps_lng":2.3296549},{"id":22494,"department_code":"59","insee_code":"59183","zip_code":"59640","name":"Dunkerque","slug":"dunkerque","gps_lat":51.0149751,"gps_lng":2.343224},{"id":22970,"department_code":"59","insee_code":"59670","zip_code":"59272","name":"Don","slug":"don","gps_lat":50.54520755555554,"gps_lng":2.91557311111111},{"id":23163,"department_code":"60","insee_code":"60193","zip_code":"60210","name":"Daméraucourt","slug":"dameraucourt","gps_lat":49.70196033898307,"gps_lng":1.9205286440678},{"id":23164,"department_code":"60","insee_code":"60194","zip_code":"60210","name":"Dargies","slug":"dargies","gps_lat":49.70217789473686,"gps_lng":1.9900630526315801},{"id":23165,"department_code":"60","insee_code":"60195","zip_code":"60240","name":"Delincourt","slug":"delincourt","gps_lat":49.24468407079645,"gps_lng":1.8325996460176999},{"id":23167,"department_code":"60","insee_code":"60197","zip_code":"60530","name":"Dieudonné","slug":"dieudonne","gps_lat":49.24129878378379,"gps_lng":2.2436477027027},{"id":23168,"department_code":"60","insee_code":"60198","zip_code":"60310","name":"Dives","slug":"dives","gps_lat":49.589860965517246,"gps_lng":2.87815724137931},{"id":23169,"department_code":"60","insee_code":"60199","zip_code":"60360","name":"Doméliers","slug":"domeliers","gps_lat":49.63127055555555,"gps_lng":2.16257791666667},{"id":23170,"department_code":"60","insee_code":"60200","zip_code":"60420","name":"Domfront","slug":"domfront","gps_lat":49.59984472727273,"gps_lng":2.557614},{"id":23171,"department_code":"60","insee_code":"60201","zip_code":"60420","name":"Dompierre","slug":"dompierre","gps_lat":49.59211605263158,"gps_lng":2.53285447368421},{"id":23172,"department_code":"60","insee_code":"60203","zip_code":"60800","name":"Duvy","slug":"duvy","gps_lat":49.2318273148148,"gps_lng":2.84761324074074},{"id":23770,"department_code":"61","insee_code":"61142","zip_code":"61130","name":"Dame-Marie","slug":"dame marie","gps_lat":48.35468630872482,"gps_lng":0.61856463087248},{"id":23771,"department_code":"61","insee_code":"61143","zip_code":"61250","name":"Damigny","slug":"damigny","gps_lat":48.45141575342466,"gps_lng":0.07170273972603},{"id":23772,"department_code":"61","insee_code":"61145","zip_code":"61700","name":"Domfront en Poiraie","slug":"domfront en poiraie","gps_lat":48.59025804379563,"gps_lng":-0.6602326715328499},{"id":23773,"department_code":"61","insee_code":"61146","zip_code":"61700","name":"Dompierre","slug":"dompierre","gps_lat":48.63533963235292,"gps_lng":-0.55714058823529},{"id":23774,"department_code":"61","insee_code":"61148","zip_code":"61100","name":"Durcet","slug":"durcet","gps_lat":48.74121374999999,"gps_lng":-0.44410734375000005},{"id":24321,"department_code":"62","insee_code":"62263","zip_code":"62000","name":"Dainville","slug":"dainville","gps_lat":50.27820395833334,"gps_lng":2.71610739583333},{"id":24322,"department_code":"62","insee_code":"62264","zip_code":"62187","name":"Dannes","slug":"dannes","gps_lat":50.59419602409636,"gps_lng":1.60960710843373},{"id":24323,"department_code":"62","insee_code":"62265","zip_code":"62129","name":"Delettes","slug":"delettes","gps_lat":50.62293149122811,"gps_lng":2.22027157894737},{"id":24324,"department_code":"62","insee_code":"62266","zip_code":"62810","name":"Denier","slug":"denier","gps_lat":50.29053456140352,"gps_lng":2.44519789473684},{"id":24325,"department_code":"62","insee_code":"62267","zip_code":"62560","name":"Dennebrœucq","slug":"dennebroeucq","gps_lat":50.5811482113821,"gps_lng":2.1560312195122},{"id":24326,"department_code":"62","insee_code":"62268","zip_code":"62240","name":"Desvres","slug":"desvres","gps_lat":50.67521123188404,"gps_lng":1.82478202898551},{"id":24327,"department_code":"62","insee_code":"62269","zip_code":"62460","name":"Diéval","slug":"dieval","gps_lat":50.44084707692308,"gps_lng":2.45225815384615},{"id":24328,"department_code":"62","insee_code":"62270","zip_code":"62460","name":"Divion","slug":"divion","gps_lat":50.4677919047619,"gps_lng":2.5086485714285702},{"id":24329,"department_code":"62","insee_code":"62271","zip_code":"62380","name":"Dohem","slug":"dohem","gps_lat":50.6250544,"gps_lng":2.1680128},{"id":24330,"department_code":"62","insee_code":"62272","zip_code":"62116","name":"Douchy-lès-Ayette","slug":"douchy les ayette","gps_lat":50.17636210526316,"gps_lng":2.7058175},{"id":24331,"department_code":"62","insee_code":"62273","zip_code":"62830","name":"Doudeauville","slug":"doudeauville","gps_lat":50.62233876404496,"gps_lng":1.83145235955056},{"id":24332,"department_code":"62","insee_code":"62274","zip_code":"62119","name":"Dourges","slug":"dourges","gps_lat":50.43828843283582,"gps_lng":2.98628828358209},{"id":24333,"department_code":"62","insee_code":"62275","zip_code":"62870","name":"Douriez","slug":"douriez","gps_lat":50.3386053508772,"gps_lng":1.877755},{"id":24334,"department_code":"62","insee_code":"62276","zip_code":"62138","name":"Douvrin","slug":"douvrin","gps_lat":50.50883982142857,"gps_lng":2.83201053571429},{"id":24335,"department_code":"62","insee_code":"62277","zip_code":"62320","name":"Drocourt","slug":"drocourt","gps_lat":50.39040888888888,"gps_lng":2.9327308333333297},{"id":24336,"department_code":"62","insee_code":"62278","zip_code":"62131","name":"Drouvin-le-Marais","slug":"drouvin le marais","gps_lat":50.48826351851853,"gps_lng":2.63086537037037},{"id":24337,"department_code":"62","insee_code":"62279","zip_code":"62161","name":"Duisans","slug":"duisans","gps_lat":50.30289651376145,"gps_lng":2.69866119266055},{"id":24338,"department_code":"62","insee_code":"62280","zip_code":"62156","name":"Dury","slug":"dury","gps_lat":50.24930573770489,"gps_lng":3.00207229508197},{"id":25087,"department_code":"63","insee_code":"63133","zip_code":"63111","name":"Dallet","slug":"dallet","gps_lat":45.77160868421054,"gps_lng":3.24282578947368},{"id":25088,"department_code":"63","insee_code":"63134","zip_code":"63340","name":"Dauzat-sur-Vodable","slug":"dauzat sur vodable","gps_lat":45.47026766233768,"gps_lng":3.08262766233766},{"id":25089,"department_code":"63","insee_code":"63135","zip_code":"63200","name":"Davayat","slug":"davayat","gps_lat":45.94779029411765,"gps_lng":3.113835},{"id":25090,"department_code":"63","insee_code":"63136","zip_code":"63520","name":"Domaize","slug":"domaize","gps_lat":45.68444276018099,"gps_lng":3.53189769230769},{"id":25091,"department_code":"63","insee_code":"63137","zip_code":"63220","name":"Doranges","slug":"doranges","gps_lat":45.40281932885907,"gps_lng":3.6093755704698},{"id":25092,"department_code":"63","insee_code":"63138","zip_code":"63300","name":"Dorat","slug":"dorat","gps_lat":45.89690988304092,"gps_lng":3.47603578947368},{"id":25093,"department_code":"63","insee_code":"63139","zip_code":"63220","name":"Dore-l'Église","slug":"dore l eglise","gps_lat":45.37539887640448,"gps_lng":3.75383825842697},{"id":25094,"department_code":"63","insee_code":"63140","zip_code":"63700","name":"Durmignat","slug":"durmignat","gps_lat":46.19862848958334,"gps_lng":2.9005459375},{"id":25095,"department_code":"63","insee_code":"63141","zip_code":"63830","name":"Durtol","slug":"durtol","gps_lat":45.79865635294117,"gps_lng":3.05331305882353},{"id":25614,"department_code":"64","insee_code":"64198","zip_code":"64230","name":"Denguin","slug":"denguin","gps_lat":43.37467866310161,"gps_lng":-0.4953413368984},{"id":25615,"department_code":"64","insee_code":"64199","zip_code":"64330","name":"Diusse","slug":"diusse","gps_lat":43.56746457142859,"gps_lng":-0.17263323809524},{"id":25616,"department_code":"64","insee_code":"64200","zip_code":"64370","name":"Doazon","slug":"doazon","gps_lat":43.45590690476191,"gps_lng":-0.55322345238095},{"id":25617,"department_code":"64","insee_code":"64201","zip_code":"64190","name":"Dognen","slug":"dognen","gps_lat":43.28915965346534,"gps_lng":-0.73061495049505},{"id":25618,"department_code":"64","insee_code":"64202","zip_code":"64120","name":"Domezain-Berraute","slug":"domezain berraute","gps_lat":43.33156676190479,"gps_lng":-0.96191323809524},{"id":25619,"department_code":"64","insee_code":"64203","zip_code":"64450","name":"Doumy","slug":"doumy","gps_lat":43.44513071895422,"gps_lng":-0.37672718954247997},{"id":26122,"department_code":"65","insee_code":"65155","zip_code":"65230","name":"Devèze","slug":"deveze","gps_lat":43.27555656862745,"gps_lng":0.55216137254902},{"id":26123,"department_code":"65","insee_code":"65156","zip_code":"65350","name":"Dours","slug":"dours","gps_lat":43.30879337662338,"gps_lng":0.1331088961039},{"id":26503,"department_code":"66","insee_code":"66062","zip_code":"66760","name":"Dorres","slug":"dorres","gps_lat":42.50452595419848,"gps_lng":1.9339379389313},{"id":26745,"department_code":"67","insee_code":"67080","zip_code":"67120","name":"Dachstein","slug":"dachstein","gps_lat":48.55663140350877,"gps_lng":7.53679614035088},{"id":26746,"department_code":"67","insee_code":"67081","zip_code":"67310","name":"Dahlenheim","slug":"dahlenheim","gps_lat":48.58548797979797,"gps_lng":7.51205474747475},{"id":26747,"department_code":"67","insee_code":"67082","zip_code":"67770","name":"Dalhunden","slug":"dalhunden","gps_lat":48.77340321428569,"gps_lng":7.98180160714286},{"id":26748,"department_code":"67","insee_code":"67083","zip_code":"67110","name":"Dambach","slug":"dambach","gps_lat":49.00980530303033,"gps_lng":7.63975398989898},{"id":26749,"department_code":"67","insee_code":"67084","zip_code":"67650","name":"Dambach-la-Ville","slug":"dambach la ville","gps_lat":48.32205333333334,"gps_lng":7.41506497267759},{"id":26750,"department_code":"67","insee_code":"67085","zip_code":"67310","name":"Dangolsheim","slug":"dangolsheim","gps_lat":48.56638163934426,"gps_lng":7.45899655737705},{"id":26751,"department_code":"67","insee_code":"67086","zip_code":"67150","name":"Daubensand","slug":"daubensand","gps_lat":48.35528592592591,"gps_lng":7.72006592592593},{"id":26752,"department_code":"67","insee_code":"67087","zip_code":"67350","name":"Dauendorf","slug":"dauendorf","gps_lat":48.83645840336133,"gps_lng":7.67161092436975},{"id":26753,"department_code":"67","insee_code":"67088","zip_code":"67430","name":"Dehlingen","slug":"dehlingen","gps_lat":48.98617666666667,"gps_lng":7.18095883333333},{"id":26754,"department_code":"67","insee_code":"67089","zip_code":"67490","name":"Dettwiller","slug":"dettwiller","gps_lat":48.75833567796609,"gps_lng":7.45267813559322},{"id":26755,"department_code":"67","insee_code":"67090","zip_code":"67230","name":"Diebolsheim","slug":"diebolsheim","gps_lat":48.28634326923076,"gps_lng":7.65554894230769},{"id":26756,"department_code":"67","insee_code":"67091","zip_code":"67260","name":"Diedendorf","slug":"diedendorf","gps_lat":48.88393045112782,"gps_lng":7.04031353383458},{"id":26757,"department_code":"67","insee_code":"67092","zip_code":"67220","name":"Dieffenbach-au-Val","slug":"dieffenbach au val","gps_lat":48.31505266666667,"gps_lng":7.325535},{"id":26758,"department_code":"67","insee_code":"67093","zip_code":"67360","name":"Dieffenbach-lès-Wœrth","slug":"dieffenbach les woerth","gps_lat":48.93103981308412,"gps_lng":7.79324719626168},{"id":26759,"department_code":"67","insee_code":"67094","zip_code":"67650","name":"Dieffenthal","slug":"dieffenthal","gps_lat":48.30850638297873,"gps_lng":7.41086914893617},{"id":26760,"department_code":"67","insee_code":"67095","zip_code":"67430","name":"Diemeringen","slug":"diemeringen","gps_lat":48.94223823899372,"gps_lng":7.21065044025157},{"id":26761,"department_code":"67","insee_code":"67096","zip_code":"67440","name":"Dimbsthal","slug":"dimbsthal","gps_lat":48.6738935483871,"gps_lng":7.35680290322581},{"id":26762,"department_code":"67","insee_code":"67097","zip_code":"67370","name":"Dingsheim","slug":"dingsheim","gps_lat":48.62407368421053,"gps_lng":7.66516842105263},{"id":26763,"department_code":"67","insee_code":"67098","zip_code":"67190","name":"Dinsheim-sur-Bruche","slug":"dinsheim sur bruche","gps_lat":48.54469376623377,"gps_lng":7.41894532467532},{"id":26764,"department_code":"67","insee_code":"67099","zip_code":"67430","name":"Domfessel","slug":"domfessel","gps_lat":48.94856229729729,"gps_lng":7.1462},{"id":26765,"department_code":"67","insee_code":"67100","zip_code":"67170","name":"Donnenheim","slug":"donnenheim","gps_lat":48.72319039999999,"gps_lng":7.66584786666667},{"id":26766,"department_code":"67","insee_code":"67101","zip_code":"67120","name":"Dorlisheim","slug":"dorlisheim","gps_lat":48.52053297520662,"gps_lng":7.4721879338843},{"id":26767,"department_code":"67","insee_code":"67102","zip_code":"67117","name":"Dossenheim-Kochersberg","slug":"dossenheim kochersberg","gps_lat":48.64047680851063,"gps_lng":7.5790259574468095},{"id":26768,"department_code":"67","insee_code":"67103","zip_code":"67330","name":"Dossenheim-sur-Zinsel","slug":"dossenheim sur zinsel","gps_lat":48.8111620967742,"gps_lng":7.37768758064516},{"id":26769,"department_code":"67","insee_code":"67104","zip_code":"67160","name":"Drachenbronn-Birlenbach","slug":"drachenbronn birlenbach","gps_lat":48.98053657407408,"gps_lng":7.87806537037037},{"id":26770,"department_code":"67","insee_code":"67105","zip_code":"67320","name":"Drulingen","slug":"drulingen","gps_lat":48.86679065934069,"gps_lng":7.19627538461539},{"id":26771,"department_code":"67","insee_code":"67106","zip_code":"67410","name":"Drusenheim","slug":"drusenheim","gps_lat":48.7606352586207,"gps_lng":7.94204706896552},{"id":26772,"department_code":"67","insee_code":"67107","zip_code":"67270","name":"Duntzenheim","slug":"duntzenheim","gps_lat":48.71269243902439,"gps_lng":7.54230975609756},{"id":26773,"department_code":"67","insee_code":"67108","zip_code":"67120","name":"Duppigheim","slug":"duppigheim","gps_lat":48.53711950617284,"gps_lng":7.59749135802469},{"id":26774,"department_code":"67","insee_code":"67109","zip_code":"67270","name":"Durningen","slug":"durningen","gps_lat":48.68337465517242,"gps_lng":7.56063517241379},{"id":26775,"department_code":"67","insee_code":"67110","zip_code":"67360","name":"Durrenbach","slug":"durrenbach","gps_lat":48.89772752808991,"gps_lng":7.76832887640449},{"id":26776,"department_code":"67","insee_code":"67111","zip_code":"67320","name":"Durstel","slug":"durstel","gps_lat":48.89080465753425,"gps_lng":7.20906493150685},{"id":26777,"department_code":"67","insee_code":"67112","zip_code":"67120","name":"Duttlenheim","slug":"duttlenheim","gps_lat":48.52430610169492,"gps_lng":7.5729094915254205},{"id":27256,"department_code":"68","insee_code":"68068","zip_code":"68210","name":"Dannemarie","slug":"dannemarie","gps_lat":47.62139128571429,"gps_lng":7.11488571428571},{"id":27257,"department_code":"68","insee_code":"68069","zip_code":"68600","name":"Dessenheim","slug":"dessenheim","gps_lat":47.97610418604651,"gps_lng":7.49061558139535},{"id":27258,"department_code":"68","insee_code":"68071","zip_code":"68780","name":"Diefmatten","slug":"diefmatten","gps_lat":47.70562523076925,"gps_lng":7.10145369230769},{"id":27259,"department_code":"68","insee_code":"68072","zip_code":"68440","name":"Dietwiller","slug":"dietwiller","gps_lat":47.69686397260275,"gps_lng":7.40287698630137},{"id":27260,"department_code":"68","insee_code":"68073","zip_code":"68290","name":"Dolleren","slug":"dolleren","gps_lat":47.79656765306122,"gps_lng":6.91834744897959},{"id":27261,"department_code":"68","insee_code":"68074","zip_code":"68480","name":"Durlinsdorf","slug":"durlinsdorf","gps_lat":47.4915832835821,"gps_lng":7.23225402985075},{"id":27262,"department_code":"68","insee_code":"68075","zip_code":"68480","name":"Durmenach","slug":"durmenach","gps_lat":47.52749431372548,"gps_lng":7.34035607843137},{"id":27263,"department_code":"68","insee_code":"68076","zip_code":"68320","name":"Durrenentzen","slug":"durrenentzen","gps_lat":48.09526108695653,"gps_lng":7.51041239130435},{"id":27630,"department_code":"69","insee_code":"69072","zip_code":"69570","name":"Dardilly","slug":"dardilly","gps_lat":45.81431216981132,"gps_lng":4.74479613207547},{"id":27631,"department_code":"69","insee_code":"69073","zip_code":"69490","name":"Dareizé","slug":"dareize","gps_lat":45.90660857142856,"gps_lng":4.48942485714286},{"id":27632,"department_code":"69","insee_code":"69074","zip_code":"69640","name":"Denicé","slug":"denice","gps_lat":46.0046808139535,"gps_lng":4.64301918604651},{"id":27633,"department_code":"69","insee_code":"69075","zip_code":"69170","name":"Dième","slug":"dieme","gps_lat":45.95985588235294,"gps_lng":4.46419011764706},{"id":27634,"department_code":"69","insee_code":"69076","zip_code":"69380","name":"Dommartin","slug":"dommartin","gps_lat":45.83408475609757,"gps_lng":4.71531975609756},{"id":27635,"department_code":"69","insee_code":"69077","zip_code":"69220","name":"Dracé","slug":"drace","gps_lat":46.1562387755102,"gps_lng":4.7768269387755105},{"id":27636,"department_code":"69","insee_code":"69078","zip_code":"69850","name":"Duerne","slug":"duerne","gps_lat":45.67903485981308,"gps_lng":4.52366224299066},{"id":27824,"department_code":"69","insee_code":"69275","zip_code":"69150","name":"Décines-Charpieu","slug":"decines charpieu","gps_lat":45.77042428571428,"gps_lng":4.95956285714286},{"id":28032,"department_code":"70","insee_code":"70195","zip_code":"70200","name":"Dambenoît-lès-Colombe","slug":"dambenoit les colombe","gps_lat":47.72283484126986,"gps_lng":6.38452182539683},{"id":28033,"department_code":"70","insee_code":"70196","zip_code":"70800","name":"Dampierre-lès-Conflans","slug":"dampierre les conflans","gps_lat":47.84372732240439,"gps_lng":6.18605081967214},{"id":28034,"department_code":"70","insee_code":"70197","zip_code":"70230","name":"Dampierre-sur-Linotte","slug":"dampierre sur linotte","gps_lat":47.52896594339624,"gps_lng":6.2426133490566},{"id":28035,"department_code":"70","insee_code":"70198","zip_code":"70180","name":"Dampierre-sur-Salon","slug":"dampierre sur salon","gps_lat":47.57101937853107,"gps_lng":5.6740087570621505},{"id":28036,"department_code":"70","insee_code":"70199","zip_code":"70000","name":"Dampvalley-lès-Colombe","slug":"dampvalley les colombe","gps_lat":47.62482230769228,"gps_lng":6.24687615384615},{"id":28037,"department_code":"70","insee_code":"70200","zip_code":"70210","name":"Dampvalley-Saint-Pancras","slug":"dampvalley saint pancras","gps_lat":47.91254147058824,"gps_lng":6.20062490196078},{"id":28038,"department_code":"70","insee_code":"70201","zip_code":"70180","name":"Delain","slug":"delain","gps_lat":47.58810734265732,"gps_lng":5.6435732867132895},{"id":28039,"department_code":"70","insee_code":"70202","zip_code":"70210","name":"Demangevelle","slug":"demangevelle","gps_lat":47.92911830508474,"gps_lng":6.0425202542372904},{"id":28041,"department_code":"70","insee_code":"70204","zip_code":"70180","name":"Denèvre","slug":"denevre","gps_lat":47.56061621052631,"gps_lng":5.64455978947368},{"id":28553,"department_code":"71","insee_code":"71167","zip_code":"71620","name":"Damerey","slug":"damerey","gps_lat":46.83232655462186,"gps_lng":4.99506344537815},{"id":28554,"department_code":"71","insee_code":"71168","zip_code":"71310","name":"Dampierre-en-Bresse","slug":"dampierre en bresse","gps_lat":46.82764216666665,"gps_lng":5.19571305555556},{"id":28555,"department_code":"71","insee_code":"71169","zip_code":"71960","name":"Davayé","slug":"davaye","gps_lat":46.30401893617021,"gps_lng":4.74940563829787},{"id":28556,"department_code":"71","insee_code":"71170","zip_code":"71150","name":"Demigny","slug":"demigny","gps_lat":46.92128552447551,"gps_lng":4.84719115384615},{"id":28557,"department_code":"71","insee_code":"71171","zip_code":"71510","name":"Dennevy","slug":"dennevy","gps_lat":46.86382142857143,"gps_lng":4.64346098214286},{"id":28558,"department_code":"71","insee_code":"71172","zip_code":"71190","name":"Dettey","slug":"dettey","gps_lat":46.76631096153847,"gps_lng":4.19371771978022},{"id":28559,"department_code":"71","insee_code":"71173","zip_code":"71330","name":"Devrouze","slug":"devrouze","gps_lat":46.76118044943816,"gps_lng":5.16639794007491},{"id":28560,"department_code":"71","insee_code":"71174","zip_code":"71150","name":"Dezize-lès-Maranges","slug":"dezize les maranges","gps_lat":46.91822088235296,"gps_lng":4.65600661764706},{"id":28561,"department_code":"71","insee_code":"71175","zip_code":"71330","name":"Diconne","slug":"diconne","gps_lat":46.77813029069767,"gps_lng":5.12825063953488},{"id":28562,"department_code":"71","insee_code":"71176","zip_code":"71160","name":"Digoin","slug":"digoin","gps_lat":46.49018725490196,"gps_lng":4.03508477124183},{"id":28563,"department_code":"71","insee_code":"71177","zip_code":"71480","name":"Dommartin-lès-Cuiseaux","slug":"dommartin les cuiseaux","gps_lat":46.50161126696833,"gps_lng":5.28860407239819},{"id":28564,"department_code":"71","insee_code":"71178","zip_code":"71520","name":"Dompierre-les-Ormes","slug":"dompierre les ormes","gps_lat":46.35573066371684,"gps_lng":4.48790969026548},{"id":28565,"department_code":"71","insee_code":"71179","zip_code":"71420","name":"Dompierre-sous-Sanvignes","slug":"dompierre sous sanvignes","gps_lat":46.66581970588238,"gps_lng":4.22466107843137},{"id":28566,"department_code":"71","insee_code":"71181","zip_code":"71250","name":"Donzy-le-Pertuis","slug":"donzy le pertuis","gps_lat":46.4475866442953,"gps_lng":4.71765812080537},{"id":28567,"department_code":"71","insee_code":"71182","zip_code":"71640","name":"Dracy-le-Fort","slug":"dracy le fort","gps_lat":46.79397892857141,"gps_lng":4.76424089285714},{"id":28568,"department_code":"71","insee_code":"71183","zip_code":"71490","name":"Dracy-lès-Couches","slug":"dracy les couches","gps_lat":46.89629728155337,"gps_lng":4.55722038834951},{"id":28569,"department_code":"71","insee_code":"71184","zip_code":"71400","name":"Dracy-Saint-Loup","slug":"dracy saint loup","gps_lat":47.01558887966802,"gps_lng":4.34444688796681},{"id":28570,"department_code":"71","insee_code":"71185","zip_code":"71800","name":"Dyo","slug":"dyo","gps_lat":46.36461365853661,"gps_lng":4.28656056910569},{"id":29062,"department_code":"72","insee_code":"72112","zip_code":"72260","name":"Dangeul","slug":"dangeul","gps_lat":48.24888451219512,"gps_lng":0.26266158536585},{"id":29063,"department_code":"72","insee_code":"72113","zip_code":"72550","name":"Degré","slug":"degre","gps_lat":48.05231551020409,"gps_lng":0.07475612244898},{"id":29064,"department_code":"72","insee_code":"72114","zip_code":"72400","name":"Dehault","slug":"dehault","gps_lat":48.20602112903226,"gps_lng":0.58162709677419},{"id":29065,"department_code":"72","insee_code":"72115","zip_code":"72500","name":"Dissay-sous-Courcillon","slug":"dissay sous courcillon","gps_lat":47.66391067307689,"gps_lng":0.48671418269231},{"id":29066,"department_code":"72","insee_code":"72116","zip_code":"72260","name":"Dissé-sous-Ballon","slug":"disse sous ballon","gps_lat":48.23228901408452,"gps_lng":0.30119521126761},{"id":29067,"department_code":"72","insee_code":"72118","zip_code":"72390","name":"Dollon","slug":"dollon","gps_lat":48.04077663742689,"gps_lng":0.58590307017544},{"id":29068,"department_code":"72","insee_code":"72119","zip_code":"72240","name":"Domfront-en-Champagne","slug":"domfront en champagne","gps_lat":48.10595017964074,"gps_lng":0.05164431137725},{"id":29069,"department_code":"72","insee_code":"72120","zip_code":"72170","name":"Doucelles","slug":"doucelles","gps_lat":48.25543615384618,"gps_lng":0.18170969230769},{"id":29070,"department_code":"72","insee_code":"72121","zip_code":"72130","name":"Douillet","slug":"douillet","gps_lat":48.27557771929827,"gps_lng":-0.05687078947367996},{"id":29071,"department_code":"72","insee_code":"72122","zip_code":"72160","name":"Duneau","slug":"duneau","gps_lat":48.06657520754715,"gps_lng":0.52884196226415},{"id":29072,"department_code":"72","insee_code":"72123","zip_code":"72270","name":"Dureil","slug":"dureil","gps_lat":47.8291883783784,"gps_lng":-0.13662256756756996},{"id":29410,"department_code":"73","insee_code":"73099","zip_code":"73110","name":"Détrier","slug":"detrier","gps_lat":45.44457658823531,"gps_lng":6.099088},{"id":29411,"department_code":"73","insee_code":"73100","zip_code":"73330","name":"Domessin","slug":"domessin","gps_lat":45.541488165137594,"gps_lng":5.70267293577982},{"id":29412,"department_code":"73","insee_code":"73101","zip_code":"73630","name":"Doucy-en-Bauges","slug":"doucy en bauges","gps_lat":45.69466063492064,"gps_lng":6.17512174603175},{"id":29413,"department_code":"73","insee_code":"73103","zip_code":"73420","name":"Drumettaz-Clarafond","slug":"drumettaz clarafond","gps_lat":45.65896697674417,"gps_lng":5.94054914728682},{"id":29414,"department_code":"73","insee_code":"73104","zip_code":"73610","name":"Dullin","slug":"dullin","gps_lat":45.5503264044944,"gps_lng":5.75133921348315},{"id":29703,"department_code":"74","insee_code":"74099","zip_code":"74120","name":"Demi-Quartier","slug":"demi quartier","gps_lat":45.87382805555556,"gps_lng":6.62952875},{"id":29704,"department_code":"74","insee_code":"74100","zip_code":"74270","name":"Desingy","slug":"desingy","gps_lat":46.00017024999998,"gps_lng":5.88488775},{"id":29705,"department_code":"74","insee_code":"74101","zip_code":"74520","name":"Dingy-en-Vuache","slug":"dingy en vuache","gps_lat":46.08825203389831,"gps_lng":5.94931949152542},{"id":29706,"department_code":"74","insee_code":"74102","zip_code":"74230","name":"Dingy-Saint-Clair","slug":"dingy saint clair","gps_lat":45.92382265957448,"gps_lng":6.23626531914894},{"id":29707,"department_code":"74","insee_code":"74103","zip_code":"74700","name":"Domancy","slug":"domancy","gps_lat":45.90672098039214,"gps_lng":6.65823186274509},{"id":29708,"department_code":"74","insee_code":"74104","zip_code":"74210","name":"Doussard","slug":"doussard","gps_lat":45.76358271739132,"gps_lng":6.21614731884058},{"id":29709,"department_code":"74","insee_code":"74105","zip_code":"74140","name":"Douvaine","slug":"douvaine","gps_lat":46.30309808510638,"gps_lng":6.29808138297872},{"id":29710,"department_code":"74","insee_code":"74106","zip_code":"74550","name":"Draillant","slug":"draillant","gps_lat":46.2990463291139,"gps_lng":6.46694151898734},{"id":29711,"department_code":"74","insee_code":"74107","zip_code":"74270","name":"Droisy","slug":"droisy","gps_lat":45.96420775862067,"gps_lng":5.8863908620689696},{"id":29712,"department_code":"74","insee_code":"74108","zip_code":"74410","name":"Duingt","slug":"duingt","gps_lat":45.81558525000001,"gps_lng":6.191126},{"id":30112,"department_code":"76","insee_code":"76209","zip_code":"76220","name":"Dampierre-en-Bray","slug":"dampierre en bray","gps_lat":49.53907921985815,"gps_lng":1.6747596453900702},{"id":30113,"department_code":"76","insee_code":"76210","zip_code":"76510","name":"Dampierre-Saint-Nicolas","slug":"dampierre saint nicolas","gps_lat":49.85695316666666,"gps_lng":1.20525133333333},{"id":30114,"department_code":"76","insee_code":"76211","zip_code":"76340","name":"Dancourt","slug":"dancourt","gps_lat":49.89310107438019,"gps_lng":1.5339412396694199},{"id":30115,"department_code":"76","insee_code":"76212","zip_code":"76160","name":"Darnétal","slug":"darnetal","gps_lat":49.44390670212768,"gps_lng":1.15287180851064},{"id":30116,"department_code":"76","insee_code":"76213","zip_code":"76110","name":"Daubeuf-Serville","slug":"daubeuf serville","gps_lat":49.69151265822785,"gps_lng":0.47931063291139},{"id":30117,"department_code":"76","insee_code":"76214","zip_code":"76590","name":"Dénestanville","slug":"denestanville","gps_lat":49.80804867924528,"gps_lng":1.09118622641509},{"id":30118,"department_code":"76","insee_code":"76216","zip_code":"76250","name":"Déville-lès-Rouen","slug":"deville les rouen","gps_lat":49.466160491803294,"gps_lng":1.04771344262295},{"id":30119,"department_code":"76","insee_code":"76217","zip_code":"76200","name":"Dieppe","slug":"dieppe","gps_lat":49.922992,"gps_lng":1.077483},{"id":30120,"department_code":"76","insee_code":"76217","zip_code":"76370","name":"Dieppe","slug":"dieppe","gps_lat":49.922992,"gps_lng":1.077483},{"id":30121,"department_code":"76","insee_code":"76218","zip_code":"76220","name":"Doudeauville","slug":"doudeauville","gps_lat":49.56732235294118,"gps_lng":1.6962637254902},{"id":30122,"department_code":"76","insee_code":"76219","zip_code":"76560","name":"Doudeville","slug":"doudeville","gps_lat":49.73281065693432,"gps_lng":0.78643883211679},{"id":30123,"department_code":"76","insee_code":"76220","zip_code":"76630","name":"Douvrend","slug":"douvrend","gps_lat":49.86961765060243,"gps_lng":1.3165684939759},{"id":30124,"department_code":"76","insee_code":"76221","zip_code":"76460","name":"Drosay","slug":"drosay","gps_lat":49.79315362068964,"gps_lng":0.73789413793103},{"id":30125,"department_code":"76","insee_code":"76222","zip_code":"76480","name":"Duclair","slug":"duclair","gps_lat":49.48835666666668,"gps_lng":0.86724224489796},{"id":30784,"department_code":"77","insee_code":"77151","zip_code":"77320","name":"Dagny","slug":"dagny","gps_lat":48.71366,"gps_lng":3.16504353658537},{"id":30785,"department_code":"77","insee_code":"77152","zip_code":"77190","name":"Dammarie-les-Lys","slug":"dammarie les lys","gps_lat":48.51661191489362,"gps_lng":2.62008659574468},{"id":30786,"department_code":"77","insee_code":"77153","zip_code":"77230","name":"Dammartin-en-Goële","slug":"dammartin en goele","gps_lat":49.05349525000001,"gps_lng":2.6775873333333298},{"id":30787,"department_code":"77","insee_code":"77154","zip_code":"77163","name":"Dammartin-sur-Tigeaux","slug":"dammartin sur tigeaux","gps_lat":48.8136517647059,"gps_lng":2.91654397058823},{"id":30788,"department_code":"77","insee_code":"77155","zip_code":"77400","name":"Dampmart","slug":"dampmart","gps_lat":48.89428142857142,"gps_lng":2.74288653061224},{"id":30789,"department_code":"77","insee_code":"77156","zip_code":"77140","name":"Darvault","slug":"darvault","gps_lat":48.27661032786884,"gps_lng":2.72365327868852},{"id":30790,"department_code":"77","insee_code":"77157","zip_code":"77440","name":"Dhuisy","slug":"dhuisy","gps_lat":49.03502148936171,"gps_lng":3.1652259574468102},{"id":30791,"department_code":"77","insee_code":"77158","zip_code":"77940","name":"Diant","slug":"diant","gps_lat":48.29102431372549,"gps_lng":3.00184735294118},{"id":30792,"department_code":"77","insee_code":"77159","zip_code":"77520","name":"Donnemarie-Dontilly","slug":"donnemarie dontilly","gps_lat":48.48020708955222,"gps_lng":3.11879216417911},{"id":30793,"department_code":"77","insee_code":"77161","zip_code":"77130","name":"Dormelles","slug":"dormelles","gps_lat":48.31453531914896,"gps_lng":2.88516865248227},{"id":30794,"department_code":"77","insee_code":"77162","zip_code":"77510","name":"Doue","slug":"doue","gps_lat":48.87647066666666,"gps_lng":3.1650836},{"id":30795,"department_code":"77","insee_code":"77163","zip_code":"77139","name":"Douy-la-Ramée","slug":"douy la ramee","gps_lat":49.0592612195122,"gps_lng":2.88457227642276},{"id":31217,"department_code":"78","insee_code":"78192","zip_code":"78111","name":"Dammartin-en-Serve","slug":"dammartin en serve","gps_lat":48.90556128000001,"gps_lng":1.6151472},{"id":31218,"department_code":"78","insee_code":"78193","zip_code":"78720","name":"Dampierre-en-Yvelines","slug":"dampierre en yvelines","gps_lat":48.70825963302752,"gps_lng":1.97073623853211},{"id":31219,"department_code":"78","insee_code":"78194","zip_code":"78550","name":"Dannemarie","slug":"dannemarie","gps_lat":48.76331099999999,"gps_lng":1.608808},{"id":31220,"department_code":"78","insee_code":"78196","zip_code":"78810","name":"Davron","slug":"davron","gps_lat":48.86726634615383,"gps_lng":1.95078346153846},{"id":31221,"department_code":"78","insee_code":"78202","zip_code":"78440","name":"Drocourt","slug":"drocourt","gps_lat":49.0549848076923,"gps_lng":1.7714465384615399},{"id":31499,"department_code":"79","insee_code":"79108","zip_code":"79390","name":"Doux","slug":"doux","gps_lat":46.73928242857145,"gps_lng":0.00262042857143},{"id":31930,"department_code":"80","insee_code":"80232","zip_code":"80700","name":"Damery","slug":"damery","gps_lat":49.73149480000001,"gps_lng":2.742706},{"id":31931,"department_code":"80","insee_code":"80233","zip_code":"80700","name":"Dancourt-Popincourt","slug":"dancourt popincourt","gps_lat":49.66582557377048,"gps_lng":2.73203524590164},{"id":31932,"department_code":"80","insee_code":"80234","zip_code":"80800","name":"Daours","slug":"daours","gps_lat":49.90003575000002,"gps_lng":2.44405833333333},{"id":31933,"department_code":"80","insee_code":"80235","zip_code":"80570","name":"Dargnies","slug":"dargnies","gps_lat":50.04337975000002,"gps_lng":1.52870925},{"id":31934,"department_code":"80","insee_code":"80236","zip_code":"80500","name":"Davenescourt","slug":"davenescourt","gps_lat":49.71277384057971,"gps_lng":2.59760195652174},{"id":31935,"department_code":"80","insee_code":"80237","zip_code":"80110","name":"Démuin","slug":"demuin","gps_lat":49.82176543999998,"gps_lng":2.53980856},{"id":31936,"department_code":"80","insee_code":"80238","zip_code":"80300","name":"Dernancourt","slug":"dernancourt","gps_lat":49.97801583941605,"gps_lng":2.62655642335767},{"id":31937,"department_code":"80","insee_code":"80239","zip_code":"80200","name":"Devise","slug":"devise","gps_lat":49.85434086956521,"gps_lng":3.00657413043478},{"id":31938,"department_code":"80","insee_code":"80240","zip_code":"80200","name":"Doingt","slug":"doingt","gps_lat":49.92352400000001,"gps_lng":2.96551933333333},{"id":31939,"department_code":"80","insee_code":"80241","zip_code":"80620","name":"Domart-en-Ponthieu","slug":"domart en ponthieu","gps_lat":50.08039715189874,"gps_lng":2.12873911392405},{"id":31940,"department_code":"80","insee_code":"80242","zip_code":"80110","name":"Domart-sur-la-Luce","slug":"domart sur la luce","gps_lat":49.82263579545454,"gps_lng":2.4929526136363602},{"id":31941,"department_code":"80","insee_code":"80243","zip_code":"80370","name":"Domesmont","slug":"domesmont","gps_lat":50.11957891304348,"gps_lng":2.14278347826087},{"id":31942,"department_code":"80","insee_code":"80244","zip_code":"80120","name":"Dominois","slug":"dominois","gps_lat":50.32876600000002,"gps_lng":1.856139},{"id":31943,"department_code":"80","insee_code":"80245","zip_code":"80370","name":"Domléger-Longvillers","slug":"domleger longvillers","gps_lat":50.15806712871289,"gps_lng":2.0866799009901},{"id":31944,"department_code":"80","insee_code":"80246","zip_code":"80440","name":"Dommartin","slug":"dommartin","gps_lat":49.79776623529411,"gps_lng":2.39967352941177},{"id":31945,"department_code":"80","insee_code":"80247","zip_code":"80980","name":"Dompierre-Becquincourt","slug":"dompierre becquincourt","gps_lat":49.90829038461538,"gps_lng":2.80576807692308},{"id":31946,"department_code":"80","insee_code":"80248","zip_code":"80150","name":"Dompierre-sur-Authie","slug":"dompierre sur authie","gps_lat":50.30112987730062,"gps_lng":1.92503926380368},{"id":31947,"department_code":"80","insee_code":"80249","zip_code":"80620","name":"Domqueur","slug":"domqueur","gps_lat":50.11475147368421,"gps_lng":2.04590294736842},{"id":31948,"department_code":"80","insee_code":"80250","zip_code":"80150","name":"Domvast","slug":"domvast","gps_lat":50.20305166666665,"gps_lng":1.9096730434782598},{"id":31949,"department_code":"80","insee_code":"80251","zip_code":"80140","name":"Doudelainville","slug":"doudelainville","gps_lat":50.00270529411764,"gps_lng":1.77032196078431},{"id":31950,"department_code":"80","insee_code":"80252","zip_code":"80400","name":"Douilly","slug":"douilly","gps_lat":49.79721413461538,"gps_lng":3.06295057692308},{"id":31951,"department_code":"80","insee_code":"80253","zip_code":"80600","name":"Doullens","slug":"doullens","gps_lat":50.15716114537443,"gps_lng":2.34946008810573},{"id":31952,"department_code":"80","insee_code":"80256","zip_code":"80470","name":"Dreuil-lès-Amiens","slug":"dreuil les amiens","gps_lat":49.91525133333335,"gps_lng":2.229112},{"id":31953,"department_code":"80","insee_code":"80258","zip_code":"80240","name":"Driencourt","slug":"driencourt","gps_lat":49.95846581395348,"gps_lng":3.00399720930233},{"id":31954,"department_code":"80","insee_code":"80259","zip_code":"80640","name":"Dromesnil","slug":"dromesnil","gps_lat":49.87865023255814,"gps_lng":1.87090046511628},{"id":31955,"department_code":"80","insee_code":"80260","zip_code":"80132","name":"Drucat","slug":"drucat","gps_lat":50.14543895652174,"gps_lng":1.86294095652174},{"id":31956,"department_code":"80","insee_code":"80261","zip_code":"80480","name":"Dury","slug":"dury","gps_lat":49.84890774774775,"gps_lng":2.27707837837838},{"id":32561,"department_code":"81","insee_code":"81078","zip_code":"81220","name":"Damiatte","slug":"damiatte","gps_lat":43.68095893203886,"gps_lng":1.97707786407767},{"id":32562,"department_code":"81","insee_code":"81079","zip_code":"81120","name":"Dénat","slug":"denat","gps_lat":43.83816328947369,"gps_lng":2.20530388157895},{"id":32563,"department_code":"81","insee_code":"81080","zip_code":"81170","name":"Donnazac","slug":"donnazac","gps_lat":44.01041259259259,"gps_lng":1.94270759259259},{"id":32564,"department_code":"81","insee_code":"81081","zip_code":"81110","name":"Dourgne","slug":"dourgne","gps_lat":43.47291411483255,"gps_lng":2.1475343062201},{"id":32566,"department_code":"81","insee_code":"81083","zip_code":"81540","name":"Durfort","slug":"durfort","gps_lat":43.43148410958904,"gps_lng":2.07307260273973},{"id":32852,"department_code":"82","insee_code":"82048","zip_code":"82170","name":"Dieupentale","slug":"dieupentale","gps_lat":43.87180378947367,"gps_lng":1.2828666315789499},{"id":32853,"department_code":"82","insee_code":"82049","zip_code":"82340","name":"Donzac","slug":"donzac","gps_lat":44.0953673831776,"gps_lng":0.81338747663551},{"id":32854,"department_code":"82","insee_code":"82050","zip_code":"82340","name":"Dunes","slug":"dunes","gps_lat":44.08678687224669,"gps_lng":0.77149440528634},{"id":32855,"department_code":"82","insee_code":"82051","zip_code":"82390","name":"Durfort-Lacapelette","slug":"durfort lacapelette","gps_lat":44.17956089686098,"gps_lng":1.14229421524664},{"id":33048,"department_code":"83","insee_code":"83050","zip_code":"83300","name":"Draguignan","slug":"draguignan","gps_lat":43.53973149812729,"gps_lng":6.44655269662922},{"id":33376,"department_code":"85","insee_code":"85078","zip_code":"85420","name":"Damvix","slug":"damvix","gps_lat":46.31997829787235,"gps_lng":-0.73971968085106},{"id":33377,"department_code":"85","insee_code":"85080","zip_code":"85200","name":"Doix lès Fontaines","slug":"doix les fontaines","gps_lat":46.40659322314049,"gps_lng":-0.81299123966942},{"id":33378,"department_code":"85","insee_code":"85081","zip_code":"85170","name":"Dompierre-sur-Yon","slug":"dompierre sur yon","gps_lat":46.75775198966411,"gps_lng":-1.3707377260981901},{"id":33664,"department_code":"86","insee_code":"86092","zip_code":"86220","name":"Dangé-Saint-Romain","slug":"dange saint romain","gps_lat":46.92721519736841,"gps_lng":0.60706973684211},{"id":33665,"department_code":"86","insee_code":"86093","zip_code":"86420","name":"Dercé","slug":"derce","gps_lat":46.9405222881356,"gps_lng":0.20721652542373},{"id":33666,"department_code":"86","insee_code":"86094","zip_code":"86410","name":"Dienné","slug":"dienne","gps_lat":46.44400530769229,"gps_lng":0.54187838461538},{"id":33667,"department_code":"86","insee_code":"86095","zip_code":"86130","name":"Dissay","slug":"dissay","gps_lat":46.70118267716533,"gps_lng":0.4360794488189},{"id":33668,"department_code":"86","insee_code":"86096","zip_code":"86140","name":"Doussay","slug":"doussay","gps_lat":46.834588255814,"gps_lng":0.28262953488372},{"id":33907,"department_code":"87","insee_code":"87055","zip_code":"87320","name":"Darnac","slug":"darnac","gps_lat":46.23469268292686,"gps_lng":0.96322682926829},{"id":33908,"department_code":"87","insee_code":"87056","zip_code":"87210","name":"Dinsac","slug":"dinsac","gps_lat":46.23541100775192,"gps_lng":1.10338108527132},{"id":33909,"department_code":"87","insee_code":"87057","zip_code":"87190","name":"Dompierre-les-Églises","slug":"dompierre les eglises","gps_lat":46.21341993939394,"gps_lng":1.25395145454545},{"id":33910,"department_code":"87","insee_code":"87058","zip_code":"87120","name":"Domps","slug":"domps","gps_lat":45.65828803448278,"gps_lng":1.70660279310345},{"id":33912,"department_code":"87","insee_code":"87060","zip_code":"87230","name":"Dournazac","slug":"dournazac","gps_lat":45.62620194357368,"gps_lng":0.93097178683386},{"id":33913,"department_code":"87","insee_code":"87061","zip_code":"87190","name":"Droux","slug":"droux","gps_lat":46.16446900398404,"gps_lng":1.14848992031873},{"id":34172,"department_code":"88","insee_code":"88121","zip_code":"88330","name":"Damas-aux-Bois","slug":"damas aux bois","gps_lat":48.38473741293532,"gps_lng":6.4118279104477605},{"id":34173,"department_code":"88","insee_code":"88122","zip_code":"88270","name":"Damas-et-Bettegney","slug":"damas et bettegney","gps_lat":48.21331743750004,"gps_lng":6.26232525},{"id":34174,"department_code":"88","insee_code":"88123","zip_code":"88320","name":"Damblain","slug":"damblain","gps_lat":48.0905322821577,"gps_lng":5.672667593361},{"id":34175,"department_code":"88","insee_code":"88124","zip_code":"88260","name":"Darney","slug":"darney","gps_lat":48.07742771428572,"gps_lng":6.05284428571429},{"id":34176,"department_code":"88","insee_code":"88125","zip_code":"88170","name":"Darney-aux-Chênes","slug":"darney aux chenes","gps_lat":48.28324012987012,"gps_lng":5.81142103896104},{"id":34177,"department_code":"88","insee_code":"88126","zip_code":"88390","name":"Darnieulles","slug":"darnieulles","gps_lat":48.1947662,"gps_lng":6.34323506666667},{"id":34178,"department_code":"88","insee_code":"88127","zip_code":"88700","name":"Deinvillers","slug":"deinvillers","gps_lat":48.41356747747748,"gps_lng":6.56542243243243},{"id":34179,"department_code":"88","insee_code":"88128","zip_code":"88210","name":"Denipaire","slug":"denipaire","gps_lat":48.34151373737374,"gps_lng":6.96101272727273},{"id":34180,"department_code":"88","insee_code":"88129","zip_code":"88270","name":"Derbamont","slug":"derbamont","gps_lat":48.26667901960785,"gps_lng":6.26965068627451},{"id":34181,"department_code":"88","insee_code":"88130","zip_code":"88600","name":"Destord","slug":"destord","gps_lat":48.27437126213592,"gps_lng":6.62262980582524},{"id":34182,"department_code":"88","insee_code":"88131","zip_code":"88600","name":"Deycimont","slug":"deycimont","gps_lat":48.17136015625,"gps_lng":6.642050859375},{"id":34183,"department_code":"88","insee_code":"88132","zip_code":"88000","name":"Deyvillers","slug":"deyvillers","gps_lat":48.19779505494507,"gps_lng":6.52403791208791},{"id":34184,"department_code":"88","insee_code":"88133","zip_code":"88000","name":"Dignonville","slug":"dignonville","gps_lat":48.24206215189874,"gps_lng":6.50084265822785},{"id":34185,"department_code":"88","insee_code":"88134","zip_code":"88000","name":"Dinozé","slug":"dinoze","gps_lat":48.13621966292135,"gps_lng":6.48489191011236},{"id":34186,"department_code":"88","insee_code":"88135","zip_code":"88460","name":"Docelles","slug":"docelles","gps_lat":48.14123782894735,"gps_lng":6.62636065789474},{"id":34187,"department_code":"88","insee_code":"88136","zip_code":"88000","name":"Dogneville","slug":"dogneville","gps_lat":48.21934588235294,"gps_lng":6.46766676470588},{"id":34188,"department_code":"88","insee_code":"88137","zip_code":"88170","name":"Dolaincourt","slug":"dolaincourt","gps_lat":48.33914500000001,"gps_lng":5.81041695652174},{"id":34189,"department_code":"88","insee_code":"88138","zip_code":"88260","name":"Dombasle-devant-Darney","slug":"dombasle devant darney","gps_lat":48.12934752808988,"gps_lng":6.07997629213483},{"id":34190,"department_code":"88","insee_code":"88139","zip_code":"88500","name":"Dombasle-en-Xaintois","slug":"dombasle en xaintois","gps_lat":48.30586904255319,"gps_lng":5.99550234042553},{"id":34191,"department_code":"88","insee_code":"88140","zip_code":"88140","name":"Dombrot-le-Sec","slug":"dombrot le sec","gps_lat":48.14522419642858,"gps_lng":5.89925223214286},{"id":34192,"department_code":"88","insee_code":"88141","zip_code":"88170","name":"Dombrot-sur-Vair","slug":"dombrot sur vair","gps_lat":48.26831509803925,"gps_lng":5.89837065359477},{"id":34193,"department_code":"88","insee_code":"88142","zip_code":"88390","name":"Domèvre-sur-Avière","slug":"domevre sur aviere","gps_lat":48.22384475000002,"gps_lng":6.3878416666666595},{"id":34194,"department_code":"88","insee_code":"88143","zip_code":"88330","name":"Domèvre-sur-Durbion","slug":"domevre sur durbion","gps_lat":48.29430750000002,"gps_lng":6.48870863636363},{"id":34195,"department_code":"88","insee_code":"88144","zip_code":"88500","name":"Domèvre-sous-Montfort","slug":"domevre sous montfort","gps_lat":48.25752839285713,"gps_lng":6.07652196428571},{"id":34196,"department_code":"88","insee_code":"88145","zip_code":"88600","name":"Domfaing","slug":"domfaing","gps_lat":48.23780453125,"gps_lng":6.75315234375},{"id":34197,"department_code":"88","insee_code":"88146","zip_code":"88800","name":"Domjulien","slug":"domjulien","gps_lat":48.25309230158731,"gps_lng":5.99661277777778},{"id":34198,"department_code":"88","insee_code":"88147","zip_code":"88390","name":"Dommartin-aux-Bois","slug":"dommartin aux bois","gps_lat":48.14597231155778,"gps_lng":6.2895720603015},{"id":34199,"department_code":"88","insee_code":"88148","zip_code":"88200","name":"Dommartin-lès-Remiremont","slug":"dommartin les remiremont","gps_lat":47.98854480349344,"gps_lng":6.64471013100437},{"id":34200,"department_code":"88","insee_code":"88149","zip_code":"88260","name":"Dommartin-lès-Vallois","slug":"dommartin les vallois","gps_lat":48.1523854651163,"gps_lng":6.08774813953488},{"id":34201,"department_code":"88","insee_code":"88150","zip_code":"88170","name":"Dommartin-sur-Vraine","slug":"dommartin sur vraine","gps_lat":48.34249837837837,"gps_lng":5.91661310810811},{"id":34202,"department_code":"88","insee_code":"88151","zip_code":"88270","name":"Dompaire","slug":"dompaire","gps_lat":48.22946231578948,"gps_lng":6.20972821052631},{"id":34203,"department_code":"88","insee_code":"88152","zip_code":"88600","name":"Dompierre","slug":"dompierre","gps_lat":48.24837158227849,"gps_lng":6.56361208860759},{"id":34204,"department_code":"88","insee_code":"88153","zip_code":"88700","name":"Domptail","slug":"domptail","gps_lat":48.44396248366012,"gps_lng":6.61712320261438},{"id":34205,"department_code":"88","insee_code":"88154","zip_code":"88630","name":"Domrémy-la-Pucelle","slug":"domremy la pucelle","gps_lat":48.44225945054943,"gps_lng":5.65884032967033},{"id":34206,"department_code":"88","insee_code":"88155","zip_code":"88500","name":"Domvallier","slug":"domvallier","gps_lat":48.30379778846155,"gps_lng":6.08099240384615},{"id":34207,"department_code":"88","insee_code":"88156","zip_code":"88700","name":"Doncières","slug":"doncieres","gps_lat":48.39125647619048,"gps_lng":6.63886771428571},{"id":34208,"department_code":"88","insee_code":"88157","zip_code":"88220","name":"Dounoux","slug":"dounoux","gps_lat":48.11282737373738,"gps_lng":6.44357454545454},{"id":34681,"department_code":"89","insee_code":"89130","zip_code":"89460","name":"Deux Rivières","slug":"deux rivieres","gps_lat":47.68266898305085,"gps_lng":3.71733570621469},{"id":34687,"department_code":"89","insee_code":"89137","zip_code":"89700","name":"Dannemoine","slug":"dannemoine","gps_lat":47.89911333333335,"gps_lng":3.98168703703704},{"id":34688,"department_code":"89","insee_code":"89139","zip_code":"89240","name":"Diges","slug":"diges","gps_lat":47.72148769230771,"gps_lng":3.39332628205128},{"id":34689,"department_code":"89","insee_code":"89141","zip_code":"89440","name":"Dissangis","slug":"dissangis","gps_lat":47.59739851562502,"gps_lng":3.98199921875},{"id":34690,"department_code":"89","insee_code":"89142","zip_code":"89500","name":"Dixmont","slug":"dixmont","gps_lat":48.06774879227056,"gps_lng":3.41760270531401},{"id":34691,"department_code":"89","insee_code":"89143","zip_code":"89150","name":"Dollot","slug":"dollot","gps_lat":48.20599932432432,"gps_lng":3.06290986486487},{"id":34692,"department_code":"89","insee_code":"89144","zip_code":"89150","name":"Domats","slug":"domats","gps_lat":48.11830666666666,"gps_lng":3.05550565891473},{"id":34693,"department_code":"89","insee_code":"89145","zip_code":"89450","name":"Domecy-sur-Cure","slug":"domecy sur cure","gps_lat":47.40628018957343,"gps_lng":3.81205165876777},{"id":34694,"department_code":"89","insee_code":"89146","zip_code":"89200","name":"Domecy-sur-le-Vault","slug":"domecy sur le vault","gps_lat":47.49111222222223,"gps_lng":3.81150049382716},{"id":34695,"department_code":"89","insee_code":"89147","zip_code":"89130","name":"Dracy","slug":"dracy","gps_lat":47.74788297979796,"gps_lng":3.23327671717172},{"id":34696,"department_code":"89","insee_code":"89148","zip_code":"89560","name":"Druyes-les-Belles-Fontaines","slug":"druyes les belles fontaines","gps_lat":47.55892964467004,"gps_lng":3.4195015228426398},{"id":34697,"department_code":"89","insee_code":"89149","zip_code":"89360","name":"Dyé","slug":"dye","gps_lat":47.88946120689658,"gps_lng":3.85892327586207},{"id":35028,"department_code":"90","insee_code":"90032","zip_code":"90400","name":"Danjoutin","slug":"danjoutin","gps_lat":47.6166935483871,"gps_lng":6.86070387096774},{"id":35029,"department_code":"90","insee_code":"90033","zip_code":"90100","name":"Delle","slug":"delle","gps_lat":47.51389566433567,"gps_lng":7.00337783216784},{"id":35030,"department_code":"90","insee_code":"90034","zip_code":"90160","name":"Denney","slug":"denney","gps_lat":47.65446898305083,"gps_lng":6.90124288135593},{"id":35031,"department_code":"90","insee_code":"90035","zip_code":"90400","name":"Dorans","slug":"dorans","gps_lat":47.58708357142855,"gps_lng":6.84120625},{"id":35157,"department_code":"91","insee_code":"91195","zip_code":"91490","name":"Dannemois","slug":"dannemois","gps_lat":48.45940857142859,"gps_lng":2.46830714285714},{"id":35158,"department_code":"91","insee_code":"91198","zip_code":"91590","name":"D'Huison-Longueville","slug":"d huison longueville","gps_lat":48.45735661290323,"gps_lng":2.33128959677419},{"id":35159,"department_code":"91","insee_code":"91200","zip_code":"91410","name":"Dourdan","slug":"dourdan","gps_lat":48.5345912809918,"gps_lng":1.98707078512397},{"id":35160,"department_code":"91","insee_code":"91201","zip_code":"91210","name":"Draveil","slug":"draveil","gps_lat":48.67974837209303,"gps_lng":2.42197209302326},{"id":35343,"department_code":"93","insee_code":"93029","zip_code":"93700","name":"Drancy","slug":"drancy","gps_lat":48.92382297619049,"gps_lng":2.45382821428572},{"id":35344,"department_code":"93","insee_code":"93030","zip_code":"93440","name":"Dugny","slug":"dugny","gps_lat":48.95305608108109,"gps_lng":2.42423121621622},{"id":35478,"department_code":"95","insee_code":"95197","zip_code":"95170","name":"Deuil-la-Barre","slug":"deuil la barre","gps_lat":48.9723359375,"gps_lng":2.32881765625},{"id":35479,"department_code":"95","insee_code":"95199","zip_code":"95330","name":"Domont","slug":"domont","gps_lat":49.02871625,"gps_lng":2.32402739583333},{"id":35621,"department_code":"971","insee_code":"97111","zip_code":"97126","name":"Deshaies","slug":"deshaies","gps_lat":16.31290572972973,"gps_lng":-61.78226878378383},{"id":35649,"department_code":"972","insee_code":"97207","zip_code":"97224","name":"Ducos","slug":"ducos","gps_lat":14.57573828746178,"gps_lng":-60.96831678899081},{"id":35746,"department_code":"976","insee_code":"97607","zip_code":"97660","name":"Dembeni","slug":"dembeni","gps_lat":-12.84607024038462,"gps_lng":45.19977403846156},{"id":35747,"department_code":"976","insee_code":"97608","zip_code":"97615","name":"Dzaoudzi","slug":"dzaoudzi","gps_lat":-12.77857692307692,"gps_lng":45.27210851282054},{"id":35824,"department_code":"988","insee_code":null,"zip_code":null,"name":"Dumbéa","slug":"dumbea","gps_lat":-22.1676665,"gps_lng":166.4580117}]