[{"id":142,"department_code":"01","insee_code":"01152","zip_code":"01130","name":"Échallon","slug":"echallon","gps_lat":46.22354164948455,"gps_lng":5.73684711340206},{"id":143,"department_code":"01","insee_code":"01153","zip_code":"01170","name":"Échenevex","slug":"echenevex","gps_lat":46.31566510067113,"gps_lng":6.02268624161074},{"id":144,"department_code":"01","insee_code":"01154","zip_code":"01340","name":"Étrez","slug":"etrez","gps_lat":46.34143740506327,"gps_lng":5.19624873417722},{"id":145,"department_code":"01","insee_code":"01155","zip_code":"01230","name":"Évosges","slug":"evosges","gps_lat":45.95716712643677,"gps_lng":5.49722517241379},{"id":679,"department_code":"02","insee_code":"02274","zip_code":"02350","name":"Ébouleau","slug":"ebouleau","gps_lat":49.6765870754717,"gps_lng":3.88466952830189},{"id":680,"department_code":"02","insee_code":"02275","zip_code":"02500","name":"Effry","slug":"effry","gps_lat":49.92093133333334,"gps_lng":3.98455566666667},{"id":681,"department_code":"02","insee_code":"02276","zip_code":"02260","name":"Englancourt","slug":"englancourt","gps_lat":49.92245435897434,"gps_lng":3.80452948717949},{"id":682,"department_code":"02","insee_code":"02277","zip_code":"02290","name":"Épagny","slug":"epagny","gps_lat":49.46937923076922,"gps_lng":3.25126523076923},{"id":683,"department_code":"02","insee_code":"02278","zip_code":"02500","name":"Éparcy","slug":"eparcy","gps_lat":49.88109276785716,"gps_lng":4.069431875},{"id":684,"department_code":"02","insee_code":"02279","zip_code":"02400","name":"Épaux-Bézu","slug":"epaux bezu","gps_lat":49.10181,"gps_lng":3.35326484536083},{"id":685,"department_code":"02","insee_code":"02280","zip_code":"02400","name":"Épieds","slug":"epieds","gps_lat":49.10435526315789,"gps_lng":3.45556231578947},{"id":687,"department_code":"02","insee_code":"02282","zip_code":"02840","name":"Eppes","slug":"eppes","gps_lat":49.54777975903613,"gps_lng":3.75061674698795},{"id":688,"department_code":"02","insee_code":"02283","zip_code":"02250","name":"Erlon","slug":"erlon","gps_lat":49.73442608695652,"gps_lng":3.7066367391304302},{"id":689,"department_code":"02","insee_code":"02284","zip_code":"02260","name":"Erloy","slug":"erloy","gps_lat":49.91761898734178,"gps_lng":3.84122316455696},{"id":690,"department_code":"02","insee_code":"02286","zip_code":"02170","name":"Esquéhéries","slug":"esqueheries","gps_lat":49.9833825668449,"gps_lng":3.75202668449198},{"id":691,"department_code":"02","insee_code":"02287","zip_code":"02690","name":"Essigny-le-Grand","slug":"essigny le grand","gps_lat":49.77444873563218,"gps_lng":3.2673803448275898},{"id":692,"department_code":"02","insee_code":"02288","zip_code":"02100","name":"Essigny-le-Petit","slug":"essigny le petit","gps_lat":49.89805309278348,"gps_lng":3.36618474226804},{"id":693,"department_code":"02","insee_code":"02289","zip_code":"02570","name":"Essises","slug":"essises","gps_lat":48.96895638554218,"gps_lng":3.41776530120482},{"id":694,"department_code":"02","insee_code":"02290","zip_code":"02400","name":"Essômes-sur-Marne","slug":"essomes sur marne","gps_lat":49.03482367816093,"gps_lng":3.33479436781609},{"id":695,"department_code":"02","insee_code":"02291","zip_code":"02420","name":"Estrées","slug":"estrees","gps_lat":49.97277472972971,"gps_lng":3.2821522972973},{"id":696,"department_code":"02","insee_code":"02292","zip_code":"02400","name":"Étampes-sur-Marne","slug":"etampes sur marne","gps_lat":49.03102787878788,"gps_lng":3.41682454545455},{"id":697,"department_code":"02","insee_code":"02293","zip_code":"02110","name":"Étaves-et-Bocquiaux","slug":"etaves et bocquiaux","gps_lat":49.93479125000002,"gps_lng":3.45160536764706},{"id":698,"department_code":"02","insee_code":"02294","zip_code":"02000","name":"Étouvelles","slug":"etouvelles","gps_lat":49.51828886792454,"gps_lng":3.5798758490566},{"id":699,"department_code":"02","insee_code":"02295","zip_code":"02580","name":"Étréaupont","slug":"etreaupont","gps_lat":49.90664302469134,"gps_lng":3.92895456790123},{"id":700,"department_code":"02","insee_code":"02296","zip_code":"02590","name":"Étreillers","slug":"etreillers","gps_lat":49.8342574137931,"gps_lng":3.15879896551724},{"id":701,"department_code":"02","insee_code":"02297","zip_code":"02400","name":"Étrépilly","slug":"etrepilly","gps_lat":49.08359666666666,"gps_lng":3.34514272727273},{"id":702,"department_code":"02","insee_code":"02298","zip_code":"02510","name":"Étreux","slug":"etreux","gps_lat":50.00258945454546,"gps_lng":3.66127272727273},{"id":703,"department_code":"02","insee_code":"02299","zip_code":"02190","name":"Évergnicourt","slug":"evergnicourt","gps_lat":49.45496069306932,"gps_lng":4.04344455445545},{"id":1325,"department_code":"03","insee_code":"03107","zip_code":"03450","name":"Ébreuil","slug":"ebreuil","gps_lat":46.11582795555554,"gps_lng":3.07738275555556},{"id":1326,"department_code":"03","insee_code":"03108","zip_code":"03330","name":"Échassières","slug":"echassieres","gps_lat":46.2002976233184,"gps_lng":2.93912058295964},{"id":1327,"department_code":"03","insee_code":"03109","zip_code":"03110","name":"Escurolles","slug":"escurolles","gps_lat":46.14782139130434,"gps_lng":3.26448860869565},{"id":1328,"department_code":"03","insee_code":"03110","zip_code":"03110","name":"Espinasse-Vozelle","slug":"espinasse vozelle","gps_lat":46.12952625668449,"gps_lng":3.34177978609626},{"id":1329,"department_code":"03","insee_code":"03111","zip_code":"03190","name":"Estivareilles","slug":"estivareilles","gps_lat":46.42531878306878,"gps_lng":2.62566349206349},{"id":1330,"department_code":"03","insee_code":"03112","zip_code":"03140","name":"Étroussat","slug":"etroussat","gps_lat":46.2199543089431,"gps_lng":3.2227525203252},{"id":1594,"department_code":"04","insee_code":"04073","zip_code":"04400","name":"Enchastrayes","slug":"enchastrayes","gps_lat":44.360299,"gps_lng":6.72263229411765},{"id":1595,"department_code":"04","insee_code":"04074","zip_code":"04000","name":"Entrages","slug":"entrages","gps_lat":44.04571,"gps_lng":6.2664859},{"id":1596,"department_code":"04","insee_code":"04074","zip_code":"04270","name":"Entrages","slug":"entrages","gps_lat":44.04571,"gps_lng":6.2664859},{"id":1597,"department_code":"04","insee_code":"04075","zip_code":"04200","name":"Entrepierres","slug":"entrepierres","gps_lat":44.19675360995849,"gps_lng":6.02027352697095},{"id":1598,"department_code":"04","insee_code":"04076","zip_code":"04320","name":"Entrevaux","slug":"entrevaux","gps_lat":43.95376978417265,"gps_lng":6.82141877697842},{"id":1599,"department_code":"04","insee_code":"04077","zip_code":"04700","name":"Entrevennes","slug":"entrevennes","gps_lat":43.94312728205126,"gps_lng":6.04053035897436},{"id":1601,"department_code":"04","insee_code":"04081","zip_code":"04800","name":"Esparron-de-Verdon","slug":"esparron de verdon","gps_lat":43.74516919999999,"gps_lng":5.98362468571429},{"id":1602,"department_code":"04","insee_code":"04084","zip_code":"04270","name":"Estoublon","slug":"estoublon","gps_lat":43.94076980392157,"gps_lng":6.1930656372549},{"id":1776,"department_code":"05","insee_code":"05046","zip_code":"05200","name":"Embrun","slug":"embrun","gps_lat":44.57799431999999,"gps_lng":6.47878928},{"id":1777,"department_code":"05","insee_code":"05047","zip_code":"05300","name":"Éourres","slug":"eourres","gps_lat":44.21041370967741,"gps_lng":5.73067795698925},{"id":1779,"department_code":"05","insee_code":"05049","zip_code":"05110","name":"Esparron","slug":"esparron","gps_lat":44.45660944444445,"gps_lng":5.8867596969696905},{"id":1780,"department_code":"05","insee_code":"05050","zip_code":"05190","name":"Espinasses","slug":"espinasses","gps_lat":44.492290625,"gps_lng":6.23278767857143},{"id":1781,"department_code":"05","insee_code":"05051","zip_code":"05700","name":"Étoile-Saint-Cyrice","slug":"etoile saint cyrice","gps_lat":44.32012598765434,"gps_lng":5.64070771604939},{"id":1782,"department_code":"05","insee_code":"05052","zip_code":"05600","name":"Eygliers","slug":"eygliers","gps_lat":44.6835986227545,"gps_lng":6.65187389221557},{"id":1960,"department_code":"06","insee_code":"06056","zip_code":"06470","name":"Entraunes","slug":"entraunes","gps_lat":44.22496864485983,"gps_lng":6.75765920560748},{"id":1962,"department_code":"06","insee_code":"06058","zip_code":"06460","name":"Escragnolles","slug":"escragnolles","gps_lat":43.72535000000001,"gps_lng":6.77446480952381},{"id":1963,"department_code":"06","insee_code":"06059","zip_code":"06360","name":"Èze","slug":"eze","gps_lat":43.72735411347515,"gps_lng":7.36438964539007},{"id":2152,"department_code":"07","insee_code":"07084","zip_code":"07370","name":"Eclassan","slug":"eclassan","gps_lat":45.15727116666666,"gps_lng":4.74756994444444},{"id":2153,"department_code":"07","insee_code":"07085","zip_code":"07270","name":"Empurany","slug":"empurany","gps_lat":45.02730581818184,"gps_lng":4.59714078787879},{"id":2154,"department_code":"07","insee_code":"07086","zip_code":"07300","name":"Étables","slug":"etables","gps_lat":45.09199764044945,"gps_lng":4.73822696629213},{"id":2550,"department_code":"08","insee_code":"08150","zip_code":"08300","name":"Écly","slug":"ecly","gps_lat":49.55265500000001,"gps_lng":4.29566435185185},{"id":2551,"department_code":"08","insee_code":"08151","zip_code":"08130","name":"Écordal","slug":"ecordal","gps_lat":49.53707046666668,"gps_lng":4.58620426666666},{"id":2552,"department_code":"08","insee_code":"08152","zip_code":"08160","name":"Élan","slug":"elan","gps_lat":49.65467565217391,"gps_lng":4.75401115942029},{"id":2553,"department_code":"08","insee_code":"08153","zip_code":"08110","name":"Escombres-et-le-Chesnois","slug":"escombres et le chesnois","gps_lat":49.69807203703704,"gps_lng":5.12883268518518},{"id":2554,"department_code":"08","insee_code":"08154","zip_code":"08260","name":"Estrebay","slug":"estrebay","gps_lat":49.82477330578515,"gps_lng":4.34843181818182},{"id":2555,"department_code":"08","insee_code":"08155","zip_code":"08260","name":"Étalle","slug":"etalle","gps_lat":49.85129159090911,"gps_lng":4.45076772727273},{"id":2556,"department_code":"08","insee_code":"08156","zip_code":"08260","name":"Éteignières","slug":"eteignieres","gps_lat":49.89770761538465,"gps_lng":4.40467546153846},{"id":2557,"department_code":"08","insee_code":"08158","zip_code":"08160","name":"Étrépigny","slug":"etrepigny","gps_lat":49.68753052631578,"gps_lng":4.74979263157895},{"id":2558,"department_code":"08","insee_code":"08159","zip_code":"08210","name":"Euilly-et-Lombut","slug":"euilly et lombut","gps_lat":49.6318784347826,"gps_lng":5.11698713043478},{"id":2559,"department_code":"08","insee_code":"08160","zip_code":"08090","name":"Évigny","slug":"evigny","gps_lat":49.72771555555556,"gps_lng":4.67548904761905},{"id":2560,"department_code":"08","insee_code":"08161","zip_code":"08250","name":"Exermont","slug":"exermont","gps_lat":49.29579322222222,"gps_lng":5.02007061111111},{"id":2978,"department_code":"09","insee_code":"09110","zip_code":"09200","name":"Encourtiech","slug":"encourtiech","gps_lat":42.96413170454546,"gps_lng":1.1944018181818201},{"id":2979,"department_code":"09","insee_code":"09111","zip_code":"09800","name":"Engomer","slug":"engomer","gps_lat":42.93680356521738,"gps_lng":1.06400565217391},{"id":2980,"department_code":"09","insee_code":"09113","zip_code":"09140","name":"Ercé","slug":"erce","gps_lat":42.84194562499999,"gps_lng":1.29620354166667},{"id":2981,"department_code":"09","insee_code":"09114","zip_code":"09200","name":"Erp","slug":"erp","gps_lat":42.93071424242425,"gps_lng":1.19798606060606},{"id":2982,"department_code":"09","insee_code":"09115","zip_code":"09600","name":"Esclagne","slug":"esclagne","gps_lat":42.98220881355931,"gps_lng":1.84442305084746},{"id":2983,"department_code":"09","insee_code":"09116","zip_code":"09100","name":"Escosse","slug":"escosse","gps_lat":43.12570383886255,"gps_lng":1.5519828436019},{"id":2984,"department_code":"09","insee_code":"09117","zip_code":"09700","name":"Esplas","slug":"esplas","gps_lat":43.18623355263156,"gps_lng":1.4993268421052601},{"id":2985,"department_code":"09","insee_code":"09118","zip_code":"09420","name":"Esplas-de-Sérou","slug":"esplas de serou","gps_lat":42.96549498269898,"gps_lng":1.3582756055363299},{"id":2986,"department_code":"09","insee_code":"09119","zip_code":"09200","name":"Eycheil","slug":"eycheil","gps_lat":42.95395297297297,"gps_lng":1.16086864864865},{"id":3326,"department_code":"10","insee_code":"10133","zip_code":"10130","name":"Eaux-Puiseaux","slug":"eaux puiseaux","gps_lat":48.12027305263158,"gps_lng":3.88275452631579},{"id":3327,"department_code":"10","insee_code":"10134","zip_code":"10350","name":"Échemines","slug":"echemines","gps_lat":48.3864501754386,"gps_lng":3.83884929824561},{"id":3328,"department_code":"10","insee_code":"10135","zip_code":"10200","name":"Éclance","slug":"eclance","gps_lat":48.30420617391303,"gps_lng":4.63995860869565},{"id":3329,"department_code":"10","insee_code":"10136","zip_code":"10110","name":"Éguilly-sous-Bois","slug":"eguilly sous bois","gps_lat":48.13213450704225,"gps_lng":4.5433088732394395},{"id":3330,"department_code":"10","insee_code":"10137","zip_code":"10200","name":"Engente","slug":"engente","gps_lat":48.27880249999999,"gps_lng":4.764218875},{"id":3331,"department_code":"10","insee_code":"10138","zip_code":"10500","name":"Épagne","slug":"epagne","gps_lat":48.39938055555557,"gps_lng":4.46541847222222},{"id":3332,"department_code":"10","insee_code":"10139","zip_code":"10500","name":"Épothémont","slug":"epothemont","gps_lat":48.41517389705883,"gps_lng":4.66084029411764},{"id":3333,"department_code":"10","insee_code":"10140","zip_code":"10130","name":"Ervy-le-Châtel","slug":"ervy le chatel","gps_lat":48.0536180813954,"gps_lng":3.9135989244186},{"id":3334,"department_code":"10","insee_code":"10141","zip_code":"10360","name":"Essoyes","slug":"essoyes","gps_lat":48.04698854166667,"gps_lng":4.539924375},{"id":3335,"department_code":"10","insee_code":"10142","zip_code":"10190","name":"Estissac","slug":"estissac","gps_lat":48.24983896296297,"gps_lng":3.80929629629629},{"id":3336,"department_code":"10","insee_code":"10143","zip_code":"10210","name":"Étourvy","slug":"etourvy","gps_lat":47.94936129496403,"gps_lng":4.1239235971223},{"id":3337,"department_code":"10","insee_code":"10144","zip_code":"10170","name":"Étrelles-sur-Aube","slug":"etrelles sur aube","gps_lat":48.57135543103447,"gps_lng":3.87169913793103},{"id":3752,"department_code":"11","insee_code":"11125","zip_code":"11360","name":"Embres-et-Castelmaure","slug":"embres et castelmaure","gps_lat":42.92056,"gps_lng":2.82860434782609},{"id":3753,"department_code":"11","insee_code":"11126","zip_code":"11200","name":"Escales","slug":"escales","gps_lat":43.22296206896554,"gps_lng":2.70577120689655},{"id":3754,"department_code":"11","insee_code":"11127","zip_code":"11140","name":"Escouloubre","slug":"escouloubre","gps_lat":42.73157767295599,"gps_lng":2.12234144654088},{"id":3755,"department_code":"11","insee_code":"11128","zip_code":"11240","name":"Escueillens-et-Saint-Just-de-Bélengard","slug":"escueillens et saint just de belengard","gps_lat":43.1000346783626,"gps_lng":2.0200466081871298},{"id":3756,"department_code":"11","insee_code":"11129","zip_code":"11260","name":"Espéraza","slug":"esperaza","gps_lat":42.92919929133857,"gps_lng":2.22050070866142},{"id":3757,"department_code":"11","insee_code":"11130","zip_code":"11340","name":"Espezel","slug":"espezel","gps_lat":42.83927306306308,"gps_lng":2.02613630630631},{"id":4155,"department_code":"12","insee_code":"12094","zip_code":"12140","name":"Entraygues-sur-Truyère","slug":"entraygues sur truyere","gps_lat":44.65800250591014,"gps_lng":2.5822400236406597},{"id":4156,"department_code":"12","insee_code":"12095","zip_code":"12390","name":"Escandolières","slug":"escandolieres","gps_lat":44.4699470056497,"gps_lng":2.34986480225989},{"id":4157,"department_code":"12","insee_code":"12096","zip_code":"12500","name":"Espalion","slug":"espalion","gps_lat":44.52549690553745,"gps_lng":2.76785628664495},{"id":4158,"department_code":"12","insee_code":"12097","zip_code":"12140","name":"Espeyrac","slug":"espeyrac","gps_lat":44.61528588628764,"gps_lng":2.52091535117057},{"id":4159,"department_code":"12","insee_code":"12098","zip_code":"12190","name":"Estaing","slug":"estaing","gps_lat":44.57853720149257,"gps_lng":2.68890638059702},{"id":4396,"department_code":"13","insee_code":"13032","zip_code":"13510","name":"Éguilles","slug":"eguilles","gps_lat":43.56731615384615,"gps_lng":5.34119213675214},{"id":4397,"department_code":"13","insee_code":"13033","zip_code":"13820","name":"Ensuès-la-Redonne","slug":"ensues la redonne","gps_lat":43.34499980392155,"gps_lng":5.20722062091503},{"id":4398,"department_code":"13","insee_code":"13034","zip_code":"13810","name":"Eygalières","slug":"eygalieres","gps_lat":43.76370803418806,"gps_lng":4.9442447008547},{"id":4399,"department_code":"13","insee_code":"13035","zip_code":"13430","name":"Eyguières","slug":"eyguieres","gps_lat":43.71855672268907,"gps_lng":5.01507260504202},{"id":4400,"department_code":"13","insee_code":"13036","zip_code":"13630","name":"Eyragues","slug":"eyragues","gps_lat":43.84186580645162,"gps_lng":4.83983913978494},{"id":4678,"department_code":"14","insee_code":"14236","zip_code":"14250","name":"Ellon","slug":"ellon","gps_lat":49.229402,"gps_lng":-0.68529},{"id":4679,"department_code":"14","insee_code":"14237","zip_code":"14630","name":"Émiéville","slug":"emieville","gps_lat":49.15346650000001,"gps_lng":-0.22725649999999997},{"id":4680,"department_code":"14","insee_code":"14238","zip_code":"14800","name":"Englesqueville-en-Auge","slug":"englesqueville en auge","gps_lat":49.33156467741934,"gps_lng":0.14955129032258},{"id":4681,"department_code":"14","insee_code":"14239","zip_code":"14710","name":"Englesqueville-la-Percée","slug":"englesqueville la percee","gps_lat":49.3768931775701,"gps_lng":-0.95121355140187},{"id":4682,"department_code":"14","insee_code":"14240","zip_code":"14170","name":"Épaney","slug":"epaney","gps_lat":48.94761706666665,"gps_lng":-0.15821773333333},{"id":4683,"department_code":"14","insee_code":"14241","zip_code":"14310","name":"Épinay-sur-Odon","slug":"epinay sur odon","gps_lat":49.06966537037036,"gps_lng":-0.62529944444444},{"id":4684,"department_code":"14","insee_code":"14242","zip_code":"14610","name":"Épron","slug":"epron","gps_lat":49.2202965625,"gps_lng":-0.363489375},{"id":4685,"department_code":"14","insee_code":"14243","zip_code":"14600","name":"Équemauville","slug":"equemauville","gps_lat":49.4050408411215,"gps_lng":0.21191514018692},{"id":4686,"department_code":"14","insee_code":"14244","zip_code":"14700","name":"Eraines","slug":"eraines","gps_lat":48.90758424242424,"gps_lng":-0.15384696969696998},{"id":4687,"department_code":"14","insee_code":"14245","zip_code":"14270","name":"Ernes","slug":"ernes","gps_lat":49.01124719512195,"gps_lng":-0.12246134146341003},{"id":4688,"department_code":"14","insee_code":"14246","zip_code":"14850","name":"Escoville","slug":"escoville","gps_lat":49.20636298507463,"gps_lng":-0.24724313432835998},{"id":4689,"department_code":"14","insee_code":"14248","zip_code":"14220","name":"Espins","slug":"espins","gps_lat":48.99961603174602,"gps_lng":-0.41729507936508003},{"id":4690,"department_code":"14","insee_code":"14249","zip_code":"14210","name":"Esquay-Notre-Dame","slug":"esquay notre dame","gps_lat":49.11130245614036,"gps_lng":-0.47326},{"id":4691,"department_code":"14","insee_code":"14250","zip_code":"14400","name":"Esquay-sur-Seulles","slug":"esquay sur seulles","gps_lat":49.2718071551724,"gps_lng":-0.62011793103448},{"id":4692,"department_code":"14","insee_code":"14251","zip_code":"14220","name":"Esson","slug":"esson","gps_lat":48.96921229999998,"gps_lng":-0.45597940000000003},{"id":4693,"department_code":"14","insee_code":"14252","zip_code":"14190","name":"Estrées-la-Campagne","slug":"estrees la campagne","gps_lat":49.00872569767441,"gps_lng":-0.23965581395349},{"id":4694,"department_code":"14","insee_code":"14254","zip_code":"14930","name":"Éterville","slug":"eterville","gps_lat":49.15185249999999,"gps_lng":-0.43249033333333},{"id":4695,"department_code":"14","insee_code":"14256","zip_code":"14400","name":"Étréham","slug":"etreham","gps_lat":49.32155918032789,"gps_lng":-0.79488393442623},{"id":4696,"department_code":"14","insee_code":"14257","zip_code":"14210","name":"Évrecy","slug":"evrecy","gps_lat":49.09550704545454,"gps_lng":-0.50102079545455},{"id":5111,"department_code":"15","insee_code":"15064","zip_code":"15700","name":"Escorailles","slug":"escorailles","gps_lat":45.16922388888888,"gps_lng":2.33363095238095},{"id":5112,"department_code":"15","insee_code":"15065","zip_code":"15110","name":"Espinasse","slug":"espinasse","gps_lat":44.86563125,"gps_lng":2.93403236842105},{"id":5416,"department_code":"16","insee_code":"16122","zip_code":"16140","name":"Ébréon","slug":"ebreon","gps_lat":45.94593013333333,"gps_lng":0.02707266666667},{"id":5417,"department_code":"16","insee_code":"16123","zip_code":"16170","name":"Échallat","slug":"echallat","gps_lat":45.71697974789915,"gps_lng":-0.040240252100840035},{"id":5418,"department_code":"16","insee_code":"16124","zip_code":"16220","name":"Écuras","slug":"ecuras","gps_lat":45.67989523809525,"gps_lng":0.56340463203463},{"id":5419,"department_code":"16","insee_code":"16125","zip_code":"16320","name":"Édon","slug":"edon","gps_lat":45.484699597315426,"gps_lng":0.35313261744966},{"id":5420,"department_code":"16","insee_code":"16127","zip_code":"16240","name":"Empuré","slug":"empure","gps_lat":46.02377797468354,"gps_lng":0.04587936708861},{"id":5421,"department_code":"16","insee_code":"16128","zip_code":"16490","name":"Épenède","slug":"epenede","gps_lat":46.0639938755981,"gps_lng":0.53058071770335},{"id":5423,"department_code":"16","insee_code":"16131","zip_code":"16500","name":"Esse","slug":"esse","gps_lat":46.024061686747,"gps_lng":0.7184946184739},{"id":5424,"department_code":"16","insee_code":"16132","zip_code":"16150","name":"Étagnac","slug":"etagnac","gps_lat":45.89626685393257,"gps_lng":0.78346595505618},{"id":5425,"department_code":"16","insee_code":"16133","zip_code":"16250","name":"Étriac","slug":"etriac","gps_lat":45.52643212121212,"gps_lng":-0.01107828282828005},{"id":5426,"department_code":"16","insee_code":"16134","zip_code":"16150","name":"Exideuil","slug":"exideuil","gps_lat":45.88292875000001,"gps_lng":0.66058572916667},{"id":5427,"department_code":"16","insee_code":"16135","zip_code":"16220","name":"Eymouthiers","slug":"eymouthiers","gps_lat":45.64620818840579,"gps_lng":0.54669376811594},{"id":5822,"department_code":"17","insee_code":"17145","zip_code":"17800","name":"Échebrune","slug":"echebrune","gps_lat":45.59059890909091,"gps_lng":-0.44470490909091},{"id":5823,"department_code":"17","insee_code":"17146","zip_code":"17620","name":"Échillais","slug":"echillais","gps_lat":45.90337741176469,"gps_lng":-0.95408964705882},{"id":5824,"department_code":"17","insee_code":"17147","zip_code":"17770","name":"Écoyeux","slug":"ecoyeux","gps_lat":45.81142785714285,"gps_lng":-0.5151683035714301},{"id":5825,"department_code":"17","insee_code":"17148","zip_code":"17810","name":"Écurat","slug":"ecurat","gps_lat":45.79504321428574,"gps_lng":-0.6867473809523801},{"id":5829,"department_code":"17","insee_code":"17152","zip_code":"17120","name":"Épargnes","slug":"epargnes","gps_lat":45.54125122807017,"gps_lng":-0.80733271929825},{"id":5830,"department_code":"17","insee_code":"17153","zip_code":"17137","name":"Esnandes","slug":"esnandes","gps_lat":46.24967673267327,"gps_lng":-1.1113169306930701},{"id":5832,"department_code":"17","insee_code":"17155","zip_code":"17750","name":"Étaules","slug":"etaules","gps_lat":45.73247468085106,"gps_lng":-1.0970764539007098},{"id":5833,"department_code":"17","insee_code":"17156","zip_code":"17130","name":"Expiremont","slug":"expiremont","gps_lat":45.33051063492065,"gps_lng":-0.37300063492062996},{"id":5952,"department_code":"17","insee_code":"17277","zip_code":"17400","name":"Essouvert","slug":"essouvert","gps_lat":45.99722464968153,"gps_lng":-0.53762375796178},{"id":6241,"department_code":"18","insee_code":"18088","zip_code":"18380","name":"Ennordres","slug":"ennordres","gps_lat":47.41712580808078,"gps_lng":2.42306131313131},{"id":6242,"department_code":"18","insee_code":"18089","zip_code":"18360","name":"Épineuil-le-Fleuriel","slug":"epineuil le fleuriel","gps_lat":46.56944543589745,"gps_lng":2.56034374358974},{"id":6243,"department_code":"18","insee_code":"18090","zip_code":"18800","name":"Étréchy","slug":"etrechy","gps_lat":47.15524807999999,"gps_lng":2.71925808},{"id":6518,"department_code":"19","insee_code":"19073","zip_code":"19300","name":"Égletons","slug":"egletons","gps_lat":45.42301866666669,"gps_lng":2.03534546666667},{"id":6520,"department_code":"19","insee_code":"19075","zip_code":"19150","name":"Espagnac","slug":"espagnac","gps_lat":45.24141940047966,"gps_lng":1.88683443645084},{"id":6521,"department_code":"19","insee_code":"19076","zip_code":"19140","name":"Espartignac","slug":"espartignac","gps_lat":45.39932689361697,"gps_lng":1.5979949787234},{"id":6522,"department_code":"19","insee_code":"19077","zip_code":"19600","name":"Estivals","slug":"estivals","gps_lat":45.03384554347826,"gps_lng":1.4601652173913},{"id":6523,"department_code":"19","insee_code":"19078","zip_code":"19410","name":"Estivaux","slug":"estivaux","gps_lat":45.32260528846154,"gps_lng":1.49524788461539},{"id":6524,"department_code":"19","insee_code":"19079","zip_code":"19140","name":"Eyburie","slug":"eyburie","gps_lat":45.46783,"gps_lng":1.63732317343173},{"id":6525,"department_code":"19","insee_code":"19080","zip_code":"19340","name":"Eygurande","slug":"eygurande","gps_lat":45.67548118577073,"gps_lng":2.42520754940712},{"id":6526,"department_code":"19","insee_code":"19081","zip_code":"19800","name":"Eyrein","slug":"eyrein","gps_lat":45.3271455520505,"gps_lng":1.95429400630915},{"id":6960,"department_code":"21","insee_code":"21236","zip_code":"21190","name":"Ébaty","slug":"ebaty","gps_lat":46.925785,"gps_lng":4.78286259259259},{"id":6961,"department_code":"21","insee_code":"21237","zip_code":"21510","name":"Échalot","slug":"echalot","gps_lat":47.60911297468355,"gps_lng":4.8356470886076},{"id":6962,"department_code":"21","insee_code":"21238","zip_code":"21540","name":"Échannay","slug":"echannay","gps_lat":47.28011485294118,"gps_lng":4.68476235294118},{"id":6963,"department_code":"21","insee_code":"21239","zip_code":"21170","name":"Échenon","slug":"echenon","gps_lat":47.12405418367349,"gps_lng":5.28527408163265},{"id":6964,"department_code":"21","insee_code":"21240","zip_code":"21120","name":"Échevannes","slug":"echevannes","gps_lat":47.54327458333333,"gps_lng":5.15271970238095},{"id":6965,"department_code":"21","insee_code":"21241","zip_code":"21420","name":"Échevronne","slug":"echevronne","gps_lat":47.10855036036038,"gps_lng":4.83285360360361},{"id":6966,"department_code":"21","insee_code":"21242","zip_code":"21110","name":"Échigey","slug":"echigey","gps_lat":47.17633366666667,"gps_lng":5.19948766666667},{"id":6967,"department_code":"21","insee_code":"21243","zip_code":"21360","name":"Écutigny","slug":"ecutigny","gps_lat":47.08467233009709,"gps_lng":4.62337106796117},{"id":6968,"department_code":"21","insee_code":"21244","zip_code":"21320","name":"Éguilly","slug":"eguilly","gps_lat":47.30019351648352,"gps_lng":4.50322175824176},{"id":6969,"department_code":"21","insee_code":"21245","zip_code":"21380","name":"Épagny","slug":"epagny","gps_lat":47.45302858267717,"gps_lng":5.05174283464567},{"id":6970,"department_code":"21","insee_code":"21246","zip_code":"21220","name":"Épernay-sous-Gevrey","slug":"epernay sous gevrey","gps_lat":47.17354951219514,"gps_lng":5.04164414634146},{"id":6971,"department_code":"21","insee_code":"21247","zip_code":"21460","name":"Époisses","slug":"epoisses","gps_lat":47.50227375886523,"gps_lng":4.17868014184397},{"id":6972,"department_code":"21","insee_code":"21248","zip_code":"21500","name":"Éringes","slug":"eringes","gps_lat":47.5904195774648,"gps_lng":4.46167225352113},{"id":6973,"department_code":"21","insee_code":"21249","zip_code":"21170","name":"Esbarres","slug":"esbarres","gps_lat":47.09283939597316,"gps_lng":5.20107355704698},{"id":6974,"department_code":"21","insee_code":"21250","zip_code":"21290","name":"Essarois","slug":"essarois","gps_lat":47.76211469565217,"gps_lng":4.78828052173913},{"id":6975,"department_code":"21","insee_code":"21251","zip_code":"21320","name":"Essey","slug":"essey","gps_lat":47.20363140624998,"gps_lng":4.523511171875},{"id":6976,"department_code":"21","insee_code":"21252","zip_code":"21500","name":"Étais","slug":"etais","gps_lat":47.70256904255319,"gps_lng":4.44240159574468},{"id":6977,"department_code":"21","insee_code":"21253","zip_code":"21510","name":"Étalante","slug":"etalante","gps_lat":47.63022851428572,"gps_lng":4.75971142857143},{"id":6979,"department_code":"21","insee_code":"21255","zip_code":"21121","name":"Étaules","slug":"etaules","gps_lat":47.41256012987013,"gps_lng":4.95047688311688},{"id":6980,"department_code":"21","insee_code":"21256","zip_code":"21270","name":"Étevaux","slug":"etevaux","gps_lat":47.32402694915255,"gps_lng":5.3181620338983},{"id":6981,"department_code":"21","insee_code":"21257","zip_code":"21450","name":"Étormay","slug":"etormay","gps_lat":47.59822817073172,"gps_lng":4.58696548780488},{"id":6982,"department_code":"21","insee_code":"21258","zip_code":"21400","name":"Étrochey","slug":"etrochey","gps_lat":47.89065051724138,"gps_lng":4.52221206896552},{"id":7480,"department_code":"22","insee_code":"22053","zip_code":"22250","name":"Éréac","slug":"ereac","gps_lat":48.27024866666665,"gps_lng":-2.33700846153846},{"id":7481,"department_code":"22","insee_code":"22054","zip_code":"22430","name":"Erquy","slug":"erquy","gps_lat":48.63029786956525,"gps_lng":-2.46663813043478},{"id":7484,"department_code":"22","insee_code":"22056","zip_code":"22630","name":"Évran","slug":"evran","gps_lat":48.37966824503314,"gps_lng":-1.98529761589404},{"id":7864,"department_code":"23","insee_code":"23076","zip_code":"23110","name":"Évaux-les-Bains","slug":"evaux les bains","gps_lat":46.16943787190083,"gps_lng":2.50768345041322},{"id":8188,"department_code":"24","insee_code":"24159","zip_code":"24410","name":"Échourgnac","slug":"echourgnac","gps_lat":45.13834134680137,"gps_lng":0.21961232323232},{"id":8189,"department_code":"24","insee_code":"24160","zip_code":"24380","name":"Église-Neuve-de-Vergt","slug":"eglise neuve de vergt","gps_lat":45.08991934210528,"gps_lng":0.73002986842105},{"id":8190,"department_code":"24","insee_code":"24161","zip_code":"24400","name":"Église-Neuve-d'Issac","slug":"eglise neuve d issac","gps_lat":44.97725344827587,"gps_lng":0.43125634482759},{"id":8191,"department_code":"24","insee_code":"24162","zip_code":"24420","name":"Escoire","slug":"escoire","gps_lat":45.20593378378378,"gps_lng":0.84862945945946},{"id":8192,"department_code":"24","insee_code":"24163","zip_code":"24360","name":"Étouars","slug":"etouars","gps_lat":45.61128505050507,"gps_lng":0.61384282828283},{"id":8193,"department_code":"24","insee_code":"24164","zip_code":"24160","name":"Excideuil","slug":"excideuil","gps_lat":45.33053932432432,"gps_lng":1.05915324324324},{"id":8194,"department_code":"24","insee_code":"24165","zip_code":"24700","name":"Eygurande-et-Gardedeuil","slug":"eygurande et gardedeuil","gps_lat":45.07229499999995,"gps_lng":0.12310496753247},{"id":8195,"department_code":"24","insee_code":"24167","zip_code":"24500","name":"Eymet","slug":"eymet","gps_lat":44.67395716612376,"gps_lng":0.38374762214984},{"id":8197,"department_code":"24","insee_code":"24170","zip_code":"24460","name":"Eyvirat","slug":"eyvirat","gps_lat":45.32926549668877,"gps_lng":0.73917953642384},{"id":8198,"department_code":"24","insee_code":"24171","zip_code":"24800","name":"Eyzerac","slug":"eyzerac","gps_lat":45.39027945945946,"gps_lng":0.90625810810811},{"id":8757,"department_code":"25","insee_code":"25209","zip_code":"25440","name":"Échay","slug":"echay","gps_lat":47.04504243902438,"gps_lng":5.95067536585366},{"id":8758,"department_code":"25","insee_code":"25210","zip_code":"25550","name":"Échenans","slug":"echenans","gps_lat":47.52893137931034,"gps_lng":6.69228103448276},{"id":8759,"department_code":"25","insee_code":"25211","zip_code":"25580","name":"Échevannes","slug":"echevannes","gps_lat":47.07253084745762,"gps_lng":6.22776898305085},{"id":8760,"department_code":"25","insee_code":"25212","zip_code":"25480","name":"École-Valentin","slug":"ecole valentin","gps_lat":47.27562402777776,"gps_lng":5.98656333333333},{"id":8762,"department_code":"25","insee_code":"25214","zip_code":"25150","name":"Écot","slug":"ecot","gps_lat":47.42387273504274,"gps_lng":6.73116111111111},{"id":8764,"department_code":"25","insee_code":"25216","zip_code":"25150","name":"Écurcey","slug":"ecurcey","gps_lat":47.40391391304347,"gps_lng":6.80831706521739},{"id":8765,"department_code":"25","insee_code":"25217","zip_code":"25170","name":"Émagny","slug":"emagny","gps_lat":47.30402000000004,"gps_lng":5.86606127819548},{"id":8766,"department_code":"25","insee_code":"25218","zip_code":"25530","name":"Épenouse","slug":"epenouse","gps_lat":47.21300289719627,"gps_lng":6.39759831775701},{"id":8767,"department_code":"25","insee_code":"25219","zip_code":"25800","name":"Épenoy","slug":"epenoy","gps_lat":47.13263582733814,"gps_lng":6.38244604316547},{"id":8768,"department_code":"25","insee_code":"25220","zip_code":"25290","name":"Épeugney","slug":"epeugney","gps_lat":47.12812020000001,"gps_lng":6.0207386},{"id":8769,"department_code":"25","insee_code":"25221","zip_code":"25110","name":"Esnans","slug":"esnans","gps_lat":47.33287464285713,"gps_lng":6.32472053571429},{"id":8770,"department_code":"25","insee_code":"25222","zip_code":"25580","name":"Étalans","slug":"etalans","gps_lat":47.14957099999999,"gps_lng":6.269397},{"id":8771,"department_code":"25","insee_code":"25222","zip_code":"25620","name":"Étalans","slug":"etalans","gps_lat":47.14957099999999,"gps_lng":6.269397},{"id":8772,"department_code":"25","insee_code":"25223","zip_code":"25330","name":"Éternoz","slug":"eternoz","gps_lat":47.01295671957672,"gps_lng":6.00229931216931},{"id":8773,"department_code":"25","insee_code":"25224","zip_code":"25260","name":"Étouvans","slug":"etouvans","gps_lat":47.4548385897436,"gps_lng":6.71975615384615},{"id":8774,"department_code":"25","insee_code":"25225","zip_code":"25170","name":"Étrabonne","slug":"etrabonne","gps_lat":47.23411930232558,"gps_lng":5.73771139534884},{"id":8775,"department_code":"25","insee_code":"25226","zip_code":"25250","name":"Étrappe","slug":"etrappe","gps_lat":47.46967921874999,"gps_lng":6.57930125},{"id":8776,"department_code":"25","insee_code":"25227","zip_code":"25800","name":"Étray","slug":"etray","gps_lat":47.12922096,"gps_lng":6.33134856},{"id":8777,"department_code":"25","insee_code":"25228","zip_code":"25460","name":"Étupes","slug":"etupes","gps_lat":47.50553795918366,"gps_lng":6.87479428571428},{"id":8778,"department_code":"25","insee_code":"25229","zip_code":"25520","name":"Évillers","slug":"evillers","gps_lat":46.99617390243903,"gps_lng":6.22196292682927},{"id":8779,"department_code":"25","insee_code":"25230","zip_code":"25400","name":"Exincourt","slug":"exincourt","gps_lat":47.50169361111112,"gps_lng":6.83561583333334},{"id":8780,"department_code":"25","insee_code":"25231","zip_code":"25530","name":"Eysson","slug":"eysson","gps_lat":47.20539987654322,"gps_lng":6.42691283950618},{"id":9265,"department_code":"26","insee_code":"26117","zip_code":"26190","name":"Échevis","slug":"echevis","gps_lat":45.02553153846156,"gps_lng":5.38155762237762},{"id":9266,"department_code":"26","insee_code":"26118","zip_code":"26210","name":"Épinouze","slug":"epinouze","gps_lat":45.31407552238804,"gps_lng":4.94034104477612},{"id":9267,"department_code":"26","insee_code":"26119","zip_code":"26600","name":"Érôme","slug":"erome","gps_lat":45.12729710280374,"gps_lng":4.83829887850467},{"id":9268,"department_code":"26","insee_code":"26121","zip_code":"26780","name":"Espeluche","slug":"espeluche","gps_lat":44.52527493670887,"gps_lng":4.8216535443038},{"id":9269,"department_code":"26","insee_code":"26122","zip_code":"26340","name":"Espenel","slug":"espenel","gps_lat":44.68824787401577,"gps_lng":5.2327},{"id":9270,"department_code":"26","insee_code":"26123","zip_code":"26470","name":"Establet","slug":"establet","gps_lat":44.50421700787403,"gps_lng":5.4398368503937},{"id":9271,"department_code":"26","insee_code":"26124","zip_code":"26800","name":"Étoile-sur-Rhône","slug":"etoile sur rhone","gps_lat":44.82583701149426,"gps_lng":4.86936643678161},{"id":9272,"department_code":"26","insee_code":"26125","zip_code":"26400","name":"Eurre","slug":"eurre","gps_lat":44.7650835064935,"gps_lng":4.97704103896104},{"id":9273,"department_code":"26","insee_code":"26126","zip_code":"26560","name":"Eygalayes","slug":"eygalayes","gps_lat":44.22870016949151,"gps_lng":5.59300531073446},{"id":9274,"department_code":"26","insee_code":"26127","zip_code":"26170","name":"Eygaliers","slug":"eygaliers","gps_lat":44.2389991044776,"gps_lng":5.28438253731343},{"id":9275,"department_code":"26","insee_code":"26128","zip_code":"26400","name":"Eygluy-Escoulin","slug":"eygluy escoulin","gps_lat":44.794744294871776,"gps_lng":5.20601294871795},{"id":9276,"department_code":"26","insee_code":"26129","zip_code":"26730","name":"Eymeux","slug":"eymeux","gps_lat":45.06519407407409,"gps_lng":5.1814962962963},{"id":9277,"department_code":"26","insee_code":"26130","zip_code":"26110","name":"Eyroles","slug":"eyroles","gps_lat":44.41706369230769,"gps_lng":5.24686730769231},{"id":9278,"department_code":"26","insee_code":"26131","zip_code":"26160","name":"Eyzahut","slug":"eyzahut","gps_lat":44.56317632911392,"gps_lng":5.00619607594937},{"id":9707,"department_code":"27","insee_code":"27209","zip_code":"27290","name":"Écaquelon","slug":"ecaquelon","gps_lat":49.28527575757576,"gps_lng":0.72340325757576},{"id":9708,"department_code":"27","insee_code":"27210","zip_code":"27170","name":"Écardenville-la-Campagne","slug":"ecardenville la campagne","gps_lat":49.12479414285715,"gps_lng":0.82797185714286},{"id":9709,"department_code":"27","insee_code":"27212","zip_code":"27110","name":"Écauville","slug":"ecauville","gps_lat":49.12582912621361,"gps_lng":0.99434951456311},{"id":9713,"department_code":"27","insee_code":"27214","zip_code":"27440","name":"Écouis","slug":"ecouis","gps_lat":49.30496605504587,"gps_lng":1.42578},{"id":9714,"department_code":"27","insee_code":"27215","zip_code":"27110","name":"Ecquetot","slug":"ecquetot","gps_lat":49.16872500000001,"gps_lng":1.01181170731707},{"id":9715,"department_code":"27","insee_code":"27216","zip_code":"27930","name":"Émalleville","slug":"emalleville","gps_lat":49.10134799999999,"gps_lng":1.15954622222222},{"id":9716,"department_code":"27","insee_code":"27217","zip_code":"27190","name":"Émanville","slug":"emanville","gps_lat":49.06257761467891,"gps_lng":0.90841137614679},{"id":9717,"department_code":"27","insee_code":"27218","zip_code":"27260","name":"Épaignes","slug":"epaignes","gps_lat":49.2721499342105,"gps_lng":0.44444631578947},{"id":9718,"department_code":"27","insee_code":"27219","zip_code":"27110","name":"Épégard","slug":"epegard","gps_lat":49.18299037037037,"gps_lng":0.87392135802469},{"id":9719,"department_code":"27","insee_code":"27220","zip_code":"27730","name":"Épieds","slug":"epieds","gps_lat":48.93632115384615,"gps_lng":1.39646564102564},{"id":9720,"department_code":"27","insee_code":"27222","zip_code":"27560","name":"Épreville-en-Lieuvin","slug":"epreville en lieuvin","gps_lat":49.20576538461538,"gps_lng":0.53819476923077},{"id":9721,"department_code":"27","insee_code":"27224","zip_code":"27110","name":"Épreville-près-le-Neubourg","slug":"epreville pres le neubourg","gps_lat":49.13117963636363,"gps_lng":0.87787054545455},{"id":9722,"department_code":"27","insee_code":"27226","zip_code":"27150","name":"Étrépagny","slug":"etrepagny","gps_lat":49.31809196078432,"gps_lng":1.61433264705882},{"id":9723,"department_code":"27","insee_code":"27227","zip_code":"27350","name":"Étréville","slug":"etreville","gps_lat":49.37854179104478,"gps_lng":0.65502895522388},{"id":9724,"department_code":"27","insee_code":"27228","zip_code":"27350","name":"Éturqueraye","slug":"eturqueraye","gps_lat":49.37012171875001,"gps_lng":0.68806734375},{"id":9725,"department_code":"27","insee_code":"27229","zip_code":"27000","name":"Évreux","slug":"evreux","gps_lat":49.0202138011696,"gps_lng":1.13994953216374},{"id":9726,"department_code":"27","insee_code":"27230","zip_code":"27530","name":"Ézy-sur-Eure","slug":"ezy sur eure","gps_lat":48.86860940298506,"gps_lng":1.41511805970149},{"id":10253,"department_code":"28","insee_code":"28136","zip_code":"28500","name":"Écluzelles","slug":"ecluzelles","gps_lat":48.70814419354839,"gps_lng":1.42498370967742},{"id":10254,"department_code":"28","insee_code":"28137","zip_code":"28320","name":"Écrosnes","slug":"ecrosnes","gps_lat":48.5554276744186,"gps_lng":1.73544151162791},{"id":10255,"department_code":"28","insee_code":"28139","zip_code":"28120","name":"Épeautrolles","slug":"epeautrolles","gps_lat":48.3128052702703,"gps_lng":1.33131},{"id":10256,"department_code":"28","insee_code":"28140","zip_code":"28230","name":"Épernon","slug":"epernon","gps_lat":48.60197916083916,"gps_lng":1.68098020979021},{"id":10257,"department_code":"28","insee_code":"28141","zip_code":"28120","name":"Ermenonville-la-Grande","slug":"ermenonville la grande","gps_lat":48.33390365079365,"gps_lng":1.3818080952381},{"id":10258,"department_code":"28","insee_code":"28142","zip_code":"28120","name":"Ermenonville-la-Petite","slug":"ermenonville la petite","gps_lat":48.29068901639344,"gps_lng":1.34808016393443},{"id":10259,"department_code":"28","insee_code":"28143","zip_code":"28270","name":"Escorpain","slug":"escorpain","gps_lat":48.72303611111111,"gps_lng":1.21306666666667},{"id":10491,"department_code":"28","insee_code":"28406","zip_code":"28140","name":"Eole-en-Beauce","slug":"eole en beauce","gps_lat":48.1277426,"gps_lng":1.6757035999999998},{"id":10492,"department_code":"28","insee_code":"28406","zip_code":"28150","name":"Eole-en-Beauce","slug":"eole en beauce","gps_lat":48.26719689999999,"gps_lng":1.6622143},{"id":10556,"department_code":"29","insee_code":"29048","zip_code":"29510","name":"Edern","slug":"edern","gps_lat":48.1117274022346,"gps_lng":-3.96481980446927},{"id":10557,"department_code":"29","insee_code":"29049","zip_code":"29370","name":"Elliant","slug":"elliant","gps_lat":48.00837522058818,"gps_lng":-3.91192642156863},{"id":10558,"department_code":"29","insee_code":"29051","zip_code":"29500","name":"Ergué-Gabéric","slug":"ergue gaberic","gps_lat":48.00671012232417,"gps_lng":-4.00955596330275},{"id":10835,"department_code":"2A","insee_code":"2A104","zip_code":"20117","name":"Eccica-Suarella","slug":"eccica suarella","gps_lat":41.92259359223301,"gps_lng":8.89812063106796},{"id":10836,"department_code":"2A","insee_code":"2A108","zip_code":"20126","name":"Évisa","slug":"evisa","gps_lat":42.28561948717948,"gps_lng":8.81576913461537},{"id":10985,"department_code":"2B","insee_code":"2B105","zip_code":"20212","name":"Erbajolo","slug":"erbajolo","gps_lat":42.25207304054053,"gps_lng":9.26681810810811},{"id":10986,"department_code":"2B","insee_code":"2B106","zip_code":"20244","name":"Érone","slug":"erone","gps_lat":42.37575448717948,"gps_lng":9.27025666666666},{"id":10987,"department_code":"2B","insee_code":"2B107","zip_code":"20275","name":"Ersa","slug":"ersa","gps_lat":42.99496556862744,"gps_lng":9.37749415686274},{"id":11268,"department_code":"30","insee_code":"30107","zip_code":"30390","name":"Estézargues","slug":"estezargues","gps_lat":43.96589666666667,"gps_lng":4.63981819444444},{"id":11270,"department_code":"30","insee_code":"30109","zip_code":"30360","name":"Euzet","slug":"euzet","gps_lat":44.07486470000001,"gps_lng":4.2321798},{"id":11681,"department_code":"31","insee_code":"31165","zip_code":"31600","name":"Eaunes","slug":"eaunes","gps_lat":43.4259632520325,"gps_lng":1.35482447154472},{"id":11682,"department_code":"31","insee_code":"31166","zip_code":"31470","name":"Empeaux","slug":"empeaux","gps_lat":43.53673625000003,"gps_lng":1.07616328125},{"id":11683,"department_code":"31","insee_code":"31167","zip_code":"31160","name":"Encausse-les-Thermes","slug":"encausse les thermes","gps_lat":43.05300504950495,"gps_lng":0.74436603960396},{"id":11684,"department_code":"31","insee_code":"31168","zip_code":"31420","name":"Eoux","slug":"eoux","gps_lat":43.2780930120482,"gps_lng":0.88325301204819},{"id":11685,"department_code":"31","insee_code":"31169","zip_code":"31750","name":"Escalquens","slug":"escalquens","gps_lat":43.52007132352941,"gps_lng":1.55570235294118},{"id":11686,"department_code":"31","insee_code":"31170","zip_code":"31350","name":"Escanecrabe","slug":"escanecrabe","gps_lat":43.26779770053476,"gps_lng":0.7617428342246},{"id":11687,"department_code":"31","insee_code":"31171","zip_code":"31450","name":"Espanès","slug":"espanes","gps_lat":43.45062220000001,"gps_lng":1.4861522},{"id":11688,"department_code":"31","insee_code":"31172","zip_code":"31420","name":"Esparron","slug":"esparron","gps_lat":43.26292850746268,"gps_lng":0.80998955223881},{"id":11689,"department_code":"31","insee_code":"31173","zip_code":"31190","name":"Esperce","slug":"esperce","gps_lat":43.30547582608696,"gps_lng":1.40640852173913},{"id":11690,"department_code":"31","insee_code":"31174","zip_code":"31160","name":"Estadens","slug":"estadens","gps_lat":43.03822804123713,"gps_lng":0.84554989690722},{"id":11691,"department_code":"31","insee_code":"31175","zip_code":"31800","name":"Estancarbon","slug":"estancarbon","gps_lat":43.10651705882353,"gps_lng":0.78023098039216},{"id":11692,"department_code":"31","insee_code":"31176","zip_code":"31440","name":"Esténos","slug":"estenos","gps_lat":42.94023147058823,"gps_lng":0.63298235294118},{"id":11693,"department_code":"31","insee_code":"31177","zip_code":"31440","name":"Eup","slug":"eup","gps_lat":42.92540148148147,"gps_lng":0.68286333333333},{"id":12108,"department_code":"31","insee_code":"31591","zip_code":"31260","name":"Escoulis","slug":"escoulis","gps_lat":43.10998208333334,"gps_lng":1.02665008333333},{"id":12228,"department_code":"32","insee_code":"32119","zip_code":"32800","name":"Eauze","slug":"eauze","gps_lat":43.86099517745304,"gps_lng":0.10211388308977},{"id":12229,"department_code":"32","insee_code":"32120","zip_code":"32430","name":"Encausse","slug":"encausse","gps_lat":43.69276126760565,"gps_lng":1.03283943661972},{"id":12230,"department_code":"32","insee_code":"32121","zip_code":"32600","name":"Endoufielle","slug":"endoufielle","gps_lat":43.55194906735751,"gps_lng":1.02502958549223},{"id":12231,"department_code":"32","insee_code":"32122","zip_code":"32140","name":"Esclassan-Labastide","slug":"esclassan labastide","gps_lat":43.41922728000001,"gps_lng":0.54845032},{"id":12232,"department_code":"32","insee_code":"32123","zip_code":"32200","name":"Escornebœuf","slug":"escorneboeuf","gps_lat":43.64882119047619,"gps_lng":0.9088523015873},{"id":12233,"department_code":"32","insee_code":"32124","zip_code":"32220","name":"Espaon","slug":"espaon","gps_lat":43.43040211920531,"gps_lng":0.86904218543046},{"id":12234,"department_code":"32","insee_code":"32125","zip_code":"32370","name":"Espas","slug":"espas","gps_lat":43.77695673202617,"gps_lng":0.08691294117647},{"id":12235,"department_code":"32","insee_code":"32126","zip_code":"32170","name":"Estampes","slug":"estampes","gps_lat":43.40316993902441,"gps_lng":0.27964213414634},{"id":12236,"department_code":"32","insee_code":"32127","zip_code":"32240","name":"Estang","slug":"estang","gps_lat":43.87235229437229,"gps_lng":-0.10523666666666998},{"id":12237,"department_code":"32","insee_code":"32128","zip_code":"32300","name":"Estipouy","slug":"estipouy","gps_lat":43.54877573426575,"gps_lng":0.39128237762238},{"id":12238,"department_code":"32","insee_code":"32129","zip_code":"32380","name":"Estramiac","slug":"estramiac","gps_lat":43.83415892307695,"gps_lng":0.84441615384615},{"id":12728,"department_code":"33","insee_code":"33155","zip_code":"33840","name":"Escaudes","slug":"escaudes","gps_lat":44.31819053475935,"gps_lng":-0.19787096256684},{"id":12729,"department_code":"33","insee_code":"33156","zip_code":"33760","name":"Escoussans","slug":"escoussans","gps_lat":44.67395,"gps_lng":-0.27546714285714},{"id":12730,"department_code":"33","insee_code":"33157","zip_code":"33420","name":"Espiet","slug":"espiet","gps_lat":44.79711477707005,"gps_lng":-0.26301904458599},{"id":12732,"department_code":"33","insee_code":"33159","zip_code":"33820","name":"Étauliers","slug":"etauliers","gps_lat":45.2219532835821,"gps_lng":-0.5806828358209},{"id":12733,"department_code":"33","insee_code":"33160","zip_code":"33220","name":"Eynesse","slug":"eynesse","gps_lat":44.81708780487804,"gps_lng":0.15577105691057},{"id":12734,"department_code":"33","insee_code":"33161","zip_code":"33390","name":"Eyrans","slug":"eyrans","gps_lat":45.19384242718446,"gps_lng":-0.60971601941748},{"id":12735,"department_code":"33","insee_code":"33162","zip_code":"33320","name":"Eysines","slug":"eysines","gps_lat":44.88091574712644,"gps_lng":-0.64581091954023},{"id":13209,"department_code":"34","insee_code":"34094","zip_code":"34290","name":"Espondeilhan","slug":"espondeilhan","gps_lat":43.43707222222221,"gps_lng":3.25892092592593},{"id":13560,"department_code":"35","insee_code":"35103","zip_code":"35640","name":"Eancé","slug":"eance","gps_lat":47.82619857740589,"gps_lng":-1.2556297489539698},{"id":13561,"department_code":"35","insee_code":"35104","zip_code":"35120","name":"Epiniac","slug":"epiniac","gps_lat":48.5017527986348,"gps_lng":-1.70170641638225},{"id":13562,"department_code":"35","insee_code":"35105","zip_code":"35500","name":"Erbrée","slug":"erbree","gps_lat":48.10782044776118,"gps_lng":-1.11972874626866},{"id":13563,"department_code":"35","insee_code":"35106","zip_code":"35620","name":"Ercé-en-Lamée","slug":"erce en lamee","gps_lat":47.82486537267082,"gps_lng":-1.57180711180124},{"id":13564,"department_code":"35","insee_code":"35107","zip_code":"35340","name":"Ercé-près-Liffré","slug":"erce pres liffre","gps_lat":48.25329489726027,"gps_lng":-1.51890167808219},{"id":13565,"department_code":"35","insee_code":"35108","zip_code":"35150","name":"Essé","slug":"esse","gps_lat":47.95054777173913,"gps_lng":-1.43016766304348},{"id":13566,"department_code":"35","insee_code":"35109","zip_code":"35370","name":"Étrelles","slug":"etrelles","gps_lat":48.07566367346936,"gps_lng":-1.21295947521866},{"id":13879,"department_code":"36","insee_code":"36069","zip_code":"36240","name":"Écueillé","slug":"ecueille","gps_lat":47.07056177339901,"gps_lng":1.33983477832512},{"id":13880,"department_code":"36","insee_code":"36070","zip_code":"36270","name":"Éguzon-Chantôme","slug":"eguzon chantome","gps_lat":46.43356125490195,"gps_lng":1.56155325490196},{"id":13881,"department_code":"36","insee_code":"36071","zip_code":"36120","name":"Étrechet","slug":"etrechet","gps_lat":46.78480271929826,"gps_lng":1.77159263157895},{"id":14149,"department_code":"37","insee_code":"37100","zip_code":"37150","name":"Épeigné-les-Bois","slug":"epeigne les bois","gps_lat":47.27600138297874,"gps_lng":1.1208879787234},{"id":14150,"department_code":"37","insee_code":"37101","zip_code":"37370","name":"Épeigné-sur-Dême","slug":"epeigne sur deme","gps_lat":47.67787000000002,"gps_lng":0.62060135338346},{"id":14151,"department_code":"37","insee_code":"37103","zip_code":"37240","name":"Esves-le-Moutier","slug":"esves le moutier","gps_lat":47.03747240506328,"gps_lng":0.90395253164557},{"id":14152,"department_code":"37","insee_code":"37104","zip_code":"37320","name":"Esvres","slug":"esvres","gps_lat":47.28684083333334,"gps_lng":0.79261755952381},{"id":14461,"department_code":"38","insee_code":"38151","zip_code":"38130","name":"Échirolles","slug":"echirolles","gps_lat":45.14447596774194,"gps_lng":5.72215516129032},{"id":14462,"department_code":"38","insee_code":"38152","zip_code":"38300","name":"Eclose-Badinières","slug":"eclose badinieres","gps_lat":45.50113555555556,"gps_lng":5.2971984057971},{"id":14463,"department_code":"38","insee_code":"38153","zip_code":"38360","name":"Engins","slug":"engins","gps_lat":45.19231281938325,"gps_lng":5.6158759030837},{"id":14464,"department_code":"38","insee_code":"38154","zip_code":"38740","name":"Entraigues","slug":"entraigues","gps_lat":44.89144768,"gps_lng":5.96413536},{"id":14465,"department_code":"38","insee_code":"38155","zip_code":"38380","name":"Entre-deux-Guiers","slug":"entre deux guiers","gps_lat":45.41441156862745,"gps_lng":5.75468150326798},{"id":14467,"department_code":"38","insee_code":"38157","zip_code":"38780","name":"Estrablin","slug":"estrablin","gps_lat":45.50942792553191,"gps_lng":4.95466085106383},{"id":14468,"department_code":"38","insee_code":"38158","zip_code":"38320","name":"Eybens","slug":"eybens","gps_lat":45.1535324074074,"gps_lng":5.74784},{"id":14469,"department_code":"38","insee_code":"38159","zip_code":"38690","name":"Eydoche","slug":"eydoche","gps_lat":45.44421437499999,"gps_lng":5.32637015625},{"id":14470,"department_code":"38","insee_code":"38160","zip_code":"38780","name":"Eyzin-Pinet","slug":"eyzin pinet","gps_lat":45.47887031446539,"gps_lng":4.99072547169812},{"id":15037,"department_code":"39","insee_code":"39205","zip_code":"39700","name":"Éclans-Nenon","slug":"eclans nenon","gps_lat":47.1261711904762,"gps_lng":5.59462166666667},{"id":15038,"department_code":"39","insee_code":"39206","zip_code":"39600","name":"Écleux","slug":"ecleux","gps_lat":46.99181830508475,"gps_lng":5.73766720338983},{"id":15039,"department_code":"39","insee_code":"39207","zip_code":"39270","name":"Écrille","slug":"ecrille","gps_lat":46.50215363636364,"gps_lng":5.6320197979798},{"id":15040,"department_code":"39","insee_code":"39208","zip_code":"39150","name":"Entre-deux-Monts","slug":"entre deux monts","gps_lat":46.6426572368421,"gps_lng":5.96570434210526},{"id":15043,"department_code":"39","insee_code":"39210","zip_code":"39300","name":"Équevillon","slug":"equevillon","gps_lat":46.76188891304349,"gps_lng":5.94400271739131},{"id":15045,"department_code":"39","insee_code":"39214","zip_code":"39250","name":"Esserval-Tartre","slug":"esserval tartre","gps_lat":46.82903025641024,"gps_lng":6.03276692307692},{"id":15046,"department_code":"39","insee_code":"39216","zip_code":"39130","name":"Étival","slug":"etival","gps_lat":46.49577488636363,"gps_lng":5.80323284090909},{"id":15048,"department_code":"39","insee_code":"39218","zip_code":"39700","name":"Étrepigney","slug":"etrepigney","gps_lat":47.12693203125,"gps_lng":5.67707734375},{"id":15049,"department_code":"39","insee_code":"39219","zip_code":"39700","name":"Évans","slug":"evans","gps_lat":47.18048055555553,"gps_lng":5.76440527777778},{"id":15461,"department_code":"40","insee_code":"40093","zip_code":"40310","name":"Escalans","slug":"escalans","gps_lat":44.00024069597068,"gps_lng":0.04475142857143},{"id":15462,"department_code":"40","insee_code":"40094","zip_code":"40210","name":"Escource","slug":"escource","gps_lat":44.18751795698926,"gps_lng":-1.09465419354839},{"id":15463,"department_code":"40","insee_code":"40095","zip_code":"40290","name":"Estibeaux","slug":"estibeaux","gps_lat":43.60652156249999,"gps_lng":-0.912554765625},{"id":15464,"department_code":"40","insee_code":"40096","zip_code":"40240","name":"Estigarde","slug":"estigarde","gps_lat":44.06176655913981,"gps_lng":-0.11390397849461997},{"id":15465,"department_code":"40","insee_code":"40097","zip_code":"40320","name":"Eugénie-les-Bains","slug":"eugenie les bains","gps_lat":43.69583051094889,"gps_lng":-0.38318737226277},{"id":15466,"department_code":"40","insee_code":"40098","zip_code":"40500","name":"Eyres-Moncube","slug":"eyres moncube","gps_lat":43.71455416107382,"gps_lng":-0.55039852348993},{"id":15769,"department_code":"41","insee_code":"41077","zip_code":"41290","name":"Épiais","slug":"epiais","gps_lat":47.8151458108108,"gps_lng":1.24805216216216},{"id":15770,"department_code":"41","insee_code":"41078","zip_code":"41360","name":"Épuisay","slug":"epuisay","gps_lat":47.89118414285714,"gps_lng":0.93145885714286},{"id":16057,"department_code":"42","insee_code":"42086","zip_code":"42670","name":"Écoche","slug":"ecoche","gps_lat":46.15265907407407,"gps_lng":4.30646675925926},{"id":16058,"department_code":"42","insee_code":"42087","zip_code":"42600","name":"Écotay-l'Olme","slug":"ecotay l olme","gps_lat":45.58678812499999,"gps_lng":4.04656770833333},{"id":16059,"department_code":"42","insee_code":"42088","zip_code":"42110","name":"Épercieux-Saint-Paul","slug":"epercieux saint paul","gps_lat":45.78876651685394,"gps_lng":4.20164505617978},{"id":16060,"department_code":"42","insee_code":"42089","zip_code":"42600","name":"Essertines-en-Châtelneuf","slug":"essertines en chatelneuf","gps_lat":45.61684275590552,"gps_lng":3.98906732283465},{"id":16061,"department_code":"42","insee_code":"42090","zip_code":"42360","name":"Essertines-en-Donzy","slug":"essertines en donzy","gps_lat":45.75854443478261,"gps_lng":4.33615965217391},{"id":16062,"department_code":"42","insee_code":"42091","zip_code":"42380","name":"Estivareilles","slug":"estivareilles","gps_lat":45.43339376306616,"gps_lng":4.01197261324042},{"id":16390,"department_code":"43","insee_code":"43088","zip_code":"43450","name":"Espalem","slug":"espalem","gps_lat":45.29883016806724,"gps_lng":3.23416861344538},{"id":16391,"department_code":"43","insee_code":"43089","zip_code":"43000","name":"Espaly-Saint-Marcel","slug":"espaly saint marcel","gps_lat":45.04742943820224,"gps_lng":3.85680842696629},{"id":16392,"department_code":"43","insee_code":"43090","zip_code":"43170","name":"Esplantas-Vazeilles","slug":"esplantas vazeilles","gps_lat":44.89734,"gps_lng":3.588247},{"id":16393,"department_code":"43","insee_code":"43090","zip_code":"43580","name":"Esplantas-Vazeilles","slug":"esplantas vazeilles","gps_lat":44.89734,"gps_lng":3.588247},{"id":16610,"department_code":"44","insee_code":"44054","zip_code":"44110","name":"Erbray","slug":"erbray","gps_lat":47.66264211267603,"gps_lng":-1.32098582159624},{"id":16896,"department_code":"45","insee_code":"45131","zip_code":"45390","name":"Échilleuses","slug":"echilleuses","gps_lat":48.16802810810811,"gps_lng":2.44482594594595},{"id":16897,"department_code":"45","insee_code":"45132","zip_code":"45340","name":"Égry","slug":"egry","gps_lat":48.10327904761904,"gps_lng":2.44022761904762},{"id":16898,"department_code":"45","insee_code":"45133","zip_code":"45300","name":"Engenville","slug":"engenville","gps_lat":48.2389096,"gps_lng":2.24033693333333},{"id":16899,"department_code":"45","insee_code":"45134","zip_code":"45130","name":"Épieds-en-Beauce","slug":"epieds en beauce","gps_lat":47.96183605263158,"gps_lng":1.6097432456140401},{"id":16900,"department_code":"45","insee_code":"45135","zip_code":"45480","name":"Erceville","slug":"erceville","gps_lat":48.24778250000001,"gps_lng":2.03238973684211},{"id":16901,"department_code":"45","insee_code":"45136","zip_code":"45320","name":"Ervauville","slug":"ervauville","gps_lat":48.09473060869563,"gps_lng":2.98052886956522},{"id":16902,"department_code":"45","insee_code":"45137","zip_code":"45300","name":"Escrennes","slug":"escrennes","gps_lat":48.13854890109891,"gps_lng":2.18340593406593},{"id":16903,"department_code":"45","insee_code":"45138","zip_code":"45250","name":"Escrignelles","slug":"escrignelles","gps_lat":47.71241462499998,"gps_lng":2.82151675},{"id":16904,"department_code":"45","insee_code":"45139","zip_code":"45300","name":"Estouy","slug":"estouy","gps_lat":48.18868558558557,"gps_lng":2.32565171171171},{"id":17188,"department_code":"46","insee_code":"46091","zip_code":"46230","name":"Escamps","slug":"escamps","gps_lat":44.36740163934428,"gps_lng":1.62353344262295},{"id":17189,"department_code":"46","insee_code":"46092","zip_code":"46090","name":"Esclauzels","slug":"esclauzels","gps_lat":44.43097821621623,"gps_lng":1.5963635135135101},{"id":17190,"department_code":"46","insee_code":"46093","zip_code":"46320","name":"Espagnac-Sainte-Eulalie","slug":"espagnac sainte eulalie","gps_lat":44.59196972477066,"gps_lng":1.8609649541284399},{"id":17191,"department_code":"46","insee_code":"46094","zip_code":"46320","name":"Espédaillac","slug":"espedaillac","gps_lat":44.62888189542485,"gps_lng":1.77670803921569},{"id":17192,"department_code":"46","insee_code":"46095","zip_code":"46090","name":"Espère","slug":"espere","gps_lat":44.51275859374999,"gps_lng":1.3742284375},{"id":17193,"department_code":"46","insee_code":"46096","zip_code":"46120","name":"Espeyroux","slug":"espeyroux","gps_lat":44.76381896296295,"gps_lng":1.92936614814815},{"id":17194,"department_code":"46","insee_code":"46097","zip_code":"46130","name":"Estal","slug":"estal","gps_lat":44.91979913385828,"gps_lng":1.91677566929134},{"id":17510,"department_code":"47","insee_code":"47087","zip_code":"47470","name":"Engayrac","slug":"engayrac","gps_lat":44.25080516778523,"gps_lng":0.89581422818792},{"id":17511,"department_code":"47","insee_code":"47088","zip_code":"47350","name":"Escassefort","slug":"escassefort","gps_lat":44.55308628099175,"gps_lng":0.2301205785124},{"id":17512,"department_code":"47","insee_code":"47089","zip_code":"47120","name":"Esclottes","slug":"esclottes","gps_lat":44.71440636363636,"gps_lng":0.14587072727273},{"id":17513,"department_code":"47","insee_code":"47090","zip_code":"47600","name":"Espiens","slug":"espiens","gps_lat":44.17314848275861,"gps_lng":0.38553448275862},{"id":17514,"department_code":"47","insee_code":"47091","zip_code":"47310","name":"Estillac","slug":"estillac","gps_lat":44.16970852941177,"gps_lng":0.57516137254902},{"id":17788,"department_code":"48","insee_code":"48056","zip_code":"48230","name":"Esclanèdes","slug":"esclanedes","gps_lat":44.48380854700853,"gps_lng":3.36666982905983},{"id":17789,"department_code":"48","insee_code":"48057","zip_code":"48700","name":"Estables","slug":"estables","gps_lat":44.67933268292681,"gps_lng":3.49690256097561},{"id":17981,"department_code":"49","insee_code":"49129","zip_code":"49000","name":"Écouflant","slug":"ecouflant","gps_lat":47.5248348,"gps_lng":-0.51512886666667},{"id":17982,"department_code":"49","insee_code":"49130","zip_code":"49460","name":"Écuillé","slug":"ecuille","gps_lat":47.616676993007,"gps_lng":-0.55930342657343},{"id":17983,"department_code":"49","insee_code":"49131","zip_code":"49260","name":"Épieds","slug":"epieds","gps_lat":47.13145567073168,"gps_lng":-0.043961036585369984},{"id":17984,"department_code":"49","insee_code":"49132","zip_code":"49330","name":"Étriché","slug":"etriche","gps_lat":47.65584335877865,"gps_lng":-0.45195809160305},{"id":18114,"department_code":"49","insee_code":"49367","zip_code":"49220","name":"Erdre-en-Anjou","slug":"erdre en anjou","gps_lat":47.600665,"gps_lng":-0.834591},{"id":18115,"department_code":"49","insee_code":"49367","zip_code":"49370","name":"Erdre-en-Anjou","slug":"erdre en anjou","gps_lat":47.600665,"gps_lng":-0.834591},{"id":18256,"department_code":"50","insee_code":"50169","zip_code":"50310","name":"Écausseville","slug":"ecausseville","gps_lat":49.4629393258427,"gps_lng":-1.3822297752809},{"id":18257,"department_code":"50","insee_code":"50172","zip_code":"50310","name":"Émondeville","slug":"emondeville","gps_lat":49.4633781927711,"gps_lng":-1.3373108433734902},{"id":18258,"department_code":"50","insee_code":"50174","zip_code":"50320","name":"Équilly","slug":"equilly","gps_lat":48.8308870700637,"gps_lng":-1.38029898089172},{"id":18259,"department_code":"50","insee_code":"50175","zip_code":"50310","name":"Éroudeville","slug":"eroudeville","gps_lat":49.47410487499999,"gps_lng":-1.3950796250000002},{"id":18261,"department_code":"50","insee_code":"50177","zip_code":"50360","name":"Étienville","slug":"etienville","gps_lat":49.38944125000002,"gps_lng":-1.43500098214286},{"id":18828,"department_code":"51","insee_code":"51222","zip_code":"51800","name":"Éclaires","slug":"eclaires","gps_lat":48.99107779661018,"gps_lng":4.99383584745762},{"id":18829,"department_code":"51","insee_code":"51223","zip_code":"51290","name":"Écollemont","slug":"ecollemont","gps_lat":48.61689100000001,"gps_lng":4.741808},{"id":18830,"department_code":"51","insee_code":"51224","zip_code":"51300","name":"Écriennes","slug":"ecriennes","gps_lat":48.68952126315786,"gps_lng":4.68349610526316},{"id":18831,"department_code":"51","insee_code":"51225","zip_code":"51500","name":"Écueil","slug":"ecueil","gps_lat":49.17738512499999,"gps_lng":3.947458},{"id":18832,"department_code":"51","insee_code":"51226","zip_code":"51230","name":"Écury-le-Repos","slug":"ecury le repos","gps_lat":48.80675277777778,"gps_lng":4.02747555555556},{"id":18833,"department_code":"51","insee_code":"51227","zip_code":"51240","name":"Écury-sur-Coole","slug":"ecury sur coole","gps_lat":48.89794991150444,"gps_lng":4.33521681415929},{"id":18834,"department_code":"51","insee_code":"51228","zip_code":"51800","name":"Élise-Daucourt","slug":"elise daucourt","gps_lat":49.04361272727272,"gps_lng":4.877865},{"id":18835,"department_code":"51","insee_code":"51229","zip_code":"51330","name":"Épense","slug":"epense","gps_lat":48.974779875,"gps_lng":4.8404795},{"id":18836,"department_code":"51","insee_code":"51230","zip_code":"51200","name":"Épernay","slug":"epernay","gps_lat":49.03596533864544,"gps_lng":3.9305886852589698},{"id":18838,"department_code":"51","insee_code":"51232","zip_code":"51490","name":"Époye","slug":"epoye","gps_lat":49.28419363636363,"gps_lng":4.2310653030303},{"id":18839,"department_code":"51","insee_code":"51233","zip_code":"51310","name":"Escardes","slug":"escardes","gps_lat":48.69335553571428,"gps_lng":3.53293267857143},{"id":18840,"department_code":"51","insee_code":"51234","zip_code":"51260","name":"Esclavolles-Lurey","slug":"esclavolles lurey","gps_lat":48.54976106194689,"gps_lng":3.65083424778761},{"id":18843,"department_code":"51","insee_code":"51237","zip_code":"51310","name":"Esternay","slug":"esternay","gps_lat":48.71889181395348,"gps_lng":3.58381572093023},{"id":18844,"department_code":"51","insee_code":"51238","zip_code":"51270","name":"Étoges","slug":"etoges","gps_lat":48.89581317073171,"gps_lng":3.8500335365853697},{"id":18845,"department_code":"51","insee_code":"51239","zip_code":"51130","name":"Étréchy","slug":"etrechy","gps_lat":48.88484575,"gps_lng":3.95130025},{"id":18846,"department_code":"51","insee_code":"51240","zip_code":"51340","name":"Étrepy","slug":"etrepy","gps_lat":48.76475694444445,"gps_lng":4.80996296296296},{"id":18847,"department_code":"51","insee_code":"51241","zip_code":"51230","name":"Euvy","slug":"euvy","gps_lat":48.71401363636362,"gps_lng":4.01092333333333},{"id":19380,"department_code":"52","insee_code":"52181","zip_code":"52230","name":"Échenay","slug":"echenay","gps_lat":48.46250462962965,"gps_lng":5.30911824074074},{"id":19381,"department_code":"52","insee_code":"52182","zip_code":"52290","name":"Éclaron-Braucourt-Sainte-Livière","slug":"eclaron braucourt sainte liviere","gps_lat":48.57968696969695,"gps_lng":4.83097764309764},{"id":19382,"department_code":"52","insee_code":"52183","zip_code":"52700","name":"Ecot-la-Combe","slug":"ecot la combe","gps_lat":48.20898977272725,"gps_lng":5.40741515151515},{"id":19383,"department_code":"52","insee_code":"52184","zip_code":"52300","name":"Effincourt","slug":"effincourt","gps_lat":48.49416419047619,"gps_lng":5.26253123809524},{"id":19384,"department_code":"52","insee_code":"52185","zip_code":"52400","name":"Enfonvelle","slug":"enfonvelle","gps_lat":47.92058349056602,"gps_lng":5.86491009433962},{"id":19385,"department_code":"52","insee_code":"52187","zip_code":"52230","name":"Épizon","slug":"epizon","gps_lat":48.378822,"gps_lng":5.348689},{"id":19386,"department_code":"52","insee_code":"52187","zip_code":"52270","name":"Épizon","slug":"epizon","gps_lat":48.378822,"gps_lng":5.348689},{"id":19388,"department_code":"52","insee_code":"52190","zip_code":"52340","name":"Esnouveaux","slug":"esnouveaux","gps_lat":48.13131994219655,"gps_lng":5.35023416184972},{"id":19389,"department_code":"52","insee_code":"52193","zip_code":"52000","name":"Euffigneix","slug":"euffigneix","gps_lat":48.12874426666666,"gps_lng":5.05159386666667},{"id":19390,"department_code":"52","insee_code":"52194","zip_code":"52410","name":"Eurville-Bienville","slug":"eurville bienville","gps_lat":48.57581820754718,"gps_lng":5.04359216981132},{"id":19753,"department_code":"53","insee_code":"53094","zip_code":"53260","name":"Entrammes","slug":"entrammes","gps_lat":47.98888427947599,"gps_lng":-0.70961794759825},{"id":19754,"department_code":"53","insee_code":"53096","zip_code":"53500","name":"Ernée","slug":"ernee","gps_lat":48.29871591549293,"gps_lng":-0.94087855633803},{"id":19755,"department_code":"53","insee_code":"53097","zip_code":"53600","name":"Évron","slug":"evron","gps_lat":48.14774552631579,"gps_lng":-0.39704887218045004},{"id":20097,"department_code":"54","insee_code":"54174","zip_code":"54200","name":"Écrouves","slug":"ecrouves","gps_lat":48.67971439999998,"gps_lng":5.8392044},{"id":20098,"department_code":"54","insee_code":"54175","zip_code":"54360","name":"Einvaux","slug":"einvaux","gps_lat":48.4925773,"gps_lng":6.392607},{"id":20099,"department_code":"54","insee_code":"54176","zip_code":"54370","name":"Einville-au-Jard","slug":"einville au jard","gps_lat":48.65228547945201,"gps_lng":6.48317815068493},{"id":20100,"department_code":"54","insee_code":"54177","zip_code":"54370","name":"Emberménil","slug":"embermenil","gps_lat":48.64122583333335,"gps_lng":6.68021921568627},{"id":20101,"department_code":"54","insee_code":"54178","zip_code":"54260","name":"Épiez-sur-Chiers","slug":"epiez sur chiers","gps_lat":49.49736380281691,"gps_lng":5.49571},{"id":20102,"department_code":"54","insee_code":"54179","zip_code":"54610","name":"Éply","slug":"eply","gps_lat":48.9285440677966,"gps_lng":6.17528344632768},{"id":20103,"department_code":"54","insee_code":"54180","zip_code":"54280","name":"Erbéviller-sur-Amezule","slug":"erbeviller sur amezule","gps_lat":48.72889213114753,"gps_lng":6.38613590163935},{"id":20104,"department_code":"54","insee_code":"54181","zip_code":"54680","name":"Errouville","slug":"errouville","gps_lat":49.41751407407409,"gps_lng":5.89851740740741},{"id":20105,"department_code":"54","insee_code":"54182","zip_code":"54470","name":"Essey-et-Maizerais","slug":"essey et maizerais","gps_lat":48.91256109374999,"gps_lng":5.803104609375},{"id":20106,"department_code":"54","insee_code":"54183","zip_code":"54830","name":"Essey-la-Côte","slug":"essey la cote","gps_lat":48.42503606060605,"gps_lng":6.47019444444444},{"id":20107,"department_code":"54","insee_code":"54184","zip_code":"54270","name":"Essey-lès-Nancy","slug":"essey les nancy","gps_lat":48.70722987179489,"gps_lng":6.23230923076923},{"id":20108,"department_code":"54","insee_code":"54185","zip_code":"54330","name":"Étreval","slug":"etreval","gps_lat":48.45597263888888,"gps_lng":6.05344583333334},{"id":20109,"department_code":"54","insee_code":"54186","zip_code":"54690","name":"Eulmont","slug":"eulmont","gps_lat":48.75024857142855,"gps_lng":6.22373706349206},{"id":20110,"department_code":"54","insee_code":"54187","zip_code":"54470","name":"Euvezin","slug":"euvezin","gps_lat":48.91989520661158,"gps_lng":5.85836008264463},{"id":20662,"department_code":"55","insee_code":"55169","zip_code":"55600","name":"Écouviez","slug":"ecouviez","gps_lat":49.53038338235293,"gps_lng":5.45153764705882},{"id":20663,"department_code":"55","insee_code":"55170","zip_code":"55150","name":"Écurey-en-Verdunois","slug":"ecurey en verdunois","gps_lat":49.3580322988506,"gps_lng":5.33839873563218},{"id":20664,"department_code":"55","insee_code":"55171","zip_code":"55400","name":"Eix","slug":"eix","gps_lat":49.18036065217391,"gps_lng":5.48440913043478},{"id":20666,"department_code":"55","insee_code":"55173","zip_code":"55140","name":"Épiez-sur-Meuse","slug":"epiez sur meuse","gps_lat":48.54621186915887,"gps_lng":5.6283885046729},{"id":20667,"department_code":"55","insee_code":"55174","zip_code":"55270","name":"Épinonville","slug":"epinonville","gps_lat":49.27300333333334,"gps_lng":5.08249258333333},{"id":20668,"department_code":"55","insee_code":"55175","zip_code":"55260","name":"Érize-la-Brûlée","slug":"erize la brulee","gps_lat":48.8457276984127,"gps_lng":5.2700307936508},{"id":20669,"department_code":"55","insee_code":"55177","zip_code":"55260","name":"Érize-la-Petite","slug":"erize la petite","gps_lat":48.91076829787234,"gps_lng":5.24435127659575},{"id":20670,"department_code":"55","insee_code":"55178","zip_code":"55000","name":"Érize-Saint-Dizier","slug":"erize saint dizier","gps_lat":48.81131942622953,"gps_lng":5.28238606557377},{"id":20671,"department_code":"55","insee_code":"55179","zip_code":"55500","name":"Erneville-aux-Bois","slug":"erneville aux bois","gps_lat":48.74001346938777,"gps_lng":5.41518790816327},{"id":20672,"department_code":"55","insee_code":"55180","zip_code":"55100","name":"Esnes-en-Argonne","slug":"esnes en argonne","gps_lat":49.21162631147541,"gps_lng":5.20503262295082},{"id":20673,"department_code":"55","insee_code":"55181","zip_code":"55400","name":"Étain","slug":"etain","gps_lat":49.21972615819208,"gps_lng":5.63639531073446},{"id":20674,"department_code":"55","insee_code":"55182","zip_code":"55240","name":"Éton","slug":"eton","gps_lat":49.267073,"gps_lng":5.68737078571428},{"id":20675,"department_code":"55","insee_code":"55183","zip_code":"55150","name":"Étraye","slug":"etraye","gps_lat":49.32691657534248,"gps_lng":5.35791082191781},{"id":20676,"department_code":"55","insee_code":"55184","zip_code":"55200","name":"Euville","slug":"euville","gps_lat":48.7422897368421,"gps_lng":5.64506884210527},{"id":20677,"department_code":"55","insee_code":"55185","zip_code":"55250","name":"Èvres","slug":"evres","gps_lat":48.9807920754717,"gps_lng":5.12624773584906},{"id":21068,"department_code":"56","insee_code":"56053","zip_code":"56250","name":"Elven","slug":"elven","gps_lat":47.73088734335842,"gps_lng":-2.59183899749373},{"id":21069,"department_code":"56","insee_code":"56054","zip_code":"56410","name":"Erdeven","slug":"erdeven","gps_lat":47.63933655038758,"gps_lng":-3.15085786821705},{"id":21070,"department_code":"56","insee_code":"56055","zip_code":"56410","name":"Étel","slug":"etel","gps_lat":47.65635478260869,"gps_lng":-3.19505347826087},{"id":21071,"department_code":"56","insee_code":"56056","zip_code":"56490","name":"Évriguet","slug":"evriguet","gps_lat":48.08315301587301,"gps_lng":-2.40700650793651},{"id":21156,"department_code":"56","insee_code":"56144","zip_code":"56500","name":"Évellys","slug":"evellys","gps_lat":47.97233951260505,"gps_lng":-2.87763205042017},{"id":21446,"department_code":"57","insee_code":"57186","zip_code":"57320","name":"Ébersviller","slug":"ebersviller","gps_lat":49.27744549668871,"gps_lng":6.40151178807947},{"id":21447,"department_code":"57","insee_code":"57187","zip_code":"57220","name":"Éblange","slug":"eblange","gps_lat":49.22210773333333,"gps_lng":6.4885429333333295},{"id":21448,"department_code":"57","insee_code":"57188","zip_code":"57230","name":"Éguelshardt","slug":"eguelshardt","gps_lat":49.02798514285714,"gps_lng":7.52281685714286},{"id":21449,"department_code":"57","insee_code":"57189","zip_code":"57340","name":"Eincheville","slug":"eincheville","gps_lat":48.98323050847456,"gps_lng":6.60276644067797},{"id":21450,"department_code":"57","insee_code":"57190","zip_code":"57690","name":"Elvange","slug":"elvange","gps_lat":49.05571189999998,"gps_lng":6.5453476},{"id":21451,"department_code":"57","insee_code":"57191","zip_code":"57970","name":"Elzange","slug":"elzange","gps_lat":49.35966809090908,"gps_lng":6.297413},{"id":21452,"department_code":"57","insee_code":"57192","zip_code":"57415","name":"Enchenberg","slug":"enchenberg","gps_lat":49.01878871794874,"gps_lng":7.33004506410257},{"id":21453,"department_code":"57","insee_code":"57193","zip_code":"57365","name":"Ennery","slug":"ennery","gps_lat":49.22778990990989,"gps_lng":6.22164900900901},{"id":21454,"department_code":"57","insee_code":"57194","zip_code":"57330","name":"Entrange","slug":"entrange","gps_lat":49.41444263157895,"gps_lng":6.11253736842105},{"id":21455,"department_code":"57","insee_code":"57195","zip_code":"57720","name":"Epping","slug":"epping","gps_lat":49.10210374999996,"gps_lng":7.32400775},{"id":21456,"department_code":"57","insee_code":"57196","zip_code":"57720","name":"Erching","slug":"erching","gps_lat":49.11126933962265,"gps_lng":7.26957716981132},{"id":21457,"department_code":"57","insee_code":"57197","zip_code":"57510","name":"Ernestviller","slug":"ernestviller","gps_lat":49.06297694117646,"gps_lng":6.97673211764706},{"id":21458,"department_code":"57","insee_code":"57198","zip_code":"57660","name":"Erstroff","slug":"erstroff","gps_lat":48.9771326027397,"gps_lng":6.77452438356164},{"id":21459,"department_code":"57","insee_code":"57199","zip_code":"57330","name":"Escherange","slug":"escherange","gps_lat":49.41948226190475,"gps_lng":6.07160083333333},{"id":21461,"department_code":"57","insee_code":"57201","zip_code":"57412","name":"Etting","slug":"etting","gps_lat":49.02655761904762,"gps_lng":7.18813923809524},{"id":21462,"department_code":"57","insee_code":"57202","zip_code":"57460","name":"Etzling","slug":"etzling","gps_lat":49.17984081967212,"gps_lng":6.9581688524590195},{"id":21463,"department_code":"57","insee_code":"57203","zip_code":"57570","name":"Évrange","slug":"evrange","gps_lat":49.50223375000002,"gps_lng":6.19719071428572},{"id":22106,"department_code":"58","insee_code":"58108","zip_code":"58140","name":"Empury","slug":"empury","gps_lat":47.34777999999998,"gps_lng":3.82103630434783},{"id":22107,"department_code":"58","insee_code":"58109","zip_code":"58410","name":"Entrains-sur-Nohain","slug":"entrains sur nohain","gps_lat":47.45903358823529,"gps_lng":3.26084811764706},{"id":22108,"department_code":"58","insee_code":"58110","zip_code":"58800","name":"Epiry","slug":"epiry","gps_lat":47.17041622222222,"gps_lng":3.73191518518518},{"id":22495,"department_code":"59","insee_code":"59184","zip_code":"59173","name":"Ebblinghem","slug":"ebblinghem","gps_lat":50.73252267441859,"gps_lng":2.42293081395349},{"id":22496,"department_code":"59","insee_code":"59185","zip_code":"59176","name":"Écaillon","slug":"ecaillon","gps_lat":50.34541013157895,"gps_lng":3.21637868421053},{"id":22497,"department_code":"59","insee_code":"59186","zip_code":"59740","name":"Eccles","slug":"eccles","gps_lat":50.19861055555558,"gps_lng":4.09897416666667},{"id":22498,"department_code":"59","insee_code":"59187","zip_code":"59330","name":"Éclaibes","slug":"eclaibes","gps_lat":50.19676019999998,"gps_lng":3.9435414},{"id":22499,"department_code":"59","insee_code":"59188","zip_code":"59620","name":"Écuélin","slug":"ecuelin","gps_lat":50.19226912280703,"gps_lng":3.89780719298246},{"id":22500,"department_code":"59","insee_code":"59189","zip_code":"59114","name":"Eecke","slug":"eecke","gps_lat":50.78360367346938,"gps_lng":2.6029817346938797},{"id":22501,"department_code":"59","insee_code":"59190","zip_code":"59600","name":"Élesmes","slug":"elesmes","gps_lat":50.30615901408451,"gps_lng":4.00739211267606},{"id":22502,"department_code":"59","insee_code":"59191","zip_code":"59127","name":"Élincourt","slug":"elincourt","gps_lat":50.04212613636364,"gps_lng":3.36727909090909},{"id":22503,"department_code":"59","insee_code":"59192","zip_code":"59580","name":"Émerchicourt","slug":"emerchicourt","gps_lat":50.31394298507463,"gps_lng":3.26058194029851},{"id":22504,"department_code":"59","insee_code":"59193","zip_code":"59320","name":"Emmerin","slug":"emmerin","gps_lat":50.59064195652174,"gps_lng":3.00495913043478},{"id":22505,"department_code":"59","insee_code":"59194","zip_code":"59530","name":"Englefontaine","slug":"englefontaine","gps_lat":50.19194970588237,"gps_lng":3.64058691176471},{"id":22506,"department_code":"59","insee_code":"59195","zip_code":"59320","name":"Englos","slug":"englos","gps_lat":50.62712451612903,"gps_lng":2.95992209677419},{"id":22507,"department_code":"59","insee_code":"59196","zip_code":"59320","name":"Ennetières-en-Weppes","slug":"ennetieres en weppes","gps_lat":50.63611329268293,"gps_lng":2.9376121951219503},{"id":22508,"department_code":"59","insee_code":"59197","zip_code":"59710","name":"Ennevelin","slug":"ennevelin","gps_lat":50.53619905982906,"gps_lng":3.13001341880342},{"id":22509,"department_code":"59","insee_code":"59198","zip_code":"59132","name":"Eppe-Sauvage","slug":"eppe sauvage","gps_lat":50.11426875576035,"gps_lng":4.15583069124424},{"id":22510,"department_code":"59","insee_code":"59199","zip_code":"59169","name":"Erchin","slug":"erchin","gps_lat":50.31522880000001,"gps_lng":3.1677011999999998},{"id":22511,"department_code":"59","insee_code":"59200","zip_code":"59470","name":"Eringhem","slug":"eringhem","gps_lat":50.88801565573771,"gps_lng":2.3082168852459},{"id":22512,"department_code":"59","insee_code":"59201","zip_code":"59320","name":"Erquinghem-le-Sec","slug":"erquinghem le sec","gps_lat":50.61084,"gps_lng":2.93447314285714},{"id":22513,"department_code":"59","insee_code":"59202","zip_code":"59193","name":"Erquinghem-Lys","slug":"erquinghem lys","gps_lat":50.6707385897436,"gps_lng":2.8413202564102598},{"id":22514,"department_code":"59","insee_code":"59203","zip_code":"59171","name":"Erre","slug":"erre","gps_lat":50.3648545185185,"gps_lng":3.31786681481481},{"id":22515,"department_code":"59","insee_code":"59204","zip_code":"59213","name":"Escarmain","slug":"escarmain","gps_lat":50.22540907894736,"gps_lng":3.55106789473684},{"id":22516,"department_code":"59","insee_code":"59205","zip_code":"59124","name":"Escaudain","slug":"escaudain","gps_lat":50.3352818918919,"gps_lng":3.3423052027027},{"id":22517,"department_code":"59","insee_code":"59206","zip_code":"59161","name":"Escaudœuvres","slug":"escaudoeuvres","gps_lat":50.19263844155843,"gps_lng":3.27697363636364},{"id":22518,"department_code":"59","insee_code":"59207","zip_code":"59278","name":"Escautpont","slug":"escautpont","gps_lat":50.41756763636362,"gps_lng":3.56240581818182},{"id":22519,"department_code":"59","insee_code":"59208","zip_code":"59320","name":"Escobecques","slug":"escobecques","gps_lat":50.62271651162789,"gps_lng":2.93040790697674},{"id":22520,"department_code":"59","insee_code":"59209","zip_code":"59127","name":"Esnes","slug":"esnes","gps_lat":50.09496118181819,"gps_lng":3.31318236363636},{"id":22521,"department_code":"59","insee_code":"59210","zip_code":"59470","name":"Esquelbecq","slug":"esquelbecq","gps_lat":50.89514543478263,"gps_lng":2.43579163043478},{"id":22522,"department_code":"59","insee_code":"59211","zip_code":"59553","name":"Esquerchin","slug":"esquerchin","gps_lat":50.38434294871797,"gps_lng":3.00510192307692},{"id":22523,"department_code":"59","insee_code":"59212","zip_code":"59940","name":"Estaires","slug":"estaires","gps_lat":50.65483325842699,"gps_lng":2.71672235955056},{"id":22524,"department_code":"59","insee_code":"59213","zip_code":"59400","name":"Estourmel","slug":"estourmel","gps_lat":50.1513013043478,"gps_lng":3.32505231884058},{"id":22525,"department_code":"59","insee_code":"59214","zip_code":"59151","name":"Estrées","slug":"estrees","gps_lat":50.30059058823527,"gps_lng":3.07336176470588},{"id":22526,"department_code":"59","insee_code":"59215","zip_code":"59990","name":"Estreux","slug":"estreux","gps_lat":50.34987266666668,"gps_lng":3.60224733333333},{"id":22527,"department_code":"59","insee_code":"59216","zip_code":"59161","name":"Eswars","slug":"eswars","gps_lat":50.21507648148147,"gps_lng":3.26749592592593},{"id":22528,"department_code":"59","insee_code":"59217","zip_code":"59144","name":"Eth","slug":"eth","gps_lat":50.32603779661015,"gps_lng":3.66623016949152},{"id":22529,"department_code":"59","insee_code":"59218","zip_code":"59219","name":"Étrœungt","slug":"etroeungt","gps_lat":50.06307139534882,"gps_lng":3.93662627906977},{"id":22530,"department_code":"59","insee_code":"59219","zip_code":"59295","name":"Estrun","slug":"estrun","gps_lat":50.24340634146343,"gps_lng":3.29472512195122},{"id":23173,"department_code":"60","insee_code":"60204","zip_code":"60310","name":"Écuvilly","slug":"ecuvilly","gps_lat":49.65034437500001,"gps_lng":2.91962484375},{"id":23174,"department_code":"60","insee_code":"60205","zip_code":"60210","name":"Élencourt","slug":"elencourt","gps_lat":49.6943,"gps_lng":1.8969921875},{"id":23175,"department_code":"60","insee_code":"60206","zip_code":"60157","name":"Élincourt-Sainte-Marguerite","slug":"elincourt sainte marguerite","gps_lat":49.53164761467888,"gps_lng":2.8349571559633002},{"id":23176,"department_code":"60","insee_code":"60207","zip_code":"60123","name":"Éméville","slug":"emeville","gps_lat":49.28316116279071,"gps_lng":3.02403},{"id":23177,"department_code":"60","insee_code":"60208","zip_code":"60590","name":"Énencourt-Léage","slug":"enencourt leage","gps_lat":49.30444051282051,"gps_lng":1.84599615384615},{"id":23178,"department_code":"60","insee_code":"60209","zip_code":"60240","name":"Énencourt-le-Sec","slug":"enencourt le sec","gps_lat":49.29233271604938,"gps_lng":1.91465185185185},{"id":23179,"department_code":"60","insee_code":"60210","zip_code":"60190","name":"Épineuse","slug":"epineuse","gps_lat":49.4001193939394,"gps_lng":2.5503203030303},{"id":23180,"department_code":"60","insee_code":"60211","zip_code":"60590","name":"Éragny-sur-Epte","slug":"eragny sur epte","gps_lat":49.30916315217392,"gps_lng":1.77950804347826},{"id":23181,"department_code":"60","insee_code":"60212","zip_code":"60530","name":"Ercuis","slug":"ercuis","gps_lat":49.23508137931036,"gps_lng":2.30997706896552},{"id":23182,"department_code":"60","insee_code":"60213","zip_code":"60950","name":"Ermenonville","slug":"ermenonville","gps_lat":49.12486214953268,"gps_lng":2.70513336448598},{"id":23183,"department_code":"60","insee_code":"60214","zip_code":"60380","name":"Ernemont-Boutavent","slug":"ernemont boutavent","gps_lat":49.59153478260869,"gps_lng":1.7893043478260902},{"id":23184,"department_code":"60","insee_code":"60215","zip_code":"60600","name":"Erquery","slug":"erquery","gps_lat":49.41392721311474,"gps_lng":2.45362819672131},{"id":23185,"department_code":"60","insee_code":"60216","zip_code":"60130","name":"Erquinvillers","slug":"erquinvillers","gps_lat":49.45831745454547,"gps_lng":2.48754363636364},{"id":23186,"department_code":"60","insee_code":"60217","zip_code":"60380","name":"Escames","slug":"escames","gps_lat":49.55469317073169,"gps_lng":1.8065070121951199},{"id":23187,"department_code":"60","insee_code":"60218","zip_code":"60110","name":"Esches","slug":"esches","gps_lat":49.23346749999999,"gps_lng":2.17596588235294},{"id":23188,"department_code":"60","insee_code":"60219","zip_code":"60220","name":"Escles-Saint-Pierre","slug":"escles saint pierre","gps_lat":49.74531638297871,"gps_lng":1.7987585106383},{"id":23189,"department_code":"60","insee_code":"60220","zip_code":"60650","name":"Espaubourg","slug":"espaubourg","gps_lat":49.42332903225807,"gps_lng":1.86906209677419},{"id":23190,"department_code":"60","insee_code":"60221","zip_code":"60120","name":"Esquennoy","slug":"esquennoy","gps_lat":49.65741512499999,"gps_lng":2.269765125},{"id":23191,"department_code":"60","insee_code":"60222","zip_code":"60510","name":"Essuiles","slug":"essuiles","gps_lat":49.48394542056074,"gps_lng":2.28538523364486},{"id":23192,"department_code":"60","insee_code":"60223","zip_code":"60190","name":"Estrées-Saint-Denis","slug":"estrees saint denis","gps_lat":49.42745250000003,"gps_lng":2.63479892857143},{"id":23193,"department_code":"60","insee_code":"60224","zip_code":"60620","name":"Étavigny","slug":"etavigny","gps_lat":49.12650520547945,"gps_lng":2.98418205479452},{"id":23194,"department_code":"60","insee_code":"60225","zip_code":"60600","name":"Étouy","slug":"etouy","gps_lat":49.42489940298511,"gps_lng":2.3666},{"id":23195,"department_code":"60","insee_code":"60226","zip_code":"60330","name":"Ève","slug":"eve","gps_lat":49.08341160714285,"gps_lng":2.70972839285714},{"id":23196,"department_code":"60","insee_code":"60227","zip_code":"60310","name":"Évricourt","slug":"evricourt","gps_lat":49.56967525423727,"gps_lng":2.91670474576271},{"id":23775,"department_code":"61","insee_code":"61149","zip_code":"61440","name":"Échalou","slug":"echalou","gps_lat":48.7206823853211,"gps_lng":-0.49525944954128},{"id":23776,"department_code":"61","insee_code":"61150","zip_code":"61370","name":"Échauffour","slug":"echauffour","gps_lat":48.72686181818182,"gps_lng":0.39900194357367},{"id":23777,"department_code":"61","insee_code":"61151","zip_code":"61270","name":"Écorcei","slug":"ecorcei","gps_lat":48.72124023529411,"gps_lng":0.57526494117647},{"id":23778,"department_code":"61","insee_code":"61152","zip_code":"61160","name":"Écorches","slug":"ecorches","gps_lat":48.87101730337078,"gps_lng":0.08634056179775},{"id":23779,"department_code":"61","insee_code":"61153","zip_code":"61150","name":"Écouché-les-Vallées","slug":"ecouche les vallees","gps_lat":48.664192,"gps_lng":-0.14456800000000003},{"id":23780,"department_code":"61","insee_code":"61153","zip_code":"61200","name":"Écouché-les-Vallées","slug":"ecouche les vallees","gps_lat":48.717358,"gps_lng":-0.12297999999999998},{"id":23781,"department_code":"61","insee_code":"61156","zip_code":"61500","name":"Essay","slug":"essay","gps_lat":48.54016489130435,"gps_lng":0.2431360326087},{"id":23923,"department_code":"61","insee_code":"61341","zip_code":"61250","name":"Écouves","slug":"ecouves","gps_lat":48.5101335064935,"gps_lng":0.10770727272727},{"id":24339,"department_code":"62","insee_code":"62281","zip_code":"62360","name":"Echinghen","slug":"echinghen","gps_lat":50.70228705882354,"gps_lng":1.65615470588235},{"id":24340,"department_code":"62","insee_code":"62282","zip_code":"62770","name":"Éclimeux","slug":"eclimeux","gps_lat":50.39627015873016,"gps_lng":2.18432015873016},{"id":24341,"department_code":"62","insee_code":"62283","zip_code":"62270","name":"Écoivres","slug":"ecoivres","gps_lat":50.32295344827587,"gps_lng":2.2850593103448302},{"id":24342,"department_code":"62","insee_code":"62284","zip_code":"62860","name":"Écourt-Saint-Quentin","slug":"ecourt saint quentin","gps_lat":50.25600522222222,"gps_lng":3.06444255555555},{"id":24343,"department_code":"62","insee_code":"62285","zip_code":"62128","name":"Écoust-Saint-Mein","slug":"ecoust saint mein","gps_lat":50.17365323529412,"gps_lng":2.90185485294118},{"id":24344,"department_code":"62","insee_code":"62286","zip_code":"62190","name":"Ecquedecques","slug":"ecquedecques","gps_lat":50.56029830508471,"gps_lng":2.44264440677966},{"id":24345,"department_code":"62","insee_code":"62288","zip_code":"62129","name":"Ecques","slug":"ecques","gps_lat":50.67597312500002,"gps_lng":2.28500785714286},{"id":24346,"department_code":"62","insee_code":"62289","zip_code":"62170","name":"Écuires","slug":"ecuires","gps_lat":50.43796461538459,"gps_lng":1.76893564102564},{"id":24347,"department_code":"62","insee_code":"62290","zip_code":"62223","name":"Écurie","slug":"ecurie","gps_lat":50.32901636363636,"gps_lng":2.7661927272727302},{"id":24348,"department_code":"62","insee_code":"62291","zip_code":"62300","name":"Éleu-dit-Leauwette","slug":"eleu dit leauwette","gps_lat":50.4182558139535,"gps_lng":2.8144823255814},{"id":24349,"department_code":"62","insee_code":"62292","zip_code":"62380","name":"Elnes","slug":"elnes","gps_lat":50.68903031578947,"gps_lng":2.12395105263158},{"id":24350,"department_code":"62","insee_code":"62293","zip_code":"62990","name":"Embry","slug":"embry","gps_lat":50.4975490265487,"gps_lng":1.95685734513274},{"id":24351,"department_code":"62","insee_code":"62295","zip_code":"62145","name":"Enquin-lez-Guinegatte","slug":"enquin lez guinegatte","gps_lat":50.59451528846153,"gps_lng":2.28617009615385},{"id":24352,"department_code":"62","insee_code":"62296","zip_code":"62650","name":"Enquin-sur-Baillons","slug":"enquin sur baillons","gps_lat":50.5732451724138,"gps_lng":1.84687689655172},{"id":24353,"department_code":"62","insee_code":"62297","zip_code":"62910","name":"Éperlecques","slug":"eperlecques","gps_lat":50.81275962962962,"gps_lng":2.15114438271605},{"id":24354,"department_code":"62","insee_code":"62298","zip_code":"62860","name":"Épinoy","slug":"epinoy","gps_lat":50.23137354545455,"gps_lng":3.16100136363636},{"id":24355,"department_code":"62","insee_code":"62299","zip_code":"62134","name":"Eps","slug":"eps","gps_lat":50.4544475510204,"gps_lng":2.29737071428571},{"id":24356,"department_code":"62","insee_code":"62300","zip_code":"62224","name":"Équihen-Plage","slug":"equihen plage","gps_lat":50.67763693333334,"gps_lng":1.5780113333333299},{"id":24357,"department_code":"62","insee_code":"62301","zip_code":"62134","name":"Équirre","slug":"equirre","gps_lat":50.47877120000002,"gps_lng":2.2353044},{"id":24358,"department_code":"62","insee_code":"62302","zip_code":"62650","name":"Ergny","slug":"ergny","gps_lat":50.585020721649514,"gps_lng":1.97399639175258},{"id":24359,"department_code":"62","insee_code":"62303","zip_code":"62134","name":"Érin","slug":"erin","gps_lat":50.43335000000002,"gps_lng":2.21753345679012},{"id":24360,"department_code":"62","insee_code":"62304","zip_code":"62960","name":"Erny-Saint-Julien","slug":"erny saint julien","gps_lat":50.58156,"gps_lng":2.25330234042553},{"id":24361,"department_code":"62","insee_code":"62306","zip_code":"62121","name":"Ervillers","slug":"ervillers","gps_lat":50.16774568965516,"gps_lng":2.82627379310345},{"id":24362,"department_code":"62","insee_code":"62307","zip_code":"62179","name":"Escalles","slug":"escalles","gps_lat":50.91025227272728,"gps_lng":1.72166295454545},{"id":24363,"department_code":"62","insee_code":"62308","zip_code":"62850","name":"Escœuilles","slug":"escoeuilles","gps_lat":50.72222445652174,"gps_lng":1.9380166304347801},{"id":24364,"department_code":"62","insee_code":"62309","zip_code":"62380","name":"Esquerdes","slug":"esquerdes","gps_lat":50.70353182692308,"gps_lng":2.17933653846154},{"id":24365,"department_code":"62","insee_code":"62310","zip_code":"62400","name":"Essars","slug":"essars","gps_lat":50.54986042553193,"gps_lng":2.66049978723404},{"id":24366,"department_code":"62","insee_code":"62311","zip_code":"62880","name":"Estevelles","slug":"estevelles","gps_lat":50.47971875,"gps_lng":2.9058135},{"id":24367,"department_code":"62","insee_code":"62312","zip_code":"62170","name":"Estrée","slug":"estree","gps_lat":50.49614606741572,"gps_lng":1.80191179775281},{"id":24368,"department_code":"62","insee_code":"62313","zip_code":"62145","name":"Estrée-Blanche","slug":"estree blanche","gps_lat":50.59092166666667,"gps_lng":2.32274333333333},{"id":24369,"department_code":"62","insee_code":"62314","zip_code":"62690","name":"Estrée-Cauchy","slug":"estree cauchy","gps_lat":50.39931999999999,"gps_lng":2.6094844},{"id":24370,"department_code":"62","insee_code":"62315","zip_code":"62170","name":"Estréelles","slug":"estreelles","gps_lat":50.49941706666666,"gps_lng":1.78233026666667},{"id":24371,"department_code":"62","insee_code":"62316","zip_code":"62810","name":"Estrée-Wamin","slug":"estree wamin","gps_lat":50.26896733333333,"gps_lng":2.39677288888889},{"id":24372,"department_code":"62","insee_code":"62317","zip_code":"62156","name":"Étaing","slug":"etaing","gps_lat":50.27310183098591,"gps_lng":2.9970163380281702},{"id":24373,"department_code":"62","insee_code":"62318","zip_code":"62630","name":"Étaples","slug":"etaples","gps_lat":50.5235937037037,"gps_lng":1.64755305555556},{"id":24374,"department_code":"62","insee_code":"62319","zip_code":"62156","name":"Éterpigny","slug":"eterpigny","gps_lat":50.25660779411766,"gps_lng":2.9803675},{"id":24375,"department_code":"62","insee_code":"62320","zip_code":"62161","name":"Étrun","slug":"etrun","gps_lat":50.31649791666668,"gps_lng":2.68915125},{"id":24376,"department_code":"62","insee_code":"62321","zip_code":"62141","name":"Évin-Malmaison","slug":"evin malmaison","gps_lat":50.43543015624999,"gps_lng":3.0335678125},{"id":25096,"department_code":"63","insee_code":"63142","zip_code":"63980","name":"Échandelys","slug":"echandelys","gps_lat":45.54693940828403,"gps_lng":3.52210721893491},{"id":25097,"department_code":"63","insee_code":"63143","zip_code":"63260","name":"Effiat","slug":"effiat","gps_lat":46.04305676923079,"gps_lng":3.27325046153846},{"id":25098,"department_code":"63","insee_code":"63144","zip_code":"63850","name":"Égliseneuve-d'Entraigues","slug":"egliseneuve d entraigues","gps_lat":45.41987841708546,"gps_lng":2.81840856783919},{"id":25099,"department_code":"63","insee_code":"63145","zip_code":"63490","name":"Égliseneuve-des-Liards","slug":"egliseneuve des liards","gps_lat":45.56376219298244,"gps_lng":3.41676210526316},{"id":25100,"department_code":"63","insee_code":"63146","zip_code":"63160","name":"Égliseneuve-près-Billom","slug":"egliseneuve pres billom","gps_lat":45.71870522875817,"gps_lng":3.38892169934641},{"id":25101,"department_code":"63","insee_code":"63147","zip_code":"63840","name":"Églisolles","slug":"eglisolles","gps_lat":45.46279424528301,"gps_lng":3.87842278301887},{"id":25102,"department_code":"63","insee_code":"63148","zip_code":"63720","name":"Ennezat","slug":"ennezat","gps_lat":45.896438,"gps_lng":3.2171365555555598},{"id":25103,"department_code":"63","insee_code":"63149","zip_code":"63720","name":"Entraigues","slug":"entraigues","gps_lat":45.88441911764704,"gps_lng":3.26460426470588},{"id":25104,"department_code":"63","insee_code":"63150","zip_code":"63530","name":"Enval","slug":"enval","gps_lat":45.89838280487805,"gps_lng":3.05066341463415},{"id":25105,"department_code":"63","insee_code":"63151","zip_code":"63300","name":"Escoutoux","slug":"escoutoux","gps_lat":45.81369306034482,"gps_lng":3.55894176724138},{"id":25106,"department_code":"63","insee_code":"63152","zip_code":"63390","name":"Espinasse","slug":"espinasse","gps_lat":46.03121014084506,"gps_lng":2.71806577464789},{"id":25107,"department_code":"63","insee_code":"63153","zip_code":"63850","name":"Espinchal","slug":"espinchal","gps_lat":45.39574372340425,"gps_lng":2.8773229787234},{"id":25108,"department_code":"63","insee_code":"63154","zip_code":"63160","name":"Espirat","slug":"espirat","gps_lat":45.75393519999999,"gps_lng":3.3347994},{"id":25109,"department_code":"63","insee_code":"63155","zip_code":"63520","name":"Estandeuil","slug":"estandeuil","gps_lat":45.6809127368421,"gps_lng":3.44718505263158},{"id":25110,"department_code":"63","insee_code":"63156","zip_code":"63570","name":"Esteil","slug":"esteil","gps_lat":45.4543267105263,"gps_lng":3.36495157894737},{"id":25620,"department_code":"64","insee_code":"64204","zip_code":"64440","name":"Eaux-Bonnes","slug":"eaux bonnes","gps_lat":42.95728904,"gps_lng":-0.36636152},{"id":25621,"department_code":"64","insee_code":"64205","zip_code":"64270","name":"Escos","slug":"escos","gps_lat":43.44309560975609,"gps_lng":-1.00730012195122},{"id":25622,"department_code":"64","insee_code":"64206","zip_code":"64490","name":"Escot","slug":"escot","gps_lat":43.08038475862068,"gps_lng":-0.5728017931034499},{"id":25623,"department_code":"64","insee_code":"64207","zip_code":"64870","name":"Escou","slug":"escou","gps_lat":43.18353999999999,"gps_lng":-0.5323765979381401},{"id":25624,"department_code":"64","insee_code":"64208","zip_code":"64160","name":"Escoubès","slug":"escoubes","gps_lat":43.417127894736836,"gps_lng":-0.24024557894736998},{"id":25625,"department_code":"64","insee_code":"64209","zip_code":"64870","name":"Escout","slug":"escout","gps_lat":43.18676673469389,"gps_lng":-0.5513797959183699},{"id":25626,"department_code":"64","insee_code":"64210","zip_code":"64350","name":"Escurès","slug":"escures","gps_lat":43.46531038961037,"gps_lng":-0.12446233766234005},{"id":25627,"department_code":"64","insee_code":"64211","zip_code":"64420","name":"Eslourenties-Daban","slug":"eslourenties daban","gps_lat":43.30025885964912,"gps_lng":-0.14242140350876997},{"id":25628,"department_code":"64","insee_code":"64212","zip_code":"64160","name":"Espéchède","slug":"espechede","gps_lat":43.31817251908401,"gps_lng":-0.19345839694655997},{"id":25629,"department_code":"64","insee_code":"64213","zip_code":"64250","name":"Espelette","slug":"espelette","gps_lat":43.34235495327105,"gps_lng":-1.4537348130841101},{"id":25630,"department_code":"64","insee_code":"64214","zip_code":"64130","name":"Espès-Undurein","slug":"espes undurein","gps_lat":43.27337943820226,"gps_lng":-0.88872747191011},{"id":25631,"department_code":"64","insee_code":"64215","zip_code":"64390","name":"Espiute","slug":"espiute","gps_lat":43.35267638554217,"gps_lng":-0.91260192771084},{"id":25632,"department_code":"64","insee_code":"64216","zip_code":"64420","name":"Espoey","slug":"espoey","gps_lat":43.24913256410257,"gps_lng":-0.16006974358974002},{"id":25633,"department_code":"64","insee_code":"64217","zip_code":"64400","name":"Esquiule","slug":"esquiule","gps_lat":43.18758935309973,"gps_lng":-0.7231225606469001},{"id":25634,"department_code":"64","insee_code":"64218","zip_code":"64220","name":"Estérençuby","slug":"esterencuby","gps_lat":43.09102699421965,"gps_lng":-1.17104624277457},{"id":25635,"department_code":"64","insee_code":"64219","zip_code":"64290","name":"Estialescq","slug":"estialescq","gps_lat":43.2217787804878,"gps_lng":-0.5465912195122},{"id":25636,"department_code":"64","insee_code":"64220","zip_code":"64400","name":"Estos","slug":"estos","gps_lat":43.21512482352943,"gps_lng":-0.60497505882353},{"id":25637,"department_code":"64","insee_code":"64221","zip_code":"64120","name":"Etcharry","slug":"etcharry","gps_lat":43.33315191489362,"gps_lng":-0.92540824468085},{"id":25638,"department_code":"64","insee_code":"64222","zip_code":"64470","name":"Etchebar","slug":"etchebar","gps_lat":43.06828454545455,"gps_lng":-0.90155623376623},{"id":25639,"department_code":"64","insee_code":"64223","zip_code":"64490","name":"Etsaut","slug":"etsaut","gps_lat":42.897507228260864,"gps_lng":-0.5311854347826099},{"id":25640,"department_code":"64","insee_code":"64224","zip_code":"64400","name":"Eysus","slug":"eysus","gps_lat":43.13605878260871,"gps_lng":-0.5842550434782601},{"id":26124,"department_code":"65","insee_code":"65157","zip_code":"65170","name":"Ens","slug":"ens","gps_lat":42.79339039215685,"gps_lng":0.3352231372549},{"id":26125,"department_code":"65","insee_code":"65158","zip_code":"65370","name":"Esbareich","slug":"esbareich","gps_lat":42.93439486486487,"gps_lng":0.56933981981982},{"id":26126,"department_code":"65","insee_code":"65159","zip_code":"65250","name":"Escala","slug":"escala","gps_lat":43.08302634146342,"gps_lng":0.41006268292683},{"id":26127,"department_code":"65","insee_code":"65160","zip_code":"65500","name":"Escaunets","slug":"escaunets","gps_lat":43.34668920289858,"gps_lng":-0.07445021739129998},{"id":26128,"department_code":"65","insee_code":"65161","zip_code":"65140","name":"Escondeaux","slug":"escondeaux","gps_lat":43.34656125,"gps_lng":0.13232955357143},{"id":26129,"department_code":"65","insee_code":"65162","zip_code":"65130","name":"Esconnets","slug":"esconnets","gps_lat":43.07191939759038,"gps_lng":0.23352542168675},{"id":26130,"department_code":"65","insee_code":"65163","zip_code":"65130","name":"Escots","slug":"escots","gps_lat":43.0617220754717,"gps_lng":0.25685037735849},{"id":26131,"department_code":"65","insee_code":"65164","zip_code":"65100","name":"Escoubès-Pouts","slug":"escoubes pouts","gps_lat":43.10531056179775,"gps_lng":0.0277997752809},{"id":26132,"department_code":"65","insee_code":"65165","zip_code":"65130","name":"Esparros","slug":"esparros","gps_lat":43.02077189473682,"gps_lng":0.29518178947368},{"id":26133,"department_code":"65","insee_code":"65166","zip_code":"65130","name":"Espèche","slug":"espeche","gps_lat":43.0619266,"gps_lng":0.2998582},{"id":26134,"department_code":"65","insee_code":"65167","zip_code":"65130","name":"Espieilh","slug":"espieilh","gps_lat":43.07824218750001,"gps_lng":0.24148640625},{"id":26135,"department_code":"65","insee_code":"65168","zip_code":"65120","name":"Esquièze-Sère","slug":"esquieze sere","gps_lat":42.88044972222222,"gps_lng":-0.009108333333330054},{"id":26136,"department_code":"65","insee_code":"65169","zip_code":"65400","name":"Estaing","slug":"estaing","gps_lat":42.884542012987,"gps_lng":-0.20670792207792},{"id":26137,"department_code":"65","insee_code":"65170","zip_code":"65220","name":"Estampures","slug":"estampures","gps_lat":43.37635611111111,"gps_lng":0.28747422222222},{"id":26138,"department_code":"65","insee_code":"65171","zip_code":"65240","name":"Estarvielle","slug":"estarvielle","gps_lat":42.82050111111111,"gps_lng":0.41745777777778},{"id":26139,"department_code":"65","insee_code":"65172","zip_code":"65170","name":"Estensan","slug":"estensan","gps_lat":42.8162961904762,"gps_lng":0.34448404761905},{"id":26140,"department_code":"65","insee_code":"65173","zip_code":"65120","name":"Esterre","slug":"esterre","gps_lat":42.87145714285714,"gps_lng":0.01150228571429},{"id":26141,"department_code":"65","insee_code":"65174","zip_code":"65700","name":"Estirac","slug":"estirac","gps_lat":43.49932273504272,"gps_lng":0.03135162393162},{"id":26505,"department_code":"66","insee_code":"66064","zip_code":"66120","name":"Égat","slug":"egat","gps_lat":42.50060852941175,"gps_lng":2.01666411764706},{"id":26506,"department_code":"66","insee_code":"66065","zip_code":"66200","name":"Elne","slug":"elne","gps_lat":42.60521457142858,"gps_lng":2.97193842857143},{"id":26507,"department_code":"66","insee_code":"66066","zip_code":"66760","name":"Enveitg","slug":"enveitg","gps_lat":42.4834834117647,"gps_lng":1.89689970588235},{"id":26508,"department_code":"66","insee_code":"66067","zip_code":"66800","name":"Err","slug":"err","gps_lat":42.41401319444446,"gps_lng":2.06170131944445},{"id":26509,"department_code":"66","insee_code":"66068","zip_code":"66360","name":"Escaro","slug":"escaro","gps_lat":42.54001037499999,"gps_lng":2.31207925},{"id":26510,"department_code":"66","insee_code":"66069","zip_code":"66600","name":"Espira-de-l'Agly","slug":"espira de l agly","gps_lat":42.78943220930233,"gps_lng":2.8166123255814},{"id":26511,"department_code":"66","insee_code":"66070","zip_code":"66320","name":"Espira-de-Conflent","slug":"espira de conflent","gps_lat":42.62036397435897,"gps_lng":2.49511474358974},{"id":26512,"department_code":"66","insee_code":"66071","zip_code":"66310","name":"Estagel","slug":"estagel","gps_lat":42.77458035714286,"gps_lng":2.70244696428571},{"id":26513,"department_code":"66","insee_code":"66072","zip_code":"66800","name":"Estavar","slug":"estavar","gps_lat":42.47456662650603,"gps_lng":2.00831036144578},{"id":26514,"department_code":"66","insee_code":"66073","zip_code":"66320","name":"Estoher","slug":"estoher","gps_lat":42.57263840336136,"gps_lng":2.48176621848739},{"id":26515,"department_code":"66","insee_code":"66074","zip_code":"66500","name":"Eus","slug":"eus","gps_lat":42.64914533783786,"gps_lng":2.4525870945945902},{"id":26516,"department_code":"66","insee_code":"66075","zip_code":"66800","name":"Eyne","slug":"eyne","gps_lat":42.45482058823529,"gps_lng":2.10766098039216},{"id":26778,"department_code":"67","insee_code":"67113","zip_code":"67470","name":"Eberbach-Seltz","slug":"eberbach seltz","gps_lat":48.92814547169812,"gps_lng":8.06431716981132},{"id":26779,"department_code":"67","insee_code":"67115","zip_code":"67600","name":"Ebersheim","slug":"ebersheim","gps_lat":48.29984454545455,"gps_lng":7.50277872727273},{"id":26780,"department_code":"67","insee_code":"67116","zip_code":"67600","name":"Ebersmunster","slug":"ebersmunster","gps_lat":48.30235412213742,"gps_lng":7.53117419847328},{"id":26781,"department_code":"67","insee_code":"67117","zip_code":"67700","name":"Eckartswiller","slug":"eckartswiller","gps_lat":48.78625442060088,"gps_lng":7.32441690987125},{"id":26782,"department_code":"67","insee_code":"67118","zip_code":"67201","name":"Eckbolsheim","slug":"eckbolsheim","gps_lat":48.57791747899161,"gps_lng":7.68124941176471},{"id":26783,"department_code":"67","insee_code":"67119","zip_code":"67550","name":"Eckwersheim","slug":"eckwersheim","gps_lat":48.68359500000001,"gps_lng":7.69300904761905},{"id":26784,"department_code":"67","insee_code":"67120","zip_code":"67140","name":"Eichhoffen","slug":"eichhoffen","gps_lat":48.37865706896552,"gps_lng":7.44012931034482},{"id":26785,"department_code":"67","insee_code":"67121","zip_code":"67390","name":"Elsenheim","slug":"elsenheim","gps_lat":48.16328537037035,"gps_lng":7.49556703703704},{"id":26787,"department_code":"67","insee_code":"67123","zip_code":"67350","name":"Engwiller","slug":"engwiller","gps_lat":48.88273173913044,"gps_lng":7.61684},{"id":26788,"department_code":"67","insee_code":"67124","zip_code":"67960","name":"Entzheim","slug":"entzheim","gps_lat":48.5369550515464,"gps_lng":7.63347257731959},{"id":26789,"department_code":"67","insee_code":"67125","zip_code":"67680","name":"Epfig","slug":"epfig","gps_lat":48.35469578616351,"gps_lng":7.45926603773585},{"id":26790,"department_code":"67","insee_code":"67126","zip_code":"67290","name":"Erckartswiller","slug":"erckartswiller","gps_lat":48.88578,"gps_lng":7.361601953125},{"id":26791,"department_code":"67","insee_code":"67127","zip_code":"67120","name":"Ergersheim","slug":"ergersheim","gps_lat":48.57362252747254,"gps_lng":7.53389428571428},{"id":26792,"department_code":"67","insee_code":"67128","zip_code":"67120","name":"Ernolsheim-Bruche","slug":"ernolsheim bruche","gps_lat":48.56477883116881,"gps_lng":7.5699025974026},{"id":26793,"department_code":"67","insee_code":"67129","zip_code":"67330","name":"Ernolsheim-lès-Saverne","slug":"ernolsheim les saverne","gps_lat":48.78796024691357,"gps_lng":7.38096901234569},{"id":26794,"department_code":"67","insee_code":"67130","zip_code":"67150","name":"Erstein","slug":"erstein","gps_lat":48.42147382978724,"gps_lng":7.67871638297873},{"id":26795,"department_code":"67","insee_code":"67131","zip_code":"67114","name":"Eschau","slug":"eschau","gps_lat":48.48030131428568,"gps_lng":7.72131354285715},{"id":26796,"department_code":"67","insee_code":"67132","zip_code":"67360","name":"Eschbach","slug":"eschbach","gps_lat":48.87769201612905,"gps_lng":7.74004919354839},{"id":26797,"department_code":"67","insee_code":"67133","zip_code":"67320","name":"Eschbourg","slug":"eschbourg","gps_lat":48.8227376630435,"gps_lng":7.29372614130435},{"id":26798,"department_code":"67","insee_code":"67134","zip_code":"67320","name":"Eschwiller","slug":"eschwiller","gps_lat":48.85484936170216,"gps_lng":7.11424531914894},{"id":26799,"department_code":"67","insee_code":"67135","zip_code":"67350","name":"Ettendorf","slug":"ettendorf","gps_lat":48.81416963414634,"gps_lng":7.58444768292683},{"id":26800,"department_code":"67","insee_code":"67136","zip_code":"67320","name":"Eywiller","slug":"eywiller","gps_lat":48.870587083333334,"gps_lng":7.1252575},{"id":27264,"department_code":"68","insee_code":"68077","zip_code":"68720","name":"Eglingen","slug":"eglingen","gps_lat":47.66093495049502,"gps_lng":7.18258267326733},{"id":27265,"department_code":"68","insee_code":"68078","zip_code":"68420","name":"Eguisheim","slug":"eguisheim","gps_lat":48.03647013215861,"gps_lng":7.29669242290749},{"id":27266,"department_code":"68","insee_code":"68079","zip_code":"68210","name":"Elbach","slug":"elbach","gps_lat":47.64223866666668,"gps_lng":7.07112983333333},{"id":27267,"department_code":"68","insee_code":"68080","zip_code":"68130","name":"Emlingen","slug":"emlingen","gps_lat":47.6263937254902,"gps_lng":7.29167960784314},{"id":27269,"department_code":"68","insee_code":"68082","zip_code":"68190","name":"Ensisheim","slug":"ensisheim","gps_lat":47.8544931782946,"gps_lng":7.36250550387597},{"id":27270,"department_code":"68","insee_code":"68083","zip_code":"68140","name":"Eschbach-au-Val","slug":"eschbach au val","gps_lat":48.02423791044777,"gps_lng":7.14670507462687},{"id":27271,"department_code":"68","insee_code":"68084","zip_code":"68440","name":"Eschentzwiller","slug":"eschentzwiller","gps_lat":47.71173999999999,"gps_lng":7.39283131578947},{"id":27272,"department_code":"68","insee_code":"68085","zip_code":"68210","name":"Eteimbes","slug":"eteimbes","gps_lat":47.70342377049181,"gps_lng":7.04404639344262},{"id":27637,"department_code":"69","insee_code":"69080","zip_code":"69700","name":"Échalas","slug":"echalas","gps_lat":45.55152799999999,"gps_lng":4.73091735294118},{"id":27638,"department_code":"69","insee_code":"69081","zip_code":"69130","name":"Écully","slug":"ecully","gps_lat":45.77810982905983,"gps_lng":4.77245914529914},{"id":27639,"department_code":"69","insee_code":"69082","zip_code":"69840","name":"Émeringes","slug":"emeringes","gps_lat":46.22438774193547,"gps_lng":4.6761506451612895},{"id":27640,"department_code":"69","insee_code":"69083","zip_code":"69210","name":"Éveux","slug":"eveux","gps_lat":45.82551833333333,"gps_lng":4.6216829166666695},{"id":28042,"department_code":"70","insee_code":"70205","zip_code":"70400","name":"Échavanne","slug":"echavanne","gps_lat":47.65642158878507,"gps_lng":6.72820074766355},{"id":28043,"department_code":"70","insee_code":"70206","zip_code":"70400","name":"Échenans-sous-Mont-Vaudois","slug":"echenans sous mont vaudois","gps_lat":47.60669408333331,"gps_lng":6.76569633333334},{"id":28044,"department_code":"70","insee_code":"70207","zip_code":"70000","name":"Échenoz-la-Méline","slug":"echenoz la meline","gps_lat":47.59361048387098,"gps_lng":6.13917370967742},{"id":28045,"department_code":"70","insee_code":"70208","zip_code":"70000","name":"Échenoz-le-Sec","slug":"echenoz le sec","gps_lat":47.53114815789476,"gps_lng":6.11749456140351},{"id":28046,"department_code":"70","insee_code":"70210","zip_code":"70270","name":"Écromagny","slug":"ecromagny","gps_lat":47.79411372093021,"gps_lng":6.5709990116279},{"id":28047,"department_code":"70","insee_code":"70211","zip_code":"70600","name":"Écuelle","slug":"ecuelle","gps_lat":47.55352827586207,"gps_lng":5.55308431034483},{"id":28048,"department_code":"70","insee_code":"70213","zip_code":"70300","name":"Éhuns","slug":"ehuns","gps_lat":47.76617471074382,"gps_lng":6.29901644628099},{"id":28049,"department_code":"70","insee_code":"70214","zip_code":"70160","name":"Équevilley","slug":"equevilley","gps_lat":47.78155482142857,"gps_lng":6.1808025},{"id":28050,"department_code":"70","insee_code":"70215","zip_code":"70400","name":"Errevet","slug":"errevet","gps_lat":47.68844279411767,"gps_lng":6.7681863235294095},{"id":28051,"department_code":"70","insee_code":"70216","zip_code":"70300","name":"Esboz-Brest","slug":"esboz brest","gps_lat":47.80256619834708,"gps_lng":6.44089636363636},{"id":28052,"department_code":"70","insee_code":"70217","zip_code":"70310","name":"Esmoulières","slug":"esmoulieres","gps_lat":47.85323840840841,"gps_lng":6.61618069069069},{"id":28053,"department_code":"70","insee_code":"70218","zip_code":"70100","name":"Esmoulins","slug":"esmoulins","gps_lat":47.4091332142857,"gps_lng":5.56308535714286},{"id":28054,"department_code":"70","insee_code":"70219","zip_code":"70110","name":"Esprels","slug":"esprels","gps_lat":47.5377865289256,"gps_lng":6.37033},{"id":28055,"department_code":"70","insee_code":"70220","zip_code":"70100","name":"Essertenne-et-Cecey","slug":"essertenne et cecey","gps_lat":47.39969118343195,"gps_lng":5.47207349112426},{"id":28056,"department_code":"70","insee_code":"70221","zip_code":"70400","name":"Étobon","slug":"etobon","gps_lat":47.64070198529413,"gps_lng":6.67816941176471},{"id":28057,"department_code":"70","insee_code":"70222","zip_code":"70700","name":"Étrelles-et-la-Montbleuse","slug":"etrelles et la montbleuse","gps_lat":47.47531955056181,"gps_lng":5.85716247191011},{"id":28058,"department_code":"70","insee_code":"70224","zip_code":"70150","name":"Étuz","slug":"etuz","gps_lat":47.35743849315069,"gps_lng":5.93624753424657},{"id":28571,"department_code":"71","insee_code":"71186","zip_code":"71350","name":"Écuelles","slug":"ecuelles","gps_lat":46.95196035087721,"gps_lng":5.07356929824561},{"id":28572,"department_code":"71","insee_code":"71187","zip_code":"71210","name":"Écuisses","slug":"ecuisses","gps_lat":46.7528718134715,"gps_lng":4.52766906735751},{"id":28573,"department_code":"71","insee_code":"71188","zip_code":"71360","name":"Épertully","slug":"epertully","gps_lat":46.94535222222222,"gps_lng":4.60307351851852},{"id":28574,"department_code":"71","insee_code":"71189","zip_code":"71380","name":"Épervans","slug":"epervans","gps_lat":46.74829322580646,"gps_lng":4.90287870967742},{"id":28575,"department_code":"71","insee_code":"71190","zip_code":"71360","name":"Épinac","slug":"epinac","gps_lat":46.9879999295775,"gps_lng":4.51384588028169},{"id":28576,"department_code":"71","insee_code":"71191","zip_code":"71510","name":"Essertenne","slug":"essertenne","gps_lat":46.81012989743586,"gps_lng":4.54268333333334},{"id":28577,"department_code":"71","insee_code":"71192","zip_code":"71190","name":"Étang-sur-Arroux","slug":"etang sur arroux","gps_lat":46.86549162241886,"gps_lng":4.18908861356933},{"id":28578,"department_code":"71","insee_code":"71193","zip_code":"71240","name":"Étrigny","slug":"etrigny","gps_lat":46.5853614893617,"gps_lng":4.7855235106383},{"id":29073,"department_code":"72","insee_code":"72124","zip_code":"72220","name":"Écommoy","slug":"ecommoy","gps_lat":47.82124169082128,"gps_lng":0.28243077294686},{"id":29074,"department_code":"72","insee_code":"72125","zip_code":"72120","name":"Écorpain","slug":"ecorpain","gps_lat":47.93256773333332,"gps_lng":0.64056573333333},{"id":29075,"department_code":"72","insee_code":"72126","zip_code":"72540","name":"Épineu-le-Chevreuil","slug":"epineu le chevreuil","gps_lat":48.04284978947371,"gps_lng":-0.13274652631578998},{"id":29076,"department_code":"72","insee_code":"72127","zip_code":"72700","name":"Étival-lès-le-Mans","slug":"etival les le mans","gps_lat":47.96353134831456,"gps_lng":0.07488539325843},{"id":29077,"department_code":"72","insee_code":"72128","zip_code":"72120","name":"Évaillé","slug":"evaille","gps_lat":47.90232429508198,"gps_lng":0.62517104918033},{"id":29330,"department_code":"73","insee_code":"73010","zip_code":"73410","name":"Entrelacs","slug":"entrelacs","gps_lat":45.78661865566038,"gps_lng":5.92717497641509},{"id":29416,"department_code":"73","insee_code":"73106","zip_code":"73630","name":"École","slug":"ecole","gps_lat":45.63306498054473,"gps_lng":6.18150482490272},{"id":29417,"department_code":"73","insee_code":"73107","zip_code":"73670","name":"Entremont-le-Vieux","slug":"entremont le vieux","gps_lat":45.45888306976744,"gps_lng":5.8799826511627895},{"id":29418,"department_code":"73","insee_code":"73109","zip_code":"73220","name":"Épierre","slug":"epierre","gps_lat":45.44877013888888,"gps_lng":6.32430138888889},{"id":29419,"department_code":"73","insee_code":"73110","zip_code":"73540","name":"Esserts-Blay","slug":"esserts blay","gps_lat":45.62372228571427,"gps_lng":6.42476914285714},{"id":29420,"department_code":"73","insee_code":"73111","zip_code":"73110","name":"Étable","slug":"etable","gps_lat":45.46405676470589,"gps_lng":6.14225029411765},{"id":29713,"department_code":"74","insee_code":"74109","zip_code":"01200","name":"Éloise","slug":"eloise","gps_lat":46.08562519607845,"gps_lng":5.84499127450981},{"id":29714,"department_code":"74","insee_code":"74110","zip_code":"74130","name":"Entremont","slug":"entremont","gps_lat":45.94831231292516,"gps_lng":6.37514782312925},{"id":29715,"department_code":"74","insee_code":"74111","zip_code":"74410","name":"Entrevernes","slug":"entrevernes","gps_lat":45.7798390909091,"gps_lng":6.18443436363636},{"id":29716,"department_code":"74","insee_code":"74112","zip_code":"74330","name":"Epagny Metz-Tessy","slug":"epagny metz tessy","gps_lat":45.93813,"gps_lng":6.090965},{"id":29717,"department_code":"74","insee_code":"74112","zip_code":"74370","name":"Epagny Metz-Tessy","slug":"epagny metz tessy","gps_lat":45.9388861,"gps_lng":6.1036278},{"id":29718,"department_code":"74","insee_code":"74114","zip_code":"74110","name":"Essert-Romand","slug":"essert romand","gps_lat":46.20521773195876,"gps_lng":6.6597100000000005},{"id":29719,"department_code":"74","insee_code":"74116","zip_code":"74800","name":"Etaux","slug":"etaux","gps_lat":46.06006883116883,"gps_lng":6.2705864935065},{"id":29720,"department_code":"74","insee_code":"74117","zip_code":"74150","name":"Étercy","slug":"etercy","gps_lat":45.89264507042253,"gps_lng":6.00648394366197},{"id":29721,"department_code":"74","insee_code":"74118","zip_code":"74100","name":"Étrembières","slug":"etrembieres","gps_lat":46.17045123456789,"gps_lng":6.21125333333334},{"id":29722,"department_code":"74","insee_code":"74119","zip_code":"74500","name":"Évian-les-Bains","slug":"evian les bains","gps_lat":46.39506383999999,"gps_lng":6.58904944},{"id":29723,"department_code":"74","insee_code":"74121","zip_code":"74140","name":"Excenevex","slug":"excenevex","gps_lat":46.34316650537637,"gps_lng":6.3422648924731195},{"id":30126,"department_code":"76","insee_code":"76223","zip_code":"76190","name":"Écalles-Alix","slug":"ecalles alix","gps_lat":49.61408542056075,"gps_lng":0.81220392523364},{"id":30127,"department_code":"76","insee_code":"76224","zip_code":"76110","name":"Écrainville","slug":"ecrainville","gps_lat":49.649565,"gps_lng":0.31463462264151},{"id":30128,"department_code":"76","insee_code":"76225","zip_code":"76190","name":"Écretteville-lès-Baons","slug":"ecretteville les baons","gps_lat":49.63063964705881,"gps_lng":0.67148282352941},{"id":30129,"department_code":"76","insee_code":"76226","zip_code":"76540","name":"Écretteville-sur-Mer","slug":"ecretteville sur mer","gps_lat":49.79167657894736,"gps_lng":0.48619921052632},{"id":30130,"department_code":"76","insee_code":"76227","zip_code":"76760","name":"Ectot-l'Auber","slug":"ectot l auber","gps_lat":49.65546326086955,"gps_lng":0.92941739130435},{"id":30131,"department_code":"76","insee_code":"76228","zip_code":"76970","name":"Ectot-lès-Baons","slug":"ectot les baons","gps_lat":49.64158072727275,"gps_lng":0.81112054545455},{"id":30132,"department_code":"76","insee_code":"76229","zip_code":"76220","name":"Elbeuf-en-Bray","slug":"elbeuf en bray","gps_lat":49.4928844871795,"gps_lng":1.6535616666666701},{"id":30133,"department_code":"76","insee_code":"76230","zip_code":"76780","name":"Elbeuf-sur-Andelle","slug":"elbeuf sur andelle","gps_lat":49.47623419642859,"gps_lng":1.388124375},{"id":30134,"department_code":"76","insee_code":"76231","zip_code":"76500","name":"Elbeuf","slug":"elbeuf","gps_lat":49.27324309352519,"gps_lng":0.99266438848921},{"id":30135,"department_code":"76","insee_code":"76232","zip_code":"76540","name":"Életot","slug":"eletot","gps_lat":49.78922051948049,"gps_lng":0.45577675324675},{"id":30136,"department_code":"76","insee_code":"76233","zip_code":"76390","name":"Ellecourt","slug":"ellecourt","gps_lat":49.80073508196723,"gps_lng":1.73415204918033},{"id":30137,"department_code":"76","insee_code":"76234","zip_code":"76570","name":"Émanville","slug":"emanville","gps_lat":49.62279452173914,"gps_lng":0.96089739130435},{"id":30138,"department_code":"76","insee_code":"76235","zip_code":"76630","name":"Envermeu","slug":"envermeu","gps_lat":49.89818179775283,"gps_lng":1.25974668539326},{"id":30139,"department_code":"76","insee_code":"76236","zip_code":"76640","name":"Envronville","slug":"envronville","gps_lat":49.65947438596493,"gps_lng":0.67339649122807},{"id":30140,"department_code":"76","insee_code":"76237","zip_code":"76480","name":"Épinay-sur-Duclair","slug":"epinay sur duclair","gps_lat":49.52894305084747,"gps_lng":0.83133559322034},{"id":30141,"department_code":"76","insee_code":"76238","zip_code":"76133","name":"Épouville","slug":"epouville","gps_lat":49.56268676056337,"gps_lng":0.22926},{"id":30142,"department_code":"76","insee_code":"76239","zip_code":"76430","name":"Épretot","slug":"epretot","gps_lat":49.53949615384616,"gps_lng":0.31430525641026},{"id":30143,"department_code":"76","insee_code":"76240","zip_code":"76400","name":"Épreville","slug":"epreville","gps_lat":49.70277657534247,"gps_lng":0.36614123287671},{"id":30144,"department_code":"76","insee_code":"76241","zip_code":"76740","name":"Ermenouville","slug":"ermenouville","gps_lat":49.80281823529413,"gps_lng":0.78054911764706},{"id":30145,"department_code":"76","insee_code":"76242","zip_code":"76220","name":"Ernemont-la-Villette","slug":"ernemont la villette","gps_lat":49.45292333333332,"gps_lng":1.71540018018018},{"id":30146,"department_code":"76","insee_code":"76243","zip_code":"76750","name":"Ernemont-sur-Buchy","slug":"ernemont sur buchy","gps_lat":49.54082549019607,"gps_lng":1.36237509803922},{"id":30147,"department_code":"76","insee_code":"76244","zip_code":"76270","name":"Esclavelles","slug":"esclavelles","gps_lat":49.70730456521739,"gps_lng":1.39236884057971},{"id":30148,"department_code":"76","insee_code":"76245","zip_code":"76710","name":"Eslettes","slug":"eslettes","gps_lat":49.54640171052633,"gps_lng":1.04627776315789},{"id":30149,"department_code":"76","insee_code":"76247","zip_code":"76690","name":"Esteville","slug":"esteville","gps_lat":49.60819409090909,"gps_lng":1.21528363636364},{"id":30150,"department_code":"76","insee_code":"76249","zip_code":"76850","name":"Étaimpuis","slug":"etaimpuis","gps_lat":49.64048530120484,"gps_lng":1.14481096385542},{"id":30151,"department_code":"76","insee_code":"76250","zip_code":"76430","name":"Étainhus","slug":"etainhus","gps_lat":49.5668934883721,"gps_lng":0.30710093023256},{"id":30152,"department_code":"76","insee_code":"76251","zip_code":"76560","name":"Étalleville","slug":"etalleville","gps_lat":49.7311179710145,"gps_lng":0.8254731884058},{"id":30153,"department_code":"76","insee_code":"76252","zip_code":"76260","name":"Étalondes","slug":"etalondes","gps_lat":50.0329106521739,"gps_lng":1.3893613043478301},{"id":30154,"department_code":"76","insee_code":"76253","zip_code":"76190","name":"Étoutteville","slug":"etoutteville","gps_lat":49.67183712871287,"gps_lng":0.7799203960396},{"id":30155,"department_code":"76","insee_code":"76254","zip_code":"76790","name":"Étretat","slug":"etretat","gps_lat":49.70569345679011,"gps_lng":0.20159234567901},{"id":30156,"department_code":"76","insee_code":"76255","zip_code":"76260","name":"Eu","slug":"eu","gps_lat":50.04136924882631,"gps_lng":1.43092676056338},{"id":30796,"department_code":"77","insee_code":"77164","zip_code":"77830","name":"Échouboulains","slug":"echouboulains","gps_lat":48.46791300813006,"gps_lng":2.93019211382114},{"id":30798,"department_code":"77","insee_code":"77167","zip_code":"77126","name":"Égligny","slug":"egligny","gps_lat":48.43687673076925,"gps_lng":3.12897557692308},{"id":30799,"department_code":"77","insee_code":"77168","zip_code":"77620","name":"Égreville","slug":"egreville","gps_lat":48.18774314814817,"gps_lng":2.8833787962963},{"id":30800,"department_code":"77","insee_code":"77169","zip_code":"77184","name":"Émerainville","slug":"emerainville","gps_lat":48.81940481481482,"gps_lng":2.60728333333333},{"id":30801,"department_code":"77","insee_code":"77171","zip_code":"77450","name":"Esbly","slug":"esbly","gps_lat":48.90163306451613,"gps_lng":2.81305661290322},{"id":30802,"department_code":"77","insee_code":"77172","zip_code":"77940","name":"Esmans","slug":"esmans","gps_lat":48.34190316326533,"gps_lng":2.96783408163265},{"id":30803,"department_code":"77","insee_code":"77173","zip_code":"77139","name":"Étrépilly","slug":"etrepilly","gps_lat":49.0469431034483,"gps_lng":2.92895862068966},{"id":30804,"department_code":"77","insee_code":"77174","zip_code":"77157","name":"Everly","slug":"everly","gps_lat":48.4564426744186,"gps_lng":3.26809697674419},{"id":30805,"department_code":"77","insee_code":"77175","zip_code":"77166","name":"Évry-Grégy-sur-Yerre","slug":"evry gregy sur yerre","gps_lat":48.65567279999999,"gps_lng":2.64520897142857},{"id":31222,"department_code":"78","insee_code":"78206","zip_code":"78920","name":"Ecquevilly","slug":"ecquevilly","gps_lat":48.95149329545455,"gps_lng":1.92253670454545},{"id":31223,"department_code":"78","insee_code":"78208","zip_code":"78990","name":"Élancourt","slug":"elancourt","gps_lat":48.777505546875,"gps_lng":1.9579941406249999},{"id":31224,"department_code":"78","insee_code":"78209","zip_code":"78125","name":"Émancé","slug":"emance","gps_lat":48.59604944444446,"gps_lng":1.73450416666667},{"id":31225,"department_code":"78","insee_code":"78217","zip_code":"78680","name":"Épône","slug":"epone","gps_lat":48.95117504000005,"gps_lng":1.81821576},{"id":31228,"department_code":"78","insee_code":"78227","zip_code":"78740","name":"Évecquemont","slug":"evecquemont","gps_lat":49.01697984848486,"gps_lng":1.94268939393939},{"id":31500,"department_code":"79","insee_code":"79109","zip_code":"79410","name":"Échiré","slug":"echire","gps_lat":46.39091724137934,"gps_lng":-0.43642896551724},{"id":31501,"department_code":"79","insee_code":"79111","zip_code":"79170","name":"Ensigné","slug":"ensigne","gps_lat":46.07892033707864,"gps_lng":-0.25401494382022005},{"id":31502,"department_code":"79","insee_code":"79112","zip_code":"79270","name":"Épannes","slug":"epannes","gps_lat":46.22383327272729,"gps_lng":-0.59416145454545},{"id":31503,"department_code":"79","insee_code":"79114","zip_code":"79400","name":"Exireuil","slug":"exireuil","gps_lat":46.454615,"gps_lng":-0.17687623809524},{"id":31504,"department_code":"79","insee_code":"79115","zip_code":"79800","name":"Exoudun","slug":"exoudun","gps_lat":46.33712217948717,"gps_lng":-0.06736301282051005},{"id":31957,"department_code":"80","insee_code":"80262","zip_code":"80580","name":"Eaucourt-sur-Somme","slug":"eaucourt sur somme","gps_lat":50.06752185714286,"gps_lng":1.88636428571429},{"id":31959,"department_code":"80","insee_code":"80264","zip_code":"80340","name":"Éclusier-Vaux","slug":"eclusier vaux","gps_lat":49.95141481012658,"gps_lng":2.79150050632911},{"id":31960,"department_code":"80","insee_code":"80265","zip_code":"80570","name":"Embreville","slug":"embreville","gps_lat":50.02952327868852,"gps_lng":1.5470106557377},{"id":31961,"department_code":"80","insee_code":"80266","zip_code":"80300","name":"Englebelmer","slug":"englebelmer","gps_lat":50.05504613207549,"gps_lng":2.6077641509434},{"id":31962,"department_code":"80","insee_code":"80267","zip_code":"80200","name":"Ennemain","slug":"ennemain","gps_lat":49.8437883018868,"gps_lng":2.95818726415094},{"id":31963,"department_code":"80","insee_code":"80268","zip_code":"80580","name":"Épagne-Épagnette","slug":"epagne epagnette","gps_lat":50.07656929577467,"gps_lng":1.8654885915493},{"id":31964,"department_code":"80","insee_code":"80269","zip_code":"80140","name":"Épaumesnil","slug":"epaumesnil","gps_lat":49.91405896551725,"gps_lng":1.85437362068965},{"id":31965,"department_code":"80","insee_code":"80270","zip_code":"80370","name":"Épécamps","slug":"epecamps","gps_lat":50.11051553846154,"gps_lng":2.15346738461538},{"id":31966,"department_code":"80","insee_code":"80271","zip_code":"80740","name":"Épehy","slug":"epehy","gps_lat":50.00282456896554,"gps_lng":3.13150413793104},{"id":31967,"department_code":"80","insee_code":"80272","zip_code":"80190","name":"Épénancourt","slug":"epenancourt","gps_lat":49.81932205128206,"gps_lng":2.93093717948718},{"id":31968,"department_code":"80","insee_code":"80273","zip_code":"80290","name":"Éplessier","slug":"eplessier","gps_lat":49.78477310679612,"gps_lng":1.94365883495146},{"id":31969,"department_code":"80","insee_code":"80274","zip_code":"80400","name":"Eppeville","slug":"eppeville","gps_lat":49.73934303571428,"gps_lng":3.05075107142857},{"id":31970,"department_code":"80","insee_code":"80275","zip_code":"80360","name":"Équancourt","slug":"equancourt","gps_lat":50.03554011627906,"gps_lng":3.01492197674419},{"id":31971,"department_code":"80","insee_code":"80276","zip_code":"80290","name":"Équennes-Éramecourt","slug":"equennes eramecourt","gps_lat":49.73040308510637,"gps_lng":1.95940872340425},{"id":31972,"department_code":"80","insee_code":"80278","zip_code":"80500","name":"Erches","slug":"erches","gps_lat":49.72125266666666,"gps_lng":2.668352},{"id":31973,"department_code":"80","insee_code":"80279","zip_code":"80400","name":"Ercheu","slug":"ercheu","gps_lat":49.69825780748663,"gps_lng":2.94814524064171},{"id":31974,"department_code":"80","insee_code":"80280","zip_code":"80210","name":"Ercourt","slug":"ercourt","gps_lat":50.04184358974358,"gps_lng":1.72163871794872},{"id":31975,"department_code":"80","insee_code":"80281","zip_code":"80690","name":"Ergnies","slug":"ergnies","gps_lat":50.08773551724138,"gps_lng":2.03331206896552},{"id":31976,"department_code":"80","insee_code":"80282","zip_code":"80580","name":"Érondelle","slug":"erondelle","gps_lat":50.04532729729731,"gps_lng":1.87835310810811},{"id":31977,"department_code":"80","insee_code":"80283","zip_code":"80250","name":"Esclainvillers","slug":"esclainvillers","gps_lat":49.692435818181806,"gps_lng":2.40313109090909},{"id":31978,"department_code":"80","insee_code":"80284","zip_code":"80400","name":"Esmery-Hallon","slug":"esmery hallon","gps_lat":49.70766826923078,"gps_lng":3.02842730769231},{"id":31979,"department_code":"80","insee_code":"80285","zip_code":"80160","name":"Essertaux","slug":"essertaux","gps_lat":49.74536799999999,"gps_lng":2.25992963636364},{"id":31980,"department_code":"80","insee_code":"80287","zip_code":"80230","name":"Estrébœuf","slug":"estreboeuf","gps_lat":50.15586835051545,"gps_lng":1.62907298969072},{"id":31981,"department_code":"80","insee_code":"80288","zip_code":"80200","name":"Estrées-Deniécourt","slug":"estrees deniecourt","gps_lat":49.87360543478262,"gps_lng":2.82202434782609},{"id":31982,"department_code":"80","insee_code":"80290","zip_code":"80150","name":"Estrées-lès-Crécy","slug":"estrees les crecy","gps_lat":50.26375410526315,"gps_lng":1.9392609473684201},{"id":31983,"department_code":"80","insee_code":"80291","zip_code":"80250","name":"Estrées-sur-Noye","slug":"estrees sur noye","gps_lat":49.78387415384613,"gps_lng":2.341326},{"id":31984,"department_code":"80","insee_code":"80292","zip_code":"80190","name":"Étalon","slug":"etalon","gps_lat":49.76178704918033,"gps_lng":2.84750213114754},{"id":31985,"department_code":"80","insee_code":"80293","zip_code":"80500","name":"Ételfay","slug":"etelfay","gps_lat":49.66283118644066,"gps_lng":2.60784474576271},{"id":31986,"department_code":"80","insee_code":"80294","zip_code":"80200","name":"Éterpigny","slug":"eterpigny","gps_lat":49.88700188679246,"gps_lng":2.91846943396226},{"id":31987,"department_code":"80","insee_code":"80295","zip_code":"80340","name":"Étinehem-Méricourt","slug":"etinehem mericourt","gps_lat":49.92549144508675,"gps_lng":2.68361046242775},{"id":31989,"department_code":"80","insee_code":"80297","zip_code":"80140","name":"Étréjust","slug":"etrejust","gps_lat":49.90964153846154,"gps_lng":1.88623923076923},{"id":31990,"department_code":"80","insee_code":"80298","zip_code":"80360","name":"Étricourt-Manancourt","slug":"etricourt manancourt","gps_lat":50.03211019417474,"gps_lng":2.98333174757281},{"id":32229,"department_code":"80","insee_code":"80557","zip_code":"80200","name":"Estrées-Mons","slug":"estrees mons","gps_lat":49.88090568807341,"gps_lng":3.0094695412844},{"id":32567,"department_code":"81","insee_code":"81084","zip_code":"81290","name":"Escoussens","slug":"escoussens","gps_lat":43.4817261352657,"gps_lng":2.22616299516908},{"id":32568,"department_code":"81","insee_code":"81085","zip_code":"81530","name":"Escroux","slug":"escroux","gps_lat":43.75554682170541,"gps_lng":2.64566023255814},{"id":32569,"department_code":"81","insee_code":"81086","zip_code":"81260","name":"Espérausses","slug":"esperausses","gps_lat":43.70268557377047,"gps_lng":2.52465762295082},{"id":32856,"department_code":"82","insee_code":"82052","zip_code":"82700","name":"Escatalens","slug":"escatalens","gps_lat":43.98480886363634,"gps_lng":1.19786136363636},{"id":32857,"department_code":"82","insee_code":"82053","zip_code":"82500","name":"Escazeaux","slug":"escazeaux","gps_lat":43.83870859154928,"gps_lng":1.03305133802817},{"id":32858,"department_code":"82","insee_code":"82054","zip_code":"82400","name":"Espalais","slug":"espalais","gps_lat":44.0772055670103,"gps_lng":0.9166475257732},{"id":32859,"department_code":"82","insee_code":"82055","zip_code":"82500","name":"Esparsac","slug":"esparsac","gps_lat":43.91724938650306,"gps_lng":0.95193441717791},{"id":32860,"department_code":"82","insee_code":"82056","zip_code":"82160","name":"Espinas","slug":"espinas","gps_lat":44.19630215139443,"gps_lng":1.79627908366534},{"id":33049,"department_code":"83","insee_code":"83051","zip_code":"83570","name":"Entrecasteaux","slug":"entrecasteaux","gps_lat":43.50241973821989,"gps_lng":6.23642696335079},{"id":33050,"department_code":"83","insee_code":"83052","zip_code":"83560","name":"Esparron","slug":"esparron","gps_lat":43.59141849056606,"gps_lng":5.8538641509434},{"id":33051,"department_code":"83","insee_code":"83053","zip_code":"83330","name":"Évenos","slug":"evenos","gps_lat":43.17853337016574,"gps_lng":5.86296872928177},{"id":33201,"department_code":"84","insee_code":"84043","zip_code":"84320","name":"Entraigues-sur-la-Sorgue","slug":"entraigues sur la sorgue","gps_lat":43.99589075000002,"gps_lng":4.928843625},{"id":33202,"department_code":"84","insee_code":"84044","zip_code":"84340","name":"Entrechaux","slug":"entrechaux","gps_lat":44.22450010526317,"gps_lng":5.13625157894737},{"id":33381,"department_code":"85","insee_code":"85084","zip_code":"85140","name":"Essarts en Bocage","slug":"essarts en bocage","gps_lat":46.77917062228658,"gps_lng":-1.21570764109986},{"id":33914,"department_code":"87","insee_code":"87062","zip_code":"87400","name":"Eybouleuf","slug":"eybouleuf","gps_lat":45.80139135135136,"gps_lng":1.48251108108108},{"id":33915,"department_code":"87","insee_code":"87063","zip_code":"87220","name":"Eyjeaux","slug":"eyjeaux","gps_lat":45.78002936507941,"gps_lng":1.37577402116402},{"id":33916,"department_code":"87","insee_code":"87064","zip_code":"87120","name":"Eymoutiers","slug":"eymoutiers","gps_lat":45.7157465674603,"gps_lng":1.73110303571429},{"id":34209,"department_code":"88","insee_code":"88158","zip_code":"88510","name":"Éloyes","slug":"eloyes","gps_lat":48.09459691358028,"gps_lng":6.62486567901234},{"id":34210,"department_code":"88","insee_code":"88159","zip_code":"88650","name":"Entre-deux-Eaux","slug":"entre deux eaux","gps_lat":48.23898868932037,"gps_lng":6.9949422815534},{"id":34211,"department_code":"88","insee_code":"88160","zip_code":"88000","name":"Épinal","slug":"epinal","gps_lat":48.1668859929078,"gps_lng":6.4747165602836905},{"id":34212,"department_code":"88","insee_code":"88161","zip_code":"88260","name":"Escles","slug":"escles","gps_lat":48.11938902834006,"gps_lng":6.16533789473684},{"id":34213,"department_code":"88","insee_code":"88162","zip_code":"88260","name":"Esley","slug":"esley","gps_lat":48.1733275,"gps_lng":6.0618225},{"id":34214,"department_code":"88","insee_code":"88163","zip_code":"88130","name":"Essegney","slug":"essegney","gps_lat":48.38006099173553,"gps_lng":6.34453859504132},{"id":34215,"department_code":"88","insee_code":"88164","zip_code":"88500","name":"Estrennes","slug":"estrennes","gps_lat":48.26103263157894,"gps_lng":6.05553565789474},{"id":34216,"department_code":"88","insee_code":"88165","zip_code":"88480","name":"Étival-Clairefontaine","slug":"etival clairefontaine","gps_lat":48.36365435483869,"gps_lng":6.83838247311828},{"id":34217,"department_code":"88","insee_code":"88166","zip_code":"88450","name":"Évaux-et-Ménil","slug":"evaux et menil","gps_lat":48.32141704918033,"gps_lng":6.30054655737705},{"id":34698,"department_code":"89","insee_code":"89150","zip_code":"89240","name":"Égleny","slug":"egleny","gps_lat":47.80832525641025,"gps_lng":3.37197474358974},{"id":34699,"department_code":"89","insee_code":"89151","zip_code":"89500","name":"Égriselles-le-Bocage","slug":"egriselles le bocage","gps_lat":48.11245374999999,"gps_lng":3.18015486842105},{"id":34700,"department_code":"89","insee_code":"89152","zip_code":"89400","name":"Épineau-les-Voves","slug":"epineau les voves","gps_lat":47.94705783783785,"gps_lng":3.46646851351351},{"id":34701,"department_code":"89","insee_code":"89153","zip_code":"89700","name":"Épineuil","slug":"epineuil","gps_lat":47.88262238095238,"gps_lng":3.99354365079365},{"id":34702,"department_code":"89","insee_code":"89154","zip_code":"89240","name":"Escamps","slug":"escamps","gps_lat":47.7241069375,"gps_lng":3.473070125},{"id":34703,"department_code":"89","insee_code":"89155","zip_code":"89290","name":"Escolives-Sainte-Camille","slug":"escolives sainte camille","gps_lat":47.72227266666667,"gps_lng":3.60087971428571},{"id":34704,"department_code":"89","insee_code":"89156","zip_code":"89210","name":"Esnon","slug":"esnon","gps_lat":48.01405975,"gps_lng":3.56613541666666},{"id":34705,"department_code":"89","insee_code":"89158","zip_code":"89480","name":"Étais-la-Sauvin","slug":"etais la sauvin","gps_lat":47.51686654929579,"gps_lng":3.3599376056338},{"id":34706,"department_code":"89","insee_code":"89159","zip_code":"89200","name":"Étaule","slug":"etaule","gps_lat":47.53249754098363,"gps_lng":3.91428737704918},{"id":34707,"department_code":"89","insee_code":"89160","zip_code":"89510","name":"Étigny","slug":"etigny","gps_lat":48.13976814814815,"gps_lng":3.28136222222222},{"id":34708,"department_code":"89","insee_code":"89161","zip_code":"89310","name":"Étivey","slug":"etivey","gps_lat":47.67371809160306,"gps_lng":4.14570458015267},{"id":34709,"department_code":"89","insee_code":"89162","zip_code":"89140","name":"Évry","slug":"evry","gps_lat":48.27184804347826,"gps_lng":3.25992434782609},{"id":35032,"department_code":"90","insee_code":"90036","zip_code":"90150","name":"Eguenigue","slug":"eguenigue","gps_lat":47.681770625,"gps_lng":6.93547875},{"id":35033,"department_code":"90","insee_code":"90037","zip_code":"90300","name":"Éloie","slug":"eloie","gps_lat":47.68708776119402,"gps_lng":6.86973104477612},{"id":35034,"department_code":"90","insee_code":"90039","zip_code":"90850","name":"Essert","slug":"essert","gps_lat":47.63960472222222,"gps_lng":6.80385819444444},{"id":35035,"department_code":"90","insee_code":"90041","zip_code":"90170","name":"Étueffont","slug":"etueffont","gps_lat":47.72136507936506,"gps_lng":6.91110174603175},{"id":35036,"department_code":"90","insee_code":"90042","zip_code":"90350","name":"Évette-Salbert","slug":"evette salbert","gps_lat":47.66576533980582,"gps_lng":6.79917757281554},{"id":35161,"department_code":"91","insee_code":"91204","zip_code":"91540","name":"Écharcon","slug":"echarcon","gps_lat":48.57352554054053,"gps_lng":2.40263797297297},{"id":35162,"department_code":"91","insee_code":"91207","zip_code":"91520","name":"Égly","slug":"egly","gps_lat":48.5793041772152,"gps_lng":2.21937126582278},{"id":35163,"department_code":"91","insee_code":"91215","zip_code":"91860","name":"Épinay-sous-Sénart","slug":"epinay sous senart","gps_lat":48.69172418604653,"gps_lng":2.52057860465116},{"id":35164,"department_code":"91","insee_code":"91216","zip_code":"91360","name":"Épinay-sur-Orge","slug":"epinay sur orge","gps_lat":48.67043637681159,"gps_lng":2.32192463768116},{"id":35165,"department_code":"91","insee_code":"91222","zip_code":"91660","name":"Estouches","slug":"estouches","gps_lat":48.31029216216216,"gps_lng":2.13598081081081},{"id":35166,"department_code":"91","insee_code":"91223","zip_code":"91150","name":"Étampes","slug":"etampes","gps_lat":48.42446752767525,"gps_lng":2.14598468634687},{"id":35167,"department_code":"91","insee_code":"91225","zip_code":"91450","name":"Étiolles","slug":"etiolles","gps_lat":48.6460047887324,"gps_lng":2.48191464788732},{"id":35168,"department_code":"91","insee_code":"91226","zip_code":"91580","name":"Étréchy","slug":"etrechy","gps_lat":48.49450124183005,"gps_lng":2.1838762745098},{"id":35169,"department_code":"91","insee_code":"91228","zip_code":"91000","name":"Évry","slug":"evry","gps_lat":48.62883936507937,"gps_lng":2.43909063492063},{"id":35345,"department_code":"93","insee_code":"93031","zip_code":"93800","name":"Épinay-sur-Seine","slug":"epinay sur seine","gps_lat":48.95281024390244,"gps_lng":2.32321975609756},{"id":35480,"department_code":"95","insee_code":"95203","zip_code":"95600","name":"Eaubonne","slug":"eaubonne","gps_lat":48.99077588235294,"gps_lng":2.27815338235294},{"id":35481,"department_code":"95","insee_code":"95205","zip_code":"95440","name":"Écouen","slug":"ecouen","gps_lat":49.02253925373134,"gps_lng":2.38073104477612},{"id":35482,"department_code":"95","insee_code":"95210","zip_code":"95880","name":"Enghien-les-Bains","slug":"enghien les bains","gps_lat":48.96999702702703,"gps_lng":2.30270351351351},{"id":35483,"department_code":"95","insee_code":"95211","zip_code":"95300","name":"Ennery","slug":"ennery","gps_lat":49.07321057471265,"gps_lng":2.10832597701149},{"id":35484,"department_code":"95","insee_code":"95212","zip_code":"95380","name":"Épiais-lès-Louvres","slug":"epiais les louvres","gps_lat":49.03266831325301,"gps_lng":2.54988},{"id":35485,"department_code":"95","insee_code":"95213","zip_code":"95810","name":"Épiais-Rhus","slug":"epiais rhus","gps_lat":49.12847237037036,"gps_lng":2.0743042962963},{"id":35486,"department_code":"95","insee_code":"95214","zip_code":"95270","name":"Épinay-Champlâtreux","slug":"epinay champlatreux","gps_lat":49.09099160000002,"gps_lng":2.4089874},{"id":35487,"department_code":"95","insee_code":"95218","zip_code":"95610","name":"Éragny","slug":"eragny","gps_lat":49.02149823529412,"gps_lng":2.09999529411765},{"id":35488,"department_code":"95","insee_code":"95219","zip_code":"95120","name":"Ermont","slug":"ermont","gps_lat":48.98723271186442,"gps_lng":2.25881338983051},{"id":35489,"department_code":"95","insee_code":"95229","zip_code":"95460","name":"Ézanville","slug":"ezanville","gps_lat":49.03582729166667,"gps_lng":2.36235520833333},{"id":35705,"department_code":"974","insee_code":"97403","zip_code":"97414","name":"Entre-Deux","slug":"entre deux","gps_lat":-21.20684657360407,"gps_lng":55.49453423857867}]