[{"id":171,"department_code":"01","insee_code":"01188","zip_code":"01140","name":"Illiat","slug":"illiat","gps_lat":46.18623892682925,"gps_lng":4.8932894634146304},{"id":172,"department_code":"01","insee_code":"01189","zip_code":"01200","name":"Injoux-Génissiat","slug":"injoux genissiat","gps_lat":46.04771474489797,"gps_lng":5.76956336734694},{"id":173,"department_code":"01","insee_code":"01190","zip_code":"01680","name":"Innimond","slug":"innimond","gps_lat":45.79163742574258,"gps_lng":5.56995900990099},{"id":174,"department_code":"01","insee_code":"01191","zip_code":"01430","name":"Izenave","slug":"izenave","gps_lat":46.03986554545454,"gps_lng":5.5238256363636395},{"id":175,"department_code":"01","insee_code":"01192","zip_code":"01580","name":"Izernore","slug":"izernore","gps_lat":46.21680670967741,"gps_lng":5.55501154838709},{"id":176,"department_code":"01","insee_code":"01193","zip_code":"01300","name":"Izieu","slug":"izieu","gps_lat":45.65365888888888,"gps_lng":5.63921824074074},{"id":784,"department_code":"02","insee_code":"02386","zip_code":"02510","name":"Iron","slug":"iron","gps_lat":49.95369505617978,"gps_lng":3.66252359550562},{"id":785,"department_code":"02","insee_code":"02387","zip_code":"02240","name":"Itancourt","slug":"itancourt","gps_lat":49.80592874999999,"gps_lng":3.350459375},{"id":786,"department_code":"02","insee_code":"02388","zip_code":"02360","name":"Iviers","slug":"iviers","gps_lat":49.78626397727273,"gps_lng":4.13746568181818},{"id":1347,"department_code":"03","insee_code":"03130","zip_code":"03360","name":"Isle-et-Bardais","slug":"isle et bardais","gps_lat":46.69701254237287,"gps_lng":2.77821762711864},{"id":1348,"department_code":"03","insee_code":"03131","zip_code":"03120","name":"Isserpent","slug":"isserpent","gps_lat":46.15455257731957,"gps_lng":3.61262041237113},{"id":1977,"department_code":"06","insee_code":"06072","zip_code":"06420","name":"Ilonse","slug":"ilonse","gps_lat":44.037031827957,"gps_lng":7.09112096774194},{"id":1978,"department_code":"06","insee_code":"06073","zip_code":"06420","name":"Isola","slug":"isola","gps_lat":44.19141612903226,"gps_lng":7.08362686217009},{"id":2171,"department_code":"07","insee_code":"07103","zip_code":"07310","name":"Intres","slug":"intres","gps_lat":44.9827269,"gps_lng":4.362598},{"id":2172,"department_code":"07","insee_code":"07103","zip_code":"07320","name":"Intres","slug":"intres","gps_lat":44.9827269,"gps_lng":4.362598},{"id":2173,"department_code":"07","insee_code":"07104","zip_code":"07190","name":"Issamoulenc","slug":"issamoulenc","gps_lat":44.78719802139037,"gps_lng":4.45457042780749},{"id":2174,"department_code":"07","insee_code":"07105","zip_code":"07510","name":"Issanlas","slug":"issanlas","gps_lat":44.765754,"gps_lng":4.012147},{"id":2175,"department_code":"07","insee_code":"07105","zip_code":"07660","name":"Issanlas","slug":"issanlas","gps_lat":44.765754,"gps_lng":4.012147},{"id":2176,"department_code":"07","insee_code":"07106","zip_code":"07470","name":"Issarlès","slug":"issarles","gps_lat":44.85232875621895,"gps_lng":4.05359174129353},{"id":2624,"department_code":"08","insee_code":"08232","zip_code":"08200","name":"Illy","slug":"illy","gps_lat":49.75221264550264,"gps_lng":4.97744767195767},{"id":2625,"department_code":"08","insee_code":"08233","zip_code":"08240","name":"Imécourt","slug":"imecourt","gps_lat":49.37085150943398,"gps_lng":4.97204122641509},{"id":2626,"department_code":"08","insee_code":"08234","zip_code":"08300","name":"Inaumont","slug":"inaumont","gps_lat":49.56285710937499,"gps_lng":4.31695140625},{"id":2627,"department_code":"08","insee_code":"08235","zip_code":"08440","name":"Issancourt-et-Rumel","slug":"issancourt et rumel","gps_lat":49.75756244094489,"gps_lng":4.83073102362205},{"id":3007,"department_code":"09","insee_code":"09140","zip_code":"09110","name":"Ignaux","slug":"ignaux","gps_lat":42.74120095238094,"gps_lng":1.8436782539682501},{"id":3008,"department_code":"09","insee_code":"09141","zip_code":"09800","name":"Illartein","slug":"illartein","gps_lat":42.92720714285714,"gps_lng":0.95646333333333},{"id":3009,"department_code":"09","insee_code":"09142","zip_code":"09300","name":"Ilhat","slug":"ilhat","gps_lat":42.95205148936171,"gps_lng":1.78214510638298},{"id":3010,"department_code":"09","insee_code":"09143","zip_code":"09220","name":"Illier-et-Laramade","slug":"illier et laramade","gps_lat":42.78532741935484,"gps_lng":1.5441987096774201},{"id":3365,"department_code":"10","insee_code":"10173","zip_code":"10800","name":"Isle-Aumont","slug":"isle aumont","gps_lat":48.20645731343281,"gps_lng":4.12243029850746},{"id":3366,"department_code":"10","insee_code":"10174","zip_code":"10240","name":"Isle-Aubigny","slug":"isle aubigny","gps_lat":48.52995004999998,"gps_lng":4.2645535500000005},{"id":3801,"department_code":"11","insee_code":"11175","zip_code":"11400","name":"Issel","slug":"issel","gps_lat":43.36365970760234,"gps_lng":2.00300216374269},{"id":4411,"department_code":"13","insee_code":"13047","zip_code":"13118","name":"Istres","slug":"istres","gps_lat":43.5787655,"gps_lng":4.9454803},{"id":4412,"department_code":"13","insee_code":"13047","zip_code":"13800","name":"Istres","slug":"istres","gps_lat":43.5212157,"gps_lng":4.9454803},{"id":4759,"department_code":"14","insee_code":"14341","zip_code":"14123","name":"Ifs","slug":"ifs","gps_lat":49.14239562500001,"gps_lng":-0.33959916666667},{"id":4760,"department_code":"14","insee_code":"14342","zip_code":"14230","name":"Isigny-sur-Mer","slug":"isigny sur mer","gps_lat":49.320257,"gps_lng":-1.102929},{"id":4761,"department_code":"14","insee_code":"14342","zip_code":"14330","name":"Isigny-sur-Mer","slug":"isigny sur mer","gps_lat":49.320257,"gps_lng":-1.102929},{"id":5688,"department_code":"17","insee_code":"17004","zip_code":"17123","name":"Île-d'Aix","slug":"ile d aix","gps_lat":46.01593785046729,"gps_lng":-1.17267710280374},{"id":6265,"department_code":"18","insee_code":"18112","zip_code":"18170","name":"Ids-Saint-Roch","slug":"ids saint roch","gps_lat":46.7124813125,"gps_lng":2.257417375},{"id":6266,"department_code":"18","insee_code":"18113","zip_code":"18350","name":"Ignol","slug":"ignol","gps_lat":46.96105753424656,"gps_lng":2.86204198630137},{"id":6267,"department_code":"18","insee_code":"18114","zip_code":"18160","name":"Ineuil","slug":"ineuil","gps_lat":46.7636718018018,"gps_lng":2.26293657657658},{"id":6268,"department_code":"18","insee_code":"18115","zip_code":"18380","name":"Ivoy-le-Pré","slug":"ivoy le pre","gps_lat":47.35650353591157,"gps_lng":2.50577378453039},{"id":7041,"department_code":"21","insee_code":"21317","zip_code":"21120","name":"Is-sur-Tille","slug":"is sur tille","gps_lat":47.53086836363637,"gps_lng":5.11375386363636},{"id":7042,"department_code":"21","insee_code":"21319","zip_code":"21110","name":"Izeure","slug":"izeure","gps_lat":47.16612071942447,"gps_lng":5.12622971223021},{"id":7043,"department_code":"21","insee_code":"21320","zip_code":"21110","name":"Izier","slug":"izier","gps_lat":47.28577027027028,"gps_lng":5.1900054054054},{"id":7446,"department_code":"22","insee_code":"22016","zip_code":"22870","name":"Île-de-Bréhat","slug":"ile de brehat","gps_lat":48.849523525,"gps_lng":-3.002509975},{"id":7508,"department_code":"22","insee_code":"22083","zip_code":"22230","name":"Illifaut","slug":"illifaut","gps_lat":48.13816934931509,"gps_lng":-2.3451954109589},{"id":7883,"department_code":"23","insee_code":"23097","zip_code":"23130","name":"Issoudun-Létrieix","slug":"issoudun letrieix","gps_lat":46.06528842105265,"gps_lng":2.16345957236842},{"id":8231,"department_code":"24","insee_code":"24211","zip_code":"24400","name":"Issac","slug":"issac","gps_lat":45.01754717948719,"gps_lng":0.44878743589744},{"id":8232,"department_code":"24","insee_code":"24212","zip_code":"24560","name":"Issigeac","slug":"issigeac","gps_lat":44.7264172972973,"gps_lng":0.60406452702703},{"id":8857,"department_code":"25","insee_code":"25314","zip_code":"25470","name":"Indevillers","slug":"indevillers","gps_lat":47.31575787234043,"gps_lng":6.9673421985815605},{"id":8859,"department_code":"25","insee_code":"25316","zip_code":"25550","name":"Issans","slug":"issans","gps_lat":47.52630564102563,"gps_lng":6.73292794871795},{"id":9296,"department_code":"26","insee_code":"26150","zip_code":"26560","name":"Izon-la-Bruisse","slug":"izon la bruisse","gps_lat":44.26360058394161,"gps_lng":5.60207372262774},{"id":9824,"department_code":"27","insee_code":"27348","zip_code":"27460","name":"Igoville","slug":"igoville","gps_lat":49.32838861538461,"gps_lng":1.15423153846154},{"id":9825,"department_code":"27","insee_code":"27349","zip_code":"27290","name":"Illeville-sur-Montfort","slug":"illeville sur montfort","gps_lat":49.31845584158417,"gps_lng":0.71421841584158},{"id":9826,"department_code":"27","insee_code":"27350","zip_code":"27770","name":"Illiers-l'Évêque","slug":"illiers l eveque","gps_lat":48.82435928571429,"gps_lng":1.26614369047619},{"id":9827,"department_code":"27","insee_code":"27351","zip_code":"27400","name":"Incarville","slug":"incarville","gps_lat":49.24682870967742,"gps_lng":1.1598644086021501},{"id":9828,"department_code":"27","insee_code":"27353","zip_code":"27930","name":"Irreville","slug":"irreville","gps_lat":49.09756690909092,"gps_lng":1.20037690909091},{"id":9829,"department_code":"27","insee_code":"27354","zip_code":"27110","name":"Iville","slug":"iville","gps_lat":49.17920082474227,"gps_lng":0.92775865979381},{"id":9830,"department_code":"27","insee_code":"27355","zip_code":"27540","name":"Ivry-la-Bataille","slug":"ivry la bataille","gps_lat":48.88710868852459,"gps_lng":1.45145459016393},{"id":10306,"department_code":"28","insee_code":"28196","zip_code":"28120","name":"Illiers-Combray","slug":"illiers combray","gps_lat":48.30543784905661,"gps_lng":1.2175160754717},{"id":10307,"department_code":"28","insee_code":"28197","zip_code":"28310","name":"Intréville","slug":"intreville","gps_lat":48.30036162790699,"gps_lng":1.93910302325581},{"id":10588,"department_code":"29","insee_code":"29082","zip_code":"29253","name":"Île-de-Batz","slug":"ile de batz","gps_lat":48.74392464646466,"gps_lng":-4.01161545454545},{"id":10589,"department_code":"29","insee_code":"29083","zip_code":"29990","name":"Île-de-Sein","slug":"ile de sein","gps_lat":48.03827818181818,"gps_lng":-4.85428545454545},{"id":10590,"department_code":"29","insee_code":"29084","zip_code":"29259","name":"Île-Molène","slug":"ile molene","gps_lat":48.39831473684209,"gps_lng":-4.95643315789474},{"id":10591,"department_code":"29","insee_code":"29085","zip_code":"29980","name":"Île-Tudy","slug":"ile tudy","gps_lat":47.85053594594594,"gps_lng":-4.16394135135135},{"id":10592,"department_code":"29","insee_code":"29086","zip_code":"29460","name":"Irvillac","slug":"irvillac","gps_lat":48.36572841269844,"gps_lng":-4.19987539682539},{"id":11002,"department_code":"2B","insee_code":"2B135","zip_code":"20243","name":"Isolaccio-di-Fiumorbo","slug":"isolaccio di fiumorbo","gps_lat":42.01168904347827,"gps_lng":9.28105486956522},{"id":11294,"department_code":"30","insee_code":"30134","zip_code":"30760","name":"Issirac","slug":"issirac","gps_lat":44.27809142857141,"gps_lng":4.47368470588235},{"id":11755,"department_code":"31","insee_code":"31240","zip_code":"31450","name":"Issus","slug":"issus","gps_lat":43.42196159420291,"gps_lng":1.4966289855072499},{"id":11756,"department_code":"31","insee_code":"31241","zip_code":"31160","name":"Izaut-de-l'Hôtel","slug":"izaut de l hotel","gps_lat":43.01162999999999,"gps_lng":0.74740638297872},{"id":12264,"department_code":"32","insee_code":"32156","zip_code":"32300","name":"Idrac-Respaillès","slug":"idrac respailles","gps_lat":43.51523663865546,"gps_lng":0.46697823529412},{"id":12269,"department_code":"32","insee_code":"32161","zip_code":"32400","name":"Izotges","slug":"izotges","gps_lat":43.65728536231886,"gps_lng":-0.02148884057971001},{"id":12778,"department_code":"33","insee_code":"33205","zip_code":"33720","name":"Illats","slug":"illats","gps_lat":44.61035256756757,"gps_lng":-0.36746013513514},{"id":12779,"department_code":"33","insee_code":"33206","zip_code":"33640","name":"Isle-Saint-Georges","slug":"isle saint georges","gps_lat":44.72516461538462,"gps_lng":-0.47661092307692},{"id":12780,"department_code":"33","insee_code":"33207","zip_code":"33450","name":"Izon","slug":"izon","gps_lat":44.91651201923078,"gps_lng":-0.36177211538461995},{"id":13589,"department_code":"35","insee_code":"35133","zip_code":"35750","name":"Iffendic","slug":"iffendic","gps_lat":48.12267976102938,"gps_lng":-2.03248481617647},{"id":13591,"department_code":"35","insee_code":"35135","zip_code":"35850","name":"Irodouër","slug":"irodouer","gps_lat":48.24542468085109,"gps_lng":-1.95120808510638},{"id":13897,"department_code":"36","insee_code":"36087","zip_code":"36300","name":"Ingrandes","slug":"ingrandes","gps_lat":46.59459083333331,"gps_lng":0.966752},{"id":13898,"department_code":"36","insee_code":"36088","zip_code":"36100","name":"Issoudun","slug":"issoudun","gps_lat":46.94466616541353,"gps_lng":1.98565142857143},{"id":14501,"department_code":"38","insee_code":"38194","zip_code":"38140","name":"Izeaux","slug":"izeaux","gps_lat":45.33728024691359,"gps_lng":5.42881679012346},{"id":14502,"department_code":"38","insee_code":"38195","zip_code":"38160","name":"Izeron","slug":"izeron","gps_lat":45.14440655405406,"gps_lng":5.39393648648648},{"id":15088,"department_code":"39","insee_code":"39267","zip_code":"39110","name":"Ivory","slug":"ivory","gps_lat":46.90136976000002,"gps_lng":5.85126176},{"id":15089,"department_code":"39","insee_code":"39268","zip_code":"39110","name":"Ivrey","slug":"ivrey","gps_lat":46.99194500000001,"gps_lng":5.89696489361702},{"id":16628,"department_code":"44","insee_code":"44074","zip_code":"44610","name":"Indre","slug":"indre","gps_lat":47.19997833333333,"gps_lng":-1.66940166666667},{"id":16629,"department_code":"44","insee_code":"44075","zip_code":"44520","name":"Issé","slug":"isse","gps_lat":47.62500779569889,"gps_lng":-1.44668731182796},{"id":16931,"department_code":"45","insee_code":"45168","zip_code":"45450","name":"Ingrannes","slug":"ingrannes","gps_lat":47.98660759259259,"gps_lng":2.21795453703704},{"id":16932,"department_code":"45","insee_code":"45169","zip_code":"45140","name":"Ingré","slug":"ingre","gps_lat":47.91808826771655,"gps_lng":1.82359787401575},{"id":16933,"department_code":"45","insee_code":"45170","zip_code":"45300","name":"Intville-la-Guétard","slug":"intville la guetard","gps_lat":48.25466243243243,"gps_lng":2.22045918918919},{"id":16934,"department_code":"45","insee_code":"45171","zip_code":"45620","name":"Isdes","slug":"isdes","gps_lat":47.66396666666666,"gps_lng":2.25455545454545},{"id":17228,"department_code":"46","insee_code":"46132","zip_code":"46500","name":"Issendolus","slug":"issendolus","gps_lat":44.74015535714285,"gps_lng":1.7860390714285699},{"id":17229,"department_code":"46","insee_code":"46133","zip_code":"46320","name":"Issepts","slug":"issepts","gps_lat":44.67671249999999,"gps_lng":1.91361953125},{"id":17804,"department_code":"48","insee_code":"48075","zip_code":"48320","name":"Ispagnac","slug":"ispagnac","gps_lat":44.39697230088496,"gps_lng":3.52942584070797},{"id":17990,"department_code":"49","insee_code":"49160","zip_code":"49123","name":"Ingrandes-Le Fresne sur Loire","slug":"ingrandes le fresne sur loire","gps_lat":47.40986650793653,"gps_lng":-0.93072722222222},{"id":18321,"department_code":"50","insee_code":"50256","zip_code":"50540","name":"Isigny-le-Buat","slug":"isigny le buat","gps_lat":48.62394987951815,"gps_lng":-1.1821411084337399},{"id":18900,"department_code":"51","insee_code":"51298","zip_code":"51700","name":"Igny-Comblizy","slug":"igny comblizy","gps_lat":48.99793336842105,"gps_lng":3.72415263157895},{"id":18901,"department_code":"51","insee_code":"51299","zip_code":"51110","name":"Isles-sur-Suippe","slug":"isles sur suippe","gps_lat":49.35941590909091,"gps_lng":4.20009575757576},{"id":18902,"department_code":"51","insee_code":"51300","zip_code":"51290","name":"Isle-sur-Marne","slug":"isle sur marne","gps_lat":48.64000434210527,"gps_lng":4.6858318421052605},{"id":18903,"department_code":"51","insee_code":"51301","zip_code":"51150","name":"Isse","slug":"isse","gps_lat":49.06756599999999,"gps_lng":4.21131775},{"id":19434,"department_code":"52","insee_code":"52247","zip_code":"52150","name":"Illoud","slug":"illoud","gps_lat":48.21127052083332,"gps_lng":5.5600617708333395},{"id":19435,"department_code":"52","insee_code":"52248","zip_code":"52140","name":"Is-en-Bassigny","slug":"is en bassigny","gps_lat":48.03459626666666,"gps_lng":5.44674386666667},{"id":19436,"department_code":"52","insee_code":"52249","zip_code":"52190","name":"Isômes","slug":"isomes","gps_lat":47.641497349397596,"gps_lng":5.30507337349398},{"id":19778,"department_code":"53","insee_code":"53120","zip_code":"53160","name":"Izé","slug":"ize","gps_lat":48.23092068728523,"gps_lng":-0.29738855670103004},{"id":20193,"department_code":"54","insee_code":"54271","zip_code":"54450","name":"Igney","slug":"igney","gps_lat":48.63321261904763,"gps_lng":6.81883988095238},{"id":20726,"department_code":"55","insee_code":"55250","zip_code":"55700","name":"Inor","slug":"inor","gps_lat":49.55325714285714,"gps_lng":5.16166414285714},{"id":20727,"department_code":"55","insee_code":"55251","zip_code":"55220","name":"Ippécourt","slug":"ippecourt","gps_lat":49.03932675213679,"gps_lng":5.21384042735043},{"id":20728,"department_code":"55","insee_code":"55252","zip_code":"55600","name":"Iré-le-Sec","slug":"ire le sec","gps_lat":49.47288702380953,"gps_lng":5.39485678571428},{"id":21100,"department_code":"56","insee_code":"56086","zip_code":"56170","name":"Île-d'Houat","slug":"ile d houat","gps_lat":47.39006336162986,"gps_lng":-2.97614375212224},{"id":21101,"department_code":"56","insee_code":"56087","zip_code":"56780","name":"Île-aux-Moines","slug":"ile aux moines","gps_lat":47.58663347619049,"gps_lng":-2.84731033333333},{"id":21102,"department_code":"56","insee_code":"56088","zip_code":"56840","name":"Île-d'Arz","slug":"ile d arz","gps_lat":47.58846425101213,"gps_lng":-2.79578279352227},{"id":21103,"department_code":"56","insee_code":"56089","zip_code":"56240","name":"Inguiniel","slug":"inguiniel","gps_lat":47.95604868596887,"gps_lng":-3.2642734075723903},{"id":21104,"department_code":"56","insee_code":"56090","zip_code":"56650","name":"Inzinzac-Lochrist","slug":"inzinzac lochrist","gps_lat":47.86110255208333,"gps_lng":-3.26221973958333},{"id":21597,"department_code":"57","insee_code":"57342","zip_code":"57830","name":"Ibigny","slug":"ibigny","gps_lat":48.64719822429907,"gps_lng":6.8961570093457905},{"id":21598,"department_code":"57","insee_code":"57343","zip_code":"57970","name":"Illange","slug":"illange","gps_lat":49.32969598039216,"gps_lng":6.18568352941176},{"id":21599,"department_code":"57","insee_code":"57344","zip_code":"57400","name":"Imling","slug":"imling","gps_lat":48.71198016666668,"gps_lng":7.01368266666667},{"id":21600,"department_code":"57","insee_code":"57345","zip_code":"57970","name":"Inglange","slug":"inglange","gps_lat":49.34752055118113,"gps_lng":6.30178984251969},{"id":21601,"department_code":"57","insee_code":"57346","zip_code":"57670","name":"Insming","slug":"insming","gps_lat":48.9539495959596,"gps_lng":6.88598141414141},{"id":21602,"department_code":"57","insee_code":"57347","zip_code":"57670","name":"Insviller","slug":"insviller","gps_lat":48.89009122807018,"gps_lng":6.90772175438597},{"id":21603,"department_code":"57","insee_code":"57348","zip_code":"57990","name":"Ippling","slug":"ippling","gps_lat":49.10337826086958,"gps_lng":7.00275652173913},{"id":22132,"department_code":"58","insee_code":"58134","zip_code":"58160","name":"Imphy","slug":"imphy","gps_lat":46.9384315942029,"gps_lng":3.2884039855072498},{"id":22133,"department_code":"58","insee_code":"58135","zip_code":"58290","name":"Isenay","slug":"isenay","gps_lat":46.91051554112552,"gps_lng":3.71130597402597},{"id":22628,"department_code":"59","insee_code":"59320","zip_code":"59480","name":"Illies","slug":"illies","gps_lat":50.56048636363637,"gps_lng":2.8293},{"id":22629,"department_code":"59","insee_code":"59321","zip_code":"59540","name":"Inchy","slug":"inchy","gps_lat":50.12216014925373,"gps_lng":3.47124656716418},{"id":22630,"department_code":"59","insee_code":"59322","zip_code":"59141","name":"Iwuy","slug":"iwuy","gps_lat":50.23437721649486,"gps_lng":3.33240164948454},{"id":23287,"department_code":"60","insee_code":"60320","zip_code":"60141","name":"Ivors","slug":"ivors","gps_lat":49.19407595959599,"gps_lng":3.01206878787879},{"id":23288,"department_code":"60","insee_code":"60321","zip_code":"60173","name":"Ivry-le-Temple","slug":"ivry le temple","gps_lat":49.23025872611465,"gps_lng":2.02321140127389},{"id":23821,"department_code":"61","insee_code":"61207","zip_code":"61130","name":"Igé","slug":"ige","gps_lat":48.31362610655739,"gps_lng":0.51046221311475},{"id":23822,"department_code":"61","insee_code":"61208","zip_code":"61190","name":"Irai","slug":"irai","gps_lat":48.66728643274853,"gps_lng":0.6894632748538},{"id":24520,"department_code":"62","insee_code":"62469","zip_code":"62860","name":"Inchy-en-Artois","slug":"inchy en artois","gps_lat":50.17491235955053,"gps_lng":3.04219370786517},{"id":24521,"department_code":"62","insee_code":"62470","zip_code":"62770","name":"Incourt","slug":"incourt","gps_lat":50.38757216216216,"gps_lng":2.14984216216216},{"id":24523,"department_code":"62","insee_code":"62472","zip_code":"62170","name":"Inxent","slug":"inxent","gps_lat":50.53484452631579,"gps_lng":1.78638884210526},{"id":24524,"department_code":"62","insee_code":"62473","zip_code":"62330","name":"Isbergues","slug":"isbergues","gps_lat":50.62038669014085,"gps_lng":2.4593028873239398},{"id":24525,"department_code":"62","insee_code":"62474","zip_code":"62360","name":"Isques","slug":"isques","gps_lat":50.67957984126983,"gps_lng":1.64988523809524},{"id":24526,"department_code":"62","insee_code":"62475","zip_code":"62810","name":"Ivergny","slug":"ivergny","gps_lat":50.23752999999999,"gps_lng":2.37900848101266},{"id":24527,"department_code":"62","insee_code":"62476","zip_code":"62490","name":"Izel-lès-Équerchin","slug":"izel les equerchin","gps_lat":50.36367829787234,"gps_lng":2.94394872340426},{"id":24528,"department_code":"62","insee_code":"62477","zip_code":"62690","name":"Izel-lès-Hameau","slug":"izel les hameau","gps_lat":50.31448899999999,"gps_lng":2.53170275},{"id":25131,"department_code":"63","insee_code":"63177","zip_code":"63270","name":"Isserteaux","slug":"isserteaux","gps_lat":45.64836625766871,"gps_lng":3.38339141104295},{"id":25132,"department_code":"63","insee_code":"63178","zip_code":"63500","name":"Issoire","slug":"issoire","gps_lat":45.54226104166665,"gps_lng":3.23753472222222},{"id":25682,"department_code":"64","insee_code":"64267","zip_code":"64120","name":"Ibarrolle","slug":"ibarrolle","gps_lat":43.195691,"gps_lng":-1.095196},{"id":25683,"department_code":"64","insee_code":"64268","zip_code":"64130","name":"Idaux-Mendy","slug":"idaux mendy","gps_lat":43.1730753642384,"gps_lng":-0.92381794701987},{"id":25684,"department_code":"64","insee_code":"64269","zip_code":"64320","name":"Idron","slug":"idron","gps_lat":43.2942935,"gps_lng":-0.3066692},{"id":25685,"department_code":"64","insee_code":"64270","zip_code":"64800","name":"Igon","slug":"igon","gps_lat":43.15025067415731,"gps_lng":-0.23209764044944003},{"id":25686,"department_code":"64","insee_code":"64271","zip_code":"64640","name":"Iholdy","slug":"iholdy","gps_lat":43.27867184971096,"gps_lng":-1.17759566473988},{"id":25687,"department_code":"64","insee_code":"64272","zip_code":"64120","name":"Ilharre","slug":"ilharre","gps_lat":43.40163114864866,"gps_lng":-1.02682047297297},{"id":25688,"department_code":"64","insee_code":"64273","zip_code":"64780","name":"Irissarry","slug":"irissarry","gps_lat":43.26447232876711,"gps_lng":-1.24083936073059},{"id":25689,"department_code":"64","insee_code":"64274","zip_code":"64220","name":"Irouléguy","slug":"irouleguy","gps_lat":43.17984931707314,"gps_lng":-1.2854615609756102},{"id":25690,"department_code":"64","insee_code":"64275","zip_code":"64220","name":"Ispoure","slug":"ispoure","gps_lat":43.18607291338583,"gps_lng":-1.23720937007874},{"id":25691,"department_code":"64","insee_code":"64276","zip_code":"64570","name":"Issor","slug":"issor","gps_lat":43.08461782608694,"gps_lng":-0.66283869565217},{"id":25692,"department_code":"64","insee_code":"64277","zip_code":"64240","name":"Isturits","slug":"isturits","gps_lat":43.36760938775511,"gps_lng":-1.21271765306122},{"id":25693,"department_code":"64","insee_code":"64279","zip_code":"64250","name":"Itxassou","slug":"itxassou","gps_lat":43.31810875706216,"gps_lng":-1.40750903954802},{"id":25694,"department_code":"64","insee_code":"64280","zip_code":"64260","name":"Izeste","slug":"izeste","gps_lat":43.08637033333332,"gps_lng":-0.43954333333332996},{"id":26192,"department_code":"65","insee_code":"65226","zip_code":"65420","name":"Ibos","slug":"ibos","gps_lat":43.24150987421383,"gps_lng":-0.007094716981129956},{"id":26193,"department_code":"65","insee_code":"65228","zip_code":"65410","name":"Ilhet","slug":"ilhet","gps_lat":42.96440234899331,"gps_lng":0.40098503355705},{"id":26194,"department_code":"65","insee_code":"65229","zip_code":"65370","name":"Ilheu","slug":"ilheu","gps_lat":42.99873102564101,"gps_lng":0.59518692307692},{"id":26195,"department_code":"65","insee_code":"65230","zip_code":"65370","name":"Izaourt","slug":"izaourt","gps_lat":43.01747651162791,"gps_lng":0.60276046511628},{"id":26196,"department_code":"65","insee_code":"65231","zip_code":"65250","name":"Izaux","slug":"izaux","gps_lat":43.06100041666667,"gps_lng":0.38194333333333},{"id":26528,"department_code":"66","insee_code":"66088","zip_code":"66130","name":"Ille-sur-Têt","slug":"ille sur tet","gps_lat":42.67148148148149,"gps_lng":2.62764693121693},{"id":26873,"department_code":"67","insee_code":"67217","zip_code":"67640","name":"Ichtratzheim","slug":"ichtratzheim","gps_lat":48.47848619565217,"gps_lng":7.67976163043478},{"id":26874,"department_code":"67","insee_code":"67218","zip_code":"67400","name":"Illkirch-Graffenstaden","slug":"illkirch graffenstaden","gps_lat":48.51961669603524,"gps_lng":7.73038616740088},{"id":26875,"department_code":"67","insee_code":"67220","zip_code":"67270","name":"Ingenheim","slug":"ingenheim","gps_lat":48.73638873786406,"gps_lng":7.5238733980582495},{"id":26876,"department_code":"67","insee_code":"67221","zip_code":"67250","name":"Ingolsheim","slug":"ingolsheim","gps_lat":48.97249799999998,"gps_lng":7.929129125},{"id":26877,"department_code":"67","insee_code":"67222","zip_code":"67340","name":"Ingwiller","slug":"ingwiller","gps_lat":48.8879120805369,"gps_lng":7.4660533557047},{"id":26878,"department_code":"67","insee_code":"67223","zip_code":"67880","name":"Innenheim","slug":"innenheim","gps_lat":48.49638666666668,"gps_lng":7.57153473684211},{"id":26879,"department_code":"67","insee_code":"67225","zip_code":"67330","name":"Issenhausen","slug":"issenhausen","gps_lat":48.80547303571426,"gps_lng":7.53498178571429},{"id":26880,"department_code":"67","insee_code":"67226","zip_code":"67117","name":"Ittenheim","slug":"ittenheim","gps_lat":48.60383822916666,"gps_lng":7.61261270833333},{"id":26881,"department_code":"67","insee_code":"67227","zip_code":"67140","name":"Itterswiller","slug":"itterswiller","gps_lat":48.36485906976744,"gps_lng":7.42604558139535},{"id":27337,"department_code":"68","insee_code":"68152","zip_code":"68720","name":"Illfurth","slug":"illfurth","gps_lat":47.67774338709677,"gps_lng":7.26498806451613},{"id":27338,"department_code":"68","insee_code":"68153","zip_code":"68970","name":"Illhaeusern","slug":"illhaeusern","gps_lat":48.17944929411767,"gps_lng":7.43869364705882},{"id":27339,"department_code":"68","insee_code":"68154","zip_code":"68110","name":"Illzach","slug":"illzach","gps_lat":47.77553738317756,"gps_lng":7.3595108411215},{"id":27340,"department_code":"68","insee_code":"68155","zip_code":"68040","name":"Ingersheim","slug":"ingersheim","gps_lat":48.10188475247526,"gps_lng":7.30585782178218},{"id":27341,"department_code":"68","insee_code":"68156","zip_code":"68500","name":"Issenheim","slug":"issenheim","gps_lat":47.90090427083334,"gps_lng":7.258774375},{"id":27421,"department_code":"68","insee_code":"68240","zip_code":"68960","name":"Illtal","slug":"illtal","gps_lat":47.56077284810127,"gps_lng":7.29622784810126},{"id":27657,"department_code":"69","insee_code":"69100","zip_code":"69540","name":"Irigny","slug":"irigny","gps_lat":45.67633986486489,"gps_lng":4.81041108108108},{"id":28118,"department_code":"70","insee_code":"70289","zip_code":"70700","name":"Igny","slug":"igny","gps_lat":47.47895750000003,"gps_lng":5.7624515740740705},{"id":28619,"department_code":"71","insee_code":"71236","zip_code":"71960","name":"Igé","slug":"ige","gps_lat":46.4065363551402,"gps_lng":4.74019336448598},{"id":28620,"department_code":"71","insee_code":"71237","zip_code":"71540","name":"Igornay","slug":"igornay","gps_lat":47.05950890909091,"gps_lng":4.377776},{"id":28621,"department_code":"71","insee_code":"71238","zip_code":"71340","name":"Iguerande","slug":"iguerande","gps_lat":46.21912515151513,"gps_lng":4.07386636363636},{"id":28622,"department_code":"71","insee_code":"71239","zip_code":"71760","name":"Issy-l'Évêque","slug":"issy l eveque","gps_lat":46.7133436383442,"gps_lng":3.9935816122004297},{"id":30268,"department_code":"76","insee_code":"76372","zip_code":"76390","name":"Illois","slug":"illois","gps_lat":49.74770483146068,"gps_lng":1.64737595505618},{"id":30269,"department_code":"76","insee_code":"76373","zip_code":"76890","name":"Imbleville","slug":"imbleville","gps_lat":49.71654467391306,"gps_lng":0.94437097826087},{"id":30270,"department_code":"76","insee_code":"76374","zip_code":"76117","name":"Incheville","slug":"incheville","gps_lat":50.00804669565218,"gps_lng":1.50366139130435},{"id":30271,"department_code":"76","insee_code":"76375","zip_code":"76460","name":"Ingouville","slug":"ingouville","gps_lat":49.84358887323943,"gps_lng":0.68386492957746},{"id":30272,"department_code":"76","insee_code":"76377","zip_code":"76230","name":"Isneauville","slug":"isneauville","gps_lat":49.50225201923077,"gps_lng":1.14700259615385},{"id":30858,"department_code":"77","insee_code":"77230","zip_code":"77890","name":"Ichy","slug":"ichy","gps_lat":48.20273137931035,"gps_lng":2.54208344827586},{"id":30859,"department_code":"77","insee_code":"77231","zip_code":"77440","name":"Isles-les-Meldeuses","slug":"isles les meldeuses","gps_lat":48.99984230769231,"gps_lng":3.01250615384615},{"id":30860,"department_code":"77","insee_code":"77232","zip_code":"77450","name":"Isles-lès-Villenoy","slug":"isles les villenoy","gps_lat":48.911995,"gps_lng":2.83027454545454},{"id":30861,"department_code":"77","insee_code":"77233","zip_code":"77165","name":"Iverny","slug":"iverny","gps_lat":48.99874358974358,"gps_lng":2.78887948717949},{"id":31266,"department_code":"78","insee_code":"78314","zip_code":"78440","name":"Issou","slug":"issou","gps_lat":48.98897354166666,"gps_lng":1.78805375},{"id":31530,"department_code":"79","insee_code":"79141","zip_code":"79600","name":"Irais","slug":"irais","gps_lat":46.87492112500001,"gps_lng":-0.09728174999999994},{"id":32131,"department_code":"80","insee_code":"80449","zip_code":"80800","name":"Ignaucourt","slug":"ignaucourt","gps_lat":49.81959293478262,"gps_lng":2.57749967391304},{"id":32132,"department_code":"80","insee_code":"80450","zip_code":"80430","name":"Inval-Boiron","slug":"inval boiron","gps_lat":49.88141462962963,"gps_lng":1.74681},{"id":32133,"department_code":"80","insee_code":"80451","zip_code":"80300","name":"Irles","slug":"irles","gps_lat":50.10311439024393,"gps_lng":2.75963756097561},{"id":32589,"department_code":"81","insee_code":"81108","zip_code":"81170","name":"Itzac","slug":"itzac","gps_lat":44.05442202614378,"gps_lng":1.8414662745098},{"id":33683,"department_code":"86","insee_code":"86111","zip_code":"86220","name":"Ingrandes","slug":"ingrandes","gps_lat":46.87046860962566,"gps_lng":0.6039471657754},{"id":33685,"department_code":"86","insee_code":"86113","zip_code":"86240","name":"Iteuil","slug":"iteuil","gps_lat":46.48407768292684,"gps_lng":0.30047542682927},{"id":33927,"department_code":"87","insee_code":"87075","zip_code":"87170","name":"Isle","slug":"isle","gps_lat":45.8025569811321,"gps_lng":1.19196528301887},{"id":34291,"department_code":"88","insee_code":"88247","zip_code":"88150","name":"Igney","slug":"igney","gps_lat":48.27654239436621,"gps_lng":6.38644732394366},{"id":34292,"department_code":"88","insee_code":"88248","zip_code":"88320","name":"Isches","slug":"isches","gps_lat":48.01942423312883,"gps_lng":5.82620147239264},{"id":34744,"department_code":"89","insee_code":"89202","zip_code":"89290","name":"Irancy","slug":"irancy","gps_lat":47.71317116071427,"gps_lng":3.68582},{"id":34745,"department_code":"89","insee_code":"89203","zip_code":"89200","name":"Island","slug":"island","gps_lat":47.46151647959184,"gps_lng":3.85377469387755},{"id":35187,"department_code":"91","insee_code":"91312","zip_code":"91430","name":"Igny","slug":"igny","gps_lat":48.73663467532468,"gps_lng":2.22330012987013},{"id":35188,"department_code":"91","insee_code":"91315","zip_code":"91760","name":"Itteville","slug":"itteville","gps_lat":48.51536784431136,"gps_lng":2.34749311377246},{"id":35313,"department_code":"92","insee_code":"92040","zip_code":"92130","name":"Issy-les-Moulineaux","slug":"issy les moulineaux","gps_lat":48.82211984615387,"gps_lng":2.26478861538462},{"id":35391,"department_code":"94","insee_code":"94041","zip_code":"94200","name":"Ivry-sur-Seine","slug":"ivry sur seine","gps_lat":48.80877620000003,"gps_lng":2.38732},{"id":35681,"department_code":"973","insee_code":"97303","zip_code":"97350","name":"Iracoubo","slug":"iracoubo","gps_lat":5.23317741988051,"gps_lng":-53.31010473112435},{"id":35764,"department_code":"984","insee_code":null,"zip_code":null,"name":"Îles Saint-Paul et Nouvelle-Amsterdam","slug":"iles saint paul et nouvelle amsterdam","gps_lat":-37.8344793,"gps_lng":77.5546161054579},{"id":35768,"department_code":"984","insee_code":null,"zip_code":null,"name":"Îles Éparses de l'océan Indien","slug":"iles eparses de l ocean indien","gps_lat":-21.49095335,"gps_lng":39.6881037012149},{"id":35828,"department_code":"988","insee_code":null,"zip_code":"98832","name":"Île-des-Pins","slug":"ile des pins","gps_lat":-22.60491185,"gps_lng":167.468352128065},{"id":35853,"department_code":"989","insee_code":null,"zip_code":null,"name":"Île de Clipperton","slug":"ile de clipperton","gps_lat":10.30364715,"gps_lng":-109.216321507291}]