[{"id":7510,"department_code":"22","insee_code":"22085","zip_code":"22610","name":"Kerbors","slug":"kerbors","gps_lat":48.82312237037036,"gps_lng":-3.1814362962963},{"id":7511,"department_code":"22","insee_code":"22086","zip_code":"22500","name":"Kerfot","slug":"kerfot","gps_lat":48.73703661654135,"gps_lng":-3.03180278195489},{"id":7512,"department_code":"22","insee_code":"22087","zip_code":"22110","name":"Kergrist-Moëlou","slug":"kergrist moelou","gps_lat":48.30080691954019,"gps_lng":-3.32472901149425},{"id":7513,"department_code":"22","insee_code":"22088","zip_code":"22480","name":"Kerien","slug":"kerien","gps_lat":48.40683943925232,"gps_lng":-3.23813436137072},{"id":7514,"department_code":"22","insee_code":"22090","zip_code":"22450","name":"Kermaria-Sulard","slug":"kermaria sulard","gps_lat":48.77455308641976,"gps_lng":-3.37182104938272},{"id":7515,"department_code":"22","insee_code":"22091","zip_code":"22140","name":"Kermoroc'h","slug":"kermoroc h","gps_lat":48.61386608695651,"gps_lng":-3.20503902173913},{"id":7516,"department_code":"22","insee_code":"22092","zip_code":"22480","name":"Kerpert","slug":"kerpert","gps_lat":48.39552522648085,"gps_lng":-3.13331128919861},{"id":10594,"department_code":"29","insee_code":"29089","zip_code":"29270","name":"Kergloff","slug":"kergloff","gps_lat":48.27898595317728,"gps_lng":-3.64106876254181},{"id":10595,"department_code":"29","insee_code":"29090","zip_code":"29100","name":"Kerlaz","slug":"kerlaz","gps_lat":48.0898279620853,"gps_lng":-4.26682601895734},{"id":10596,"department_code":"29","insee_code":"29091","zip_code":"29890","name":"Kerlouan","slug":"kerlouan","gps_lat":48.64812060728743,"gps_lng":-4.38564578947368},{"id":10597,"department_code":"29","insee_code":"29093","zip_code":"29260","name":"Kernilis","slug":"kernilis","gps_lat":48.57386992424244,"gps_lng":-4.41800522727273},{"id":10598,"department_code":"29","insee_code":"29094","zip_code":"29260","name":"Kernouës","slug":"kernoues","gps_lat":48.59571182389938,"gps_lng":-4.34329088050314},{"id":10599,"department_code":"29","insee_code":"29095","zip_code":"29860","name":"Kersaint-Plabennec","slug":"kersaint plabennec","gps_lat":48.48610615062762,"gps_lng":-4.36362334728033},{"id":20738,"department_code":"55","insee_code":"55263","zip_code":"55300","name":"Kœur-la-Grande","slug":"koeur la grande","gps_lat":48.86506264705881,"gps_lng":5.46709215686275},{"id":20739,"department_code":"55","insee_code":"55264","zip_code":"55300","name":"Kœur-la-Petite","slug":"koeur la petite","gps_lat":48.8534561111111,"gps_lng":5.4764655},{"id":21106,"department_code":"56","insee_code":"56092","zip_code":"56920","name":"Kerfourn","slug":"kerfourn","gps_lat":48.04348110599075,"gps_lng":-2.8443335483871},{"id":21107,"department_code":"56","insee_code":"56093","zip_code":"56300","name":"Kergrist","slug":"kergrist","gps_lat":48.15091656488553,"gps_lng":-2.93527614503817},{"id":21108,"department_code":"56","insee_code":"56094","zip_code":"56700","name":"Kervignac","slug":"kervignac","gps_lat":47.76889832740215,"gps_lng":-3.24699316725979},{"id":21271,"department_code":"56","insee_code":"56264","zip_code":"56540","name":"Kernascléden","slug":"kernascleden","gps_lat":48.01181868421052,"gps_lng":-3.32589094736842},{"id":21610,"department_code":"57","insee_code":"57355","zip_code":"57412","name":"Kalhausen","slug":"kalhausen","gps_lat":49.02303706293709,"gps_lng":7.14424125874126},{"id":21611,"department_code":"57","insee_code":"57356","zip_code":"57330","name":"Kanfen","slug":"kanfen","gps_lat":49.43402458823527,"gps_lng":6.1160245882353},{"id":21612,"department_code":"57","insee_code":"57357","zip_code":"57430","name":"Kappelkinger","slug":"kappelkinger","gps_lat":48.97557398230089,"gps_lng":6.91000327433628},{"id":21613,"department_code":"57","insee_code":"57358","zip_code":"57920","name":"Kédange-sur-Canner","slug":"kedange sur canner","gps_lat":49.31145674418606,"gps_lng":6.34489802325581},{"id":21614,"department_code":"57","insee_code":"57359","zip_code":"57920","name":"Kemplich","slug":"kemplich","gps_lat":49.32232705882354,"gps_lng":6.3969381372549},{"id":21615,"department_code":"57","insee_code":"57360","zip_code":"57460","name":"Kerbach","slug":"kerbach","gps_lat":49.16275759036144,"gps_lng":6.96963674698795},{"id":21616,"department_code":"57","insee_code":"57361","zip_code":"57480","name":"Kerling-lès-Sierck","slug":"kerling les sierck","gps_lat":49.39279478494624,"gps_lng":6.36749672043011},{"id":21617,"department_code":"57","insee_code":"57362","zip_code":"57830","name":"Kerprich-aux-Bois","slug":"kerprich aux bois","gps_lat":48.73290550000002,"gps_lng":6.96157875},{"id":21618,"department_code":"57","insee_code":"57364","zip_code":"57480","name":"Kirsch-lès-Sierck","slug":"kirsch les sierck","gps_lat":49.43761565217391,"gps_lng":6.41873717391305},{"id":21619,"department_code":"57","insee_code":"57365","zip_code":"57480","name":"Kirschnaumen","slug":"kirschnaumen","gps_lat":49.40348630434783,"gps_lng":6.43242101449275},{"id":21620,"department_code":"57","insee_code":"57366","zip_code":"57430","name":"Kirviller","slug":"kirviller","gps_lat":48.95811834710746,"gps_lng":6.9834078512396704},{"id":21621,"department_code":"57","insee_code":"57367","zip_code":"57920","name":"Klang","slug":"klang","gps_lat":49.31731322580645,"gps_lng":6.36793838709677},{"id":21622,"department_code":"57","insee_code":"57368","zip_code":"57240","name":"Knutange","slug":"knutange","gps_lat":49.33909896907215,"gps_lng":6.03125237113402},{"id":21623,"department_code":"57","insee_code":"57370","zip_code":"57970","name":"Kœnigsmacker","slug":"koenigsmacker","gps_lat":49.38932832369942,"gps_lng":6.28685479768786},{"id":21625,"department_code":"57","insee_code":"57372","zip_code":"57970","name":"Kuntzig","slug":"kuntzig","gps_lat":49.34805999999999,"gps_lng":6.23960188118812},{"id":22634,"department_code":"59","insee_code":"59326","zip_code":"59122","name":"Killem","slug":"killem","gps_lat":50.95869905882354,"gps_lng":2.56324470588235},{"id":26884,"department_code":"67","insee_code":"67230","zip_code":"67240","name":"Kaltenhouse","slug":"kaltenhouse","gps_lat":48.79278000000001,"gps_lng":7.8326602739726},{"id":26885,"department_code":"67","insee_code":"67231","zip_code":"67480","name":"Kauffenheim","slug":"kauffenheim","gps_lat":48.85323666666665,"gps_lng":8.03486603174603},{"id":26886,"department_code":"67","insee_code":"67232","zip_code":"67250","name":"Keffenach","slug":"keffenach","gps_lat":48.96544708333334,"gps_lng":7.883985},{"id":26887,"department_code":"67","insee_code":"67233","zip_code":"67230","name":"Kertzfeld","slug":"kertzfeld","gps_lat":48.3898565648855,"gps_lng":7.5530678625954195},{"id":26888,"department_code":"67","insee_code":"67234","zip_code":"67260","name":"Keskastel","slug":"keskastel","gps_lat":48.98265521739133,"gps_lng":7.05273859903382},{"id":26889,"department_code":"67","insee_code":"67235","zip_code":"67930","name":"Kesseldorf","slug":"kesseldorf","gps_lat":48.8818220547945,"gps_lng":8.05551452054794},{"id":26890,"department_code":"67","insee_code":"67236","zip_code":"67270","name":"Kienheim","slug":"kienheim","gps_lat":48.686009375,"gps_lng":7.58664895833334},{"id":26891,"department_code":"67","insee_code":"67237","zip_code":"67840","name":"Kilstett","slug":"kilstett","gps_lat":48.67606483870967,"gps_lng":7.85322919354839},{"id":26892,"department_code":"67","insee_code":"67238","zip_code":"67350","name":"Kindwiller","slug":"kindwiller","gps_lat":48.86212854545455,"gps_lng":7.5967467272727305},{"id":26893,"department_code":"67","insee_code":"67239","zip_code":"67600","name":"Kintzheim","slug":"kintzheim","gps_lat":48.25674069444445,"gps_lng":7.37789319444444},{"id":26894,"department_code":"67","insee_code":"67240","zip_code":"67520","name":"Kirchheim","slug":"kirchheim","gps_lat":48.60495389473684,"gps_lng":7.49233484210526},{"id":26895,"department_code":"67","insee_code":"67241","zip_code":"67320","name":"Kirrberg","slug":"kirrberg","gps_lat":48.83270846846847,"gps_lng":7.07114423423423},{"id":26896,"department_code":"67","insee_code":"67242","zip_code":"67330","name":"Kirrwiller","slug":"kirrwiller","gps_lat":48.81812256097562,"gps_lng":7.52693573170731},{"id":26897,"department_code":"67","insee_code":"67244","zip_code":"67440","name":"Kleingœft","slug":"kleingoeft","gps_lat":48.69285533333335,"gps_lng":7.4398016666666695},{"id":26898,"department_code":"67","insee_code":"67245","zip_code":"67310","name":"Knœrsheim","slug":"knoersheim","gps_lat":48.67889285714286,"gps_lng":7.45570408163265},{"id":26899,"department_code":"67","insee_code":"67246","zip_code":"67230","name":"Kogenheim","slug":"kogenheim","gps_lat":48.3260956730769,"gps_lng":7.53435442307693},{"id":26900,"department_code":"67","insee_code":"67247","zip_code":"67120","name":"Kolbsheim","slug":"kolbsheim","gps_lat":48.55986475409834,"gps_lng":7.58655540983607},{"id":26901,"department_code":"67","insee_code":"67248","zip_code":"67880","name":"Krautergersheim","slug":"krautergersheim","gps_lat":48.47550588235295,"gps_lng":7.56310029411765},{"id":26902,"department_code":"67","insee_code":"67249","zip_code":"67170","name":"Krautwiller","slug":"krautwiller","gps_lat":48.73809421875,"gps_lng":7.67701859375},{"id":26903,"department_code":"67","insee_code":"67250","zip_code":"67170","name":"Kriegsheim","slug":"kriegsheim","gps_lat":48.7559088235294,"gps_lng":7.73741921568627},{"id":26904,"department_code":"67","insee_code":"67252","zip_code":"67240","name":"Kurtzenhouse","slug":"kurtzenhouse","gps_lat":48.73862849999999,"gps_lng":7.8034175},{"id":26905,"department_code":"67","insee_code":"67253","zip_code":"67520","name":"Kuttolsheim","slug":"kuttolsheim","gps_lat":48.64818916666665,"gps_lng":7.51727476190476},{"id":26906,"department_code":"67","insee_code":"67254","zip_code":"67250","name":"Kutzenhausen","slug":"kutzenhausen","gps_lat":48.940766372549,"gps_lng":7.84863323529412},{"id":27345,"department_code":"68","insee_code":"68160","zip_code":"68510","name":"Kappelen","slug":"kappelen","gps_lat":47.61558738095236,"gps_lng":7.44087261904762},{"id":27346,"department_code":"68","insee_code":"68161","zip_code":"68230","name":"Katzenthal","slug":"katzenthal","gps_lat":48.10590106194689,"gps_lng":7.28409858407079},{"id":27347,"department_code":"68","insee_code":"68162","zip_code":"68240","name":"Kaysersberg Vignoble","slug":"kaysersberg vignoble","gps_lat":48.14736207547167,"gps_lng":7.27176518867924},{"id":27348,"department_code":"68","insee_code":"68163","zip_code":"68680","name":"Kembs","slug":"kembs","gps_lat":47.66698715909089,"gps_lng":7.50893215909091},{"id":27349,"department_code":"68","insee_code":"68165","zip_code":"68480","name":"Kiffis","slug":"kiffis","gps_lat":47.43993280898879,"gps_lng":7.35388584269663},{"id":27350,"department_code":"68","insee_code":"68166","zip_code":"68260","name":"Kingersheim","slug":"kingersheim","gps_lat":47.79058999999999,"gps_lng":7.32257916666667},{"id":27351,"department_code":"68","insee_code":"68167","zip_code":"68290","name":"Kirchberg","slug":"kirchberg","gps_lat":47.78663696629211,"gps_lng":6.93861617977528},{"id":27352,"department_code":"68","insee_code":"68168","zip_code":"68220","name":"Knœringue","slug":"knoeringue","gps_lat":47.56309650000001,"gps_lng":7.398609},{"id":27353,"department_code":"68","insee_code":"68169","zip_code":"68480","name":"Kœstlach","slug":"koestlach","gps_lat":47.51624378048782,"gps_lng":7.27036536585366},{"id":27354,"department_code":"68","insee_code":"68170","zip_code":"68510","name":"Kœtzingue","slug":"koetzingue","gps_lat":47.64633352272728,"gps_lng":7.39134795454545},{"id":27355,"department_code":"68","insee_code":"68171","zip_code":"68820","name":"Kruth","slug":"kruth","gps_lat":47.9505022180451,"gps_lng":6.9614512406015},{"id":27356,"department_code":"68","insee_code":"68172","zip_code":"68320","name":"Kunheim","slug":"kunheim","gps_lat":48.0755943137255,"gps_lng":7.54381921568627},{"id":35682,"department_code":"973","insee_code":"97304","zip_code":"97310","name":"Kourou","slug":"kourou","gps_lat":4.91038917532071,"gps_lng":-52.77082491753199},{"id":35748,"department_code":"976","insee_code":"97609","zip_code":"97625","name":"Kani-Kéli","slug":"kani keli","gps_lat":-12.98218081339713,"gps_lng":45.12332043062204},{"id":35749,"department_code":"976","insee_code":"97610","zip_code":"97600","name":"Koungou","slug":"koungou","gps_lat":-12.73358274678111,"gps_lng":45.18902733905577},{"id":35829,"department_code":"988","insee_code":null,"zip_code":"98817","name":"Kaala-Gomen","slug":"kaala gomen","gps_lat":-20.6679308,"gps_lng":164.3959969},{"id":35830,"department_code":"988","insee_code":null,"zip_code":null,"name":"Koné","slug":"kone","gps_lat":-21.03776795,"gps_lng":164.915621805441},{"id":35831,"department_code":"988","insee_code":null,"zip_code":"98850","name":"Koumac","slug":"koumac","gps_lat":-20.5613596,"gps_lng":164.2811715},{"id":35852,"department_code":"988","insee_code":null,"zip_code":"98818","name":"Kouaoua","slug":"kouaoua","gps_lat":-21.3961813,"gps_lng":165.8284467}]