[{"id":89,"department_code":"01","insee_code":"01095","zip_code":"01250","name":"Nivigne et Suran","slug":"nivigne et suran","gps_lat":46.28725032258066,"gps_lng":5.42911649193548},{"id":242,"department_code":"01","insee_code":"01267","zip_code":"01460","name":"Nurieux-Volognat","slug":"nurieux volognat","gps_lat":46.18647360360362,"gps_lng":5.52305891891892},{"id":244,"department_code":"01","insee_code":"01269","zip_code":"01130","name":"Nantua","slug":"nantua","gps_lat":46.153405,"gps_lng":5.607762},{"id":245,"department_code":"01","insee_code":"01269","zip_code":"01460","name":"Nantua","slug":"nantua","gps_lat":46.1801574,"gps_lng":5.5472134},{"id":246,"department_code":"01","insee_code":"01272","zip_code":"01400","name":"Neuville-les-Dames","slug":"neuville les dames","gps_lat":46.15857711442787,"gps_lng":5.00700582089552},{"id":247,"department_code":"01","insee_code":"01273","zip_code":"01160","name":"Neuville-sur-Ain","slug":"neuville sur ain","gps_lat":46.09326285,"gps_lng":5.3694566},{"id":249,"department_code":"01","insee_code":"01275","zip_code":"01700","name":"Neyron","slug":"neyron","gps_lat":45.82260052631579,"gps_lng":4.92917302631579},{"id":250,"department_code":"01","insee_code":"01276","zip_code":"01120","name":"Niévroz","slug":"nievroz","gps_lat":45.82314800000001,"gps_lng":5.05946244444444},{"id":251,"department_code":"01","insee_code":"01277","zip_code":"01230","name":"Nivollet-Montgriffon","slug":"nivollet montgriffon","gps_lat":46.00106355072464,"gps_lng":5.45968847826087},{"id":930,"department_code":"02","insee_code":"02535","zip_code":"02140","name":"Nampcelles-la-Cour","slug":"nampcelles la cour","gps_lat":49.77774716981131,"gps_lng":3.99283962264151},{"id":931,"department_code":"02","insee_code":"02536","zip_code":"02200","name":"Nampteuil-sous-Muret","slug":"nampteuil sous muret","gps_lat":49.30161654545456,"gps_lng":3.43057072727273},{"id":932,"department_code":"02","insee_code":"02537","zip_code":"02880","name":"Nanteuil-la-Fosse","slug":"nanteuil la fosse","gps_lat":49.4328022972973,"gps_lng":3.44911864864865},{"id":933,"department_code":"02","insee_code":"02538","zip_code":"02210","name":"Nanteuil-Notre-Dame","slug":"nanteuil notre dame","gps_lat":49.19485136986301,"gps_lng":3.41161150684931},{"id":934,"department_code":"02","insee_code":"02539","zip_code":"02420","name":"Nauroy","slug":"nauroy","gps_lat":49.95124703125001,"gps_lng":3.2559603125},{"id":935,"department_code":"02","insee_code":"02540","zip_code":"02400","name":"Nesles-la-Montagne","slug":"nesles la montagne","gps_lat":49.00026528571428,"gps_lng":3.44870857142857},{"id":936,"department_code":"02","insee_code":"02541","zip_code":"02190","name":"Neufchâtel-sur-Aisne","slug":"neufchatel sur aisne","gps_lat":49.43345712121211,"gps_lng":4.0270303030303},{"id":937,"department_code":"02","insee_code":"02542","zip_code":"02300","name":"Neuflieux","slug":"neuflieux","gps_lat":49.61737031249999,"gps_lng":3.1592096875},{"id":938,"department_code":"02","insee_code":"02543","zip_code":"02470","name":"Neuilly-Saint-Front","slug":"neuilly saint front","gps_lat":49.16726879194632,"gps_lng":3.25763865771812},{"id":939,"department_code":"02","insee_code":"02544","zip_code":"02500","name":"Neuve-Maison","slug":"neuve maison","gps_lat":49.93072739130434,"gps_lng":4.04355315217391},{"id":944,"department_code":"02","insee_code":"02549","zip_code":"02100","name":"Neuville-Saint-Amand","slug":"neuville saint amand","gps_lat":49.8179104385965,"gps_lng":3.34257956140351},{"id":945,"department_code":"02","insee_code":"02550","zip_code":"02860","name":"Neuville-sur-Ailette","slug":"neuville sur ailette","gps_lat":49.47008275862071,"gps_lng":3.697365},{"id":946,"department_code":"02","insee_code":"02551","zip_code":"02880","name":"Neuville-sur-Margival","slug":"neuville sur margival","gps_lat":49.45600106060607,"gps_lng":3.39758151515152},{"id":947,"department_code":"02","insee_code":"02552","zip_code":"02390","name":"Neuvillette","slug":"neuvillette","gps_lat":49.85263380434782,"gps_lng":3.47525271739131},{"id":948,"department_code":"02","insee_code":"02553","zip_code":"02150","name":"Nizy-le-Comte","slug":"nizy le comte","gps_lat":49.56897277372263,"gps_lng":4.04224751824818},{"id":949,"department_code":"02","insee_code":"02554","zip_code":"02400","name":"Nogentel","slug":"nogentel","gps_lat":49.01025320000001,"gps_lng":3.4066392},{"id":950,"department_code":"02","insee_code":"02555","zip_code":"02310","name":"Nogent-l'Artaud","slug":"nogent l artaud","gps_lat":48.94241311926605,"gps_lng":3.33770963302752},{"id":951,"department_code":"02","insee_code":"02556","zip_code":"02340","name":"Noircourt","slug":"noircourt","gps_lat":49.6714738,"gps_lng":4.0918904},{"id":952,"department_code":"02","insee_code":"02557","zip_code":"02600","name":"Noroy-sur-Ourcq","slug":"noroy sur ourcq","gps_lat":49.20038196721312,"gps_lng":3.20436278688525},{"id":954,"department_code":"02","insee_code":"02559","zip_code":"02270","name":"Nouvion-et-Catillon","slug":"nouvion et catillon","gps_lat":49.70046137614678,"gps_lng":3.49245110091743},{"id":955,"department_code":"02","insee_code":"02560","zip_code":"02800","name":"Nouvion-le-Comte","slug":"nouvion le comte","gps_lat":49.70545060606061,"gps_lng":3.46296803030303},{"id":956,"department_code":"02","insee_code":"02561","zip_code":"02860","name":"Nouvion-le-Vineux","slug":"nouvion le vineux","gps_lat":49.51121882352943,"gps_lng":3.60277254901961},{"id":957,"department_code":"02","insee_code":"02562","zip_code":"02290","name":"Nouvron-Vingré","slug":"nouvron vingre","gps_lat":49.43982745341614,"gps_lng":3.18485677018634},{"id":958,"department_code":"02","insee_code":"02563","zip_code":"02120","name":"Noyales","slug":"noyales","gps_lat":49.90400525862069,"gps_lng":3.5406055172413797},{"id":959,"department_code":"02","insee_code":"02564","zip_code":"02200","name":"Noyant-et-Aconin","slug":"noyant et aconin","gps_lat":49.32957333333334,"gps_lng":3.33227034482759},{"id":1408,"department_code":"03","insee_code":"03192","zip_code":"03450","name":"Nades","slug":"nades","gps_lat":46.15034039062498,"gps_lng":2.968369453125},{"id":1409,"department_code":"03","insee_code":"03193","zip_code":"03190","name":"Nassigny","slug":"nassigny","gps_lat":46.4916622047244,"gps_lng":2.59291929133858},{"id":1410,"department_code":"03","insee_code":"03194","zip_code":"03330","name":"Naves","slug":"naves","gps_lat":46.17927093023256,"gps_lng":3.12012023255814},{"id":1411,"department_code":"03","insee_code":"03195","zip_code":"03310","name":"Néris-les-Bains","slug":"neris les bains","gps_lat":46.30257277966104,"gps_lng":2.67947461016949},{"id":1412,"department_code":"03","insee_code":"03196","zip_code":"03130","name":"Neuilly-en-Donjon","slug":"neuilly en donjon","gps_lat":46.34655179372199,"gps_lng":3.88693479820628},{"id":1413,"department_code":"03","insee_code":"03197","zip_code":"03340","name":"Neuilly-le-Réal","slug":"neuilly le real","gps_lat":46.46751589041096,"gps_lng":3.44170616438356},{"id":1414,"department_code":"03","insee_code":"03198","zip_code":"03320","name":"Neure","slug":"neure","gps_lat":46.74339065934067,"gps_lng":2.97857747252747},{"id":1415,"department_code":"03","insee_code":"03200","zip_code":"03000","name":"Neuvy","slug":"neuvy","gps_lat":46.56712119047617,"gps_lng":3.28195172619048},{"id":1416,"department_code":"03","insee_code":"03201","zip_code":"03250","name":"Nizerolles","slug":"nizerolles","gps_lat":46.10436975728153,"gps_lng":3.64776393203884},{"id":1417,"department_code":"03","insee_code":"03202","zip_code":"03210","name":"Noyant-d'Allier","slug":"noyant d allier","gps_lat":46.48147047872343,"gps_lng":3.12468867021277},{"id":1647,"department_code":"04","insee_code":"04137","zip_code":"04250","name":"Nibles","slug":"nibles","gps_lat":44.29070184466022,"gps_lng":6.00582485436893},{"id":1648,"department_code":"04","insee_code":"04138","zip_code":"04300","name":"Niozelles","slug":"niozelles","gps_lat":43.93188567307693,"gps_lng":5.8495850961538505},{"id":1649,"department_code":"04","insee_code":"04139","zip_code":"04200","name":"Noyers-sur-Jabron","slug":"noyers sur jabron","gps_lat":44.16734160869561,"gps_lng":5.80384043478261},{"id":1818,"department_code":"05","insee_code":"05092","zip_code":"05000","name":"Neffes","slug":"neffes","gps_lat":44.50057504201682,"gps_lng":6.02718050420168},{"id":1819,"department_code":"05","insee_code":"05093","zip_code":"05100","name":"Névache","slug":"nevache","gps_lat":45.0471297755611,"gps_lng":6.59784882793018},{"id":1820,"department_code":"05","insee_code":"05094","zip_code":"05700","name":"Nossage-et-Bénévent","slug":"nossage et benevent","gps_lat":44.31350081081082,"gps_lng":5.75084878378379},{"id":1993,"department_code":"06","insee_code":"06088","zip_code":"06000","name":"Nice","slug":"nice","gps_lat":43.6960355,"gps_lng":7.2655896},{"id":1994,"department_code":"06","insee_code":"06088","zip_code":"06100","name":"Nice","slug":"nice","gps_lat":43.7275796,"gps_lng":7.2598913},{"id":1995,"department_code":"06","insee_code":"06088","zip_code":"06200","name":"Nice","slug":"nice","gps_lat":43.6877482,"gps_lng":7.2113605},{"id":1996,"department_code":"06","insee_code":"06088","zip_code":"06300","name":"Nice","slug":"nice","gps_lat":43.706449,"gps_lng":7.2922646},{"id":2233,"department_code":"07","insee_code":"07165","zip_code":"07160","name":"Nonières","slug":"nonieres","gps_lat":44.92979465909091,"gps_lng":4.47610545454545},{"id":2234,"department_code":"07","insee_code":"07166","zip_code":"07270","name":"Nozières","slug":"nozieres","gps_lat":45.03616067901235,"gps_lng":4.54366296296296},{"id":2693,"department_code":"08","insee_code":"08313","zip_code":"08300","name":"Nanteuil-sur-Aisne","slug":"nanteuil sur aisne","gps_lat":49.50775583333333,"gps_lng":4.30062333333333},{"id":2694,"department_code":"08","insee_code":"08314","zip_code":"08300","name":"Neuflize","slug":"neuflize","gps_lat":49.40532942028985,"gps_lng":4.31144420289855},{"id":2695,"department_code":"08","insee_code":"08315","zip_code":"08460","name":"Neufmaison","slug":"neufmaison","gps_lat":49.76011199999999,"gps_lng":4.51210561904762},{"id":2696,"department_code":"08","insee_code":"08316","zip_code":"08700","name":"Neufmanil","slug":"neufmanil","gps_lat":49.82380168000001,"gps_lng":4.80901312},{"id":2699,"department_code":"08","insee_code":"08319","zip_code":"08380","name":"Neuville-lez-Beaulieu","slug":"neuville lez beaulieu","gps_lat":49.91716040816326,"gps_lng":4.36707448979592},{"id":2701,"department_code":"08","insee_code":"08321","zip_code":"08130","name":"Neuville-Day","slug":"neuville day","gps_lat":49.50516211538464,"gps_lng":4.68749528846154},{"id":2702,"department_code":"08","insee_code":"08322","zip_code":"08090","name":"Neuville-lès-This","slug":"neuville les this","gps_lat":49.73325679012345,"gps_lng":4.59146222222222},{"id":2704,"department_code":"08","insee_code":"08324","zip_code":"08430","name":"Neuvizy","slug":"neuvizy","gps_lat":49.62729166666665,"gps_lng":4.54087625},{"id":2705,"department_code":"08","insee_code":"08325","zip_code":"08400","name":"Noirval","slug":"noirval","gps_lat":49.45667356435644,"gps_lng":4.79663841584158},{"id":2706,"department_code":"08","insee_code":"08326","zip_code":"08240","name":"Nouart","slug":"nouart","gps_lat":49.4449769924812,"gps_lng":5.05061067669173},{"id":2707,"department_code":"08","insee_code":"08327","zip_code":"08160","name":"Nouvion-sur-Meuse","slug":"nouvion sur meuse","gps_lat":49.71369688172045,"gps_lng":4.80072096774194},{"id":2708,"department_code":"08","insee_code":"08328","zip_code":"08700","name":"Nouzonville","slug":"nouzonville","gps_lat":49.82244915151513,"gps_lng":4.74802290909091},{"id":2709,"department_code":"08","insee_code":"08329","zip_code":"08270","name":"Novion-Porcien","slug":"novion porcien","gps_lat":49.59805071428569,"gps_lng":4.42967267857143},{"id":2710,"department_code":"08","insee_code":"08330","zip_code":"08300","name":"Novy-Chevrières","slug":"novy chevrieres","gps_lat":49.5446687162162,"gps_lng":4.4458895945946},{"id":2711,"department_code":"08","insee_code":"08331","zip_code":"08350","name":"Noyers-Pont-Maugis","slug":"noyers pont maugis","gps_lat":49.65701212389382,"gps_lng":4.93207734513274},{"id":3080,"department_code":"09","insee_code":"09215","zip_code":"09300","name":"Nalzen","slug":"nalzen","gps_lat":42.91871735099338,"gps_lng":1.7541515231788098},{"id":3081,"department_code":"09","insee_code":"09216","zip_code":"09240","name":"Nescus","slug":"nescus","gps_lat":42.99147983606557,"gps_lng":1.43495426229508},{"id":3082,"department_code":"09","insee_code":"09217","zip_code":"09400","name":"Niaux","slug":"niaux","gps_lat":42.81564562499999,"gps_lng":1.59703708333333},{"id":3453,"department_code":"10","insee_code":"10262","zip_code":"10250","name":"Neuville-sur-Seine","slug":"neuville sur seine","gps_lat":48.03793060606061,"gps_lng":4.40860742424242},{"id":3454,"department_code":"10","insee_code":"10263","zip_code":"10190","name":"Neuville-sur-Vanne","slug":"neuville sur vanne","gps_lat":48.25059577981654,"gps_lng":3.77481596330275},{"id":3455,"department_code":"10","insee_code":"10264","zip_code":"10360","name":"Noé-les-Mallets","slug":"noe les mallets","gps_lat":48.09916755319148,"gps_lng":4.55742063829787},{"id":3457,"department_code":"10","insee_code":"10266","zip_code":"10160","name":"Nogent-en-Othe","slug":"nogent en othe","gps_lat":48.13190283783784,"gps_lng":3.79654932432432},{"id":3458,"department_code":"10","insee_code":"10267","zip_code":"10240","name":"Nogent-sur-Aube","slug":"nogent sur aube","gps_lat":48.48999675324673,"gps_lng":4.30835863636363},{"id":3459,"department_code":"10","insee_code":"10268","zip_code":"10400","name":"Nogent-sur-Seine","slug":"nogent sur seine","gps_lat":48.50500812121213,"gps_lng":3.50049272727273},{"id":3460,"department_code":"10","insee_code":"10269","zip_code":"10700","name":"Nozay","slug":"nozay","gps_lat":48.5067006818182,"gps_lng":4.09352863636364},{"id":3887,"department_code":"11","insee_code":"11262","zip_code":"11100","name":"Narbonne","slug":"narbonne","gps_lat":43.16490525386315,"gps_lng":3.03021938189846},{"id":3888,"department_code":"11","insee_code":"11263","zip_code":"11500","name":"Nébias","slug":"nebias","gps_lat":42.8892316239316,"gps_lng":2.09917401709402},{"id":3889,"department_code":"11","insee_code":"11264","zip_code":"11200","name":"Névian","slug":"nevian","gps_lat":43.20630427184464,"gps_lng":2.88500873786408},{"id":3890,"department_code":"11","insee_code":"11265","zip_code":"11140","name":"Niort-de-Sault","slug":"niort de sault","gps_lat":42.78789749999999,"gps_lng":1.9982727857142901},{"id":4222,"department_code":"12","insee_code":"12167","zip_code":"12270","name":"Najac","slug":"najac","gps_lat":44.20898034482762,"gps_lng":1.96490436781609},{"id":4223,"department_code":"12","insee_code":"12168","zip_code":"12230","name":"Nant","slug":"nant","gps_lat":44.02887435028247,"gps_lng":3.2961981920904},{"id":4224,"department_code":"12","insee_code":"12169","zip_code":"12800","name":"Naucelle","slug":"naucelle","gps_lat":44.19148710084032,"gps_lng":2.34371025210084},{"id":4225,"department_code":"12","insee_code":"12170","zip_code":"12700","name":"Naussac","slug":"naussac","gps_lat":44.51077208588957,"gps_lng":2.09697343558282},{"id":4226,"department_code":"12","insee_code":"12171","zip_code":"12330","name":"Nauviale","slug":"nauviale","gps_lat":44.51504307377053,"gps_lng":2.43154725409836},{"id":4447,"department_code":"13","insee_code":"13066","zip_code":"13550","name":"Noves","slug":"noves","gps_lat":43.8577383962264,"gps_lng":4.90460481132075},{"id":4841,"department_code":"14","insee_code":"14465","zip_code":"14400","name":"Nonant","slug":"nonant","gps_lat":49.23792550458715,"gps_lng":-0.6430943119266099},{"id":4842,"department_code":"14","insee_code":"14466","zip_code":"14100","name":"Norolles","slug":"norolles","gps_lat":49.20056219512194,"gps_lng":0.23348682926829},{"id":4843,"department_code":"14","insee_code":"14467","zip_code":"14700","name":"Noron-l'Abbaye","slug":"noron l abbaye","gps_lat":48.89349478260871,"gps_lng":-0.24600747826087},{"id":4844,"department_code":"14","insee_code":"14468","zip_code":"14490","name":"Noron-la-Poterie","slug":"noron la poterie","gps_lat":49.22329726315787,"gps_lng":-0.7745299999999999},{"id":4845,"department_code":"14","insee_code":"14469","zip_code":"14620","name":"Norrey-en-Auge","slug":"norrey en auge","gps_lat":48.91449800000001,"gps_lng":-0.014073529411759989},{"id":4846,"department_code":"14","insee_code":"14473","zip_code":"14340","name":"Notre-Dame-de-Livaye","slug":"notre dame de livaye","gps_lat":49.11693920454545,"gps_lng":0.04372022727273},{"id":4847,"department_code":"14","insee_code":"14474","zip_code":"14340","name":"Notre-Dame-d'Estrées-Corbon","slug":"notre dame d estrees corbon","gps_lat":49.1360783561644,"gps_lng":-0.009229109589039997},{"id":4973,"department_code":"14","insee_code":"14658","zip_code":"14380","name":"Noues de Sienne","slug":"noues de sienne","gps_lat":48.82462514782608,"gps_lng":-1.0339974782608699},{"id":5181,"department_code":"15","insee_code":"15139","zip_code":"15230","name":"Narnhac","slug":"narnhac","gps_lat":44.94018291666668,"gps_lng":2.76239958333333},{"id":5182,"department_code":"15","insee_code":"15140","zip_code":"15250","name":"Naucelles","slug":"naucelles","gps_lat":44.95264284000002,"gps_lng":2.41389504},{"id":5183,"department_code":"15","insee_code":"15141","zip_code":"15170","name":"Neussargues en Pinatelle","slug":"neussargues en pinatelle","gps_lat":45.1340692,"gps_lng":2.9804551},{"id":5184,"department_code":"15","insee_code":"15141","zip_code":"15300","name":"Neussargues en Pinatelle","slug":"neussargues en pinatelle","gps_lat":45.1340692,"gps_lng":2.9804551},{"id":5185,"department_code":"15","insee_code":"15142","zip_code":"15100","name":"Neuvéglise-sur-Truyère","slug":"neuveglise sur truyere","gps_lat":44.927801,"gps_lng":2.984134},{"id":5186,"department_code":"15","insee_code":"15142","zip_code":"15260","name":"Neuvéglise-sur-Truyère","slug":"neuveglise sur truyere","gps_lat":44.927801,"gps_lng":2.984134},{"id":5187,"department_code":"15","insee_code":"15143","zip_code":"15150","name":"Nieudan","slug":"nieudan","gps_lat":44.98847048648648,"gps_lng":2.24355313513514},{"id":5526,"department_code":"16","insee_code":"16240","zip_code":"16390","name":"Nabinaud","slug":"nabinaud","gps_lat":45.29428094488188,"gps_lng":0.21433818897638},{"id":5527,"department_code":"16","insee_code":"16241","zip_code":"16230","name":"Nanclars","slug":"nanclars","gps_lat":45.84589353846154,"gps_lng":0.22650461538462},{"id":5528,"department_code":"16","insee_code":"16242","zip_code":"16700","name":"Nanteuil-en-Vallée","slug":"nanteuil en vallee","gps_lat":46.00689721212121,"gps_lng":0.32503842424242},{"id":5529,"department_code":"16","insee_code":"16243","zip_code":"16200","name":"Nercillac","slug":"nercillac","gps_lat":45.72195802469138,"gps_lng":-0.26463777777777997},{"id":5530,"department_code":"16","insee_code":"16244","zip_code":"16440","name":"Nersac","slug":"nersac","gps_lat":45.62420999999999,"gps_lng":0.06458117647059},{"id":5531,"department_code":"16","insee_code":"16245","zip_code":"16270","name":"Nieuil","slug":"nieuil","gps_lat":45.88486854748606,"gps_lng":0.52614268156425},{"id":5532,"department_code":"16","insee_code":"16246","zip_code":"16190","name":"Nonac","slug":"nonac","gps_lat":45.42390655737708,"gps_lng":0.04865158469945},{"id":5929,"department_code":"17","insee_code":"17254","zip_code":"17380","name":"Nachamps","slug":"nachamps","gps_lat":46.02078466666667,"gps_lng":-0.6273643333333301},{"id":5930,"department_code":"17","insee_code":"17255","zip_code":"17600","name":"Nancras","slug":"nancras","gps_lat":45.74806711538461,"gps_lng":-0.87492134615385},{"id":5931,"department_code":"17","insee_code":"17256","zip_code":"17770","name":"Nantillé","slug":"nantille","gps_lat":45.86673924050633,"gps_lng":-0.48948303797467996},{"id":5932,"department_code":"17","insee_code":"17257","zip_code":"17510","name":"Néré","slug":"nere","gps_lat":45.97971876623377,"gps_lng":-0.23754837662338002},{"id":5933,"department_code":"17","insee_code":"17258","zip_code":"17520","name":"Neuillac","slug":"neuillac","gps_lat":45.50743815068494,"gps_lng":-0.39876328767123004},{"id":5934,"department_code":"17","insee_code":"17259","zip_code":"17500","name":"Neulles","slug":"neulles","gps_lat":45.50808942307691,"gps_lng":-0.43252852564102995},{"id":5935,"department_code":"17","insee_code":"17260","zip_code":"17270","name":"Neuvicq","slug":"neuvicq","gps_lat":45.25414160583942,"gps_lng":-0.16572448905109005},{"id":5936,"department_code":"17","insee_code":"17261","zip_code":"17490","name":"Neuvicq-le-Château","slug":"neuvicq le chateau","gps_lat":45.80600637795277,"gps_lng":-0.16120826771653995},{"id":5937,"department_code":"17","insee_code":"17262","zip_code":"17810","name":"Nieul-lès-Saintes","slug":"nieul les saintes","gps_lat":45.75225694805196,"gps_lng":-0.75074181818182},{"id":5938,"department_code":"17","insee_code":"17263","zip_code":"17150","name":"Nieul-le-Virouil","slug":"nieul le virouil","gps_lat":45.41701405982904,"gps_lng":-0.52271965811966},{"id":5939,"department_code":"17","insee_code":"17264","zip_code":"17137","name":"Nieul-sur-Mer","slug":"nieul sur mer","gps_lat":46.208905,"gps_lng":-1.1697225},{"id":5940,"department_code":"17","insee_code":"17265","zip_code":"17600","name":"Nieulle-sur-Seudre","slug":"nieulle sur seudre","gps_lat":45.75761287356322,"gps_lng":-1.0227643103448298},{"id":5942,"department_code":"17","insee_code":"17267","zip_code":"17540","name":"Nuaillé-d'Aunis","slug":"nuaille d aunis","gps_lat":46.23266841121496,"gps_lng":-0.92341158878505},{"id":5943,"department_code":"17","insee_code":"17268","zip_code":"17470","name":"Nuaillé-sur-Boutonne","slug":"nuaille sur boutonne","gps_lat":46.01442861271674,"gps_lng":-0.41716479768785997},{"id":6312,"department_code":"18","insee_code":"18159","zip_code":"18330","name":"Nançay","slug":"nancay","gps_lat":47.34799391304345,"gps_lng":2.17997505434783},{"id":6313,"department_code":"18","insee_code":"18160","zip_code":"18350","name":"Nérondes","slug":"nerondes","gps_lat":47.0015560194175,"gps_lng":2.82698305825243},{"id":6314,"department_code":"18","insee_code":"18161","zip_code":"18600","name":"Neuilly-en-Dun","slug":"neuilly en dun","gps_lat":46.80820401785717,"gps_lng":2.77662026785714},{"id":6315,"department_code":"18","insee_code":"18162","zip_code":"18250","name":"Neuilly-en-Sancerre","slug":"neuilly en sancerre","gps_lat":47.30901584415587,"gps_lng":2.65046993506494},{"id":6316,"department_code":"18","insee_code":"18163","zip_code":"18250","name":"Neuvy-Deux-Clochers","slug":"neuvy deux clochers","gps_lat":47.28315697183097,"gps_lng":2.68123647887324},{"id":6317,"department_code":"18","insee_code":"18164","zip_code":"18600","name":"Neuvy-le-Barrois","slug":"neuvy le barrois","gps_lat":46.85984414285713,"gps_lng":3.017822},{"id":6318,"department_code":"18","insee_code":"18165","zip_code":"18330","name":"Neuvy-sur-Barangeon","slug":"neuvy sur barangeon","gps_lat":47.3235180821918,"gps_lng":2.25915678082192},{"id":6319,"department_code":"18","insee_code":"18166","zip_code":"18390","name":"Nohant-en-Goût","slug":"nohant en gout","gps_lat":47.08340305882356,"gps_lng":2.5814003529411798},{"id":6320,"department_code":"18","insee_code":"18167","zip_code":"18310","name":"Nohant-en-Graçay","slug":"nohant en gracay","gps_lat":47.12878685393259,"gps_lng":1.90772775280899},{"id":6322,"department_code":"18","insee_code":"18169","zip_code":"18200","name":"Nozières","slug":"nozieres","gps_lat":46.7358722962963,"gps_lng":2.42574511111111},{"id":6591,"department_code":"19","insee_code":"19146","zip_code":"19460","name":"Naves","slug":"naves","gps_lat":45.31553072881352,"gps_lng":1.7431016610169499},{"id":6592,"department_code":"19","insee_code":"19147","zip_code":"19600","name":"Nespouls","slug":"nespouls","gps_lat":45.05394459119497,"gps_lng":1.49907943396226},{"id":6593,"department_code":"19","insee_code":"19148","zip_code":"19160","name":"Neuvic","slug":"neuvic","gps_lat":45.35776303030303,"gps_lng":2.25857055944056},{"id":6594,"department_code":"19","insee_code":"19149","zip_code":"19380","name":"Neuville","slug":"neuville","gps_lat":45.11000295358647,"gps_lng":1.84894341772152},{"id":6595,"department_code":"19","insee_code":"19150","zip_code":"19500","name":"Noailhac","slug":"noailhac","gps_lat":45.08347323529412,"gps_lng":1.6225824117647099},{"id":6596,"department_code":"19","insee_code":"19151","zip_code":"19600","name":"Noailles","slug":"noailles","gps_lat":45.10035736842105,"gps_lng":1.51930736842105},{"id":6597,"department_code":"19","insee_code":"19152","zip_code":"19120","name":"Nonards","slug":"nonards","gps_lat":45.01718652777777,"gps_lng":1.8101037962963},{"id":7171,"department_code":"21","insee_code":"21449","zip_code":"21390","name":"Nan-sous-Thil","slug":"nan sous thil","gps_lat":47.38133546583854,"gps_lng":4.35752242236025},{"id":7172,"department_code":"21","insee_code":"21450","zip_code":"21190","name":"Nantoux","slug":"nantoux","gps_lat":47.03440902439026,"gps_lng":4.75748926829268},{"id":7173,"department_code":"21","insee_code":"21451","zip_code":"21330","name":"Nesle-et-Massoult","slug":"nesle et massoult","gps_lat":47.77703181818183,"gps_lng":4.42858247933884},{"id":7174,"department_code":"21","insee_code":"21452","zip_code":"21800","name":"Neuilly-lès-Dijon","slug":"neuilly les dijon","gps_lat":47.27865958333333,"gps_lng":5.10638729166667},{"id":7175,"department_code":"21","insee_code":"21454","zip_code":"21330","name":"Nicey","slug":"nicey","gps_lat":47.86226360759495,"gps_lng":4.28810626582279},{"id":7176,"department_code":"21","insee_code":"21455","zip_code":"21400","name":"Nod-sur-Seine","slug":"nod sur seine","gps_lat":47.76770951351354,"gps_lng":4.59769616216217},{"id":7177,"department_code":"21","insee_code":"21456","zip_code":"21500","name":"Nogent-lès-Montbard","slug":"nogent les montbard","gps_lat":47.60668788461537,"gps_lng":4.36962913461538},{"id":7178,"department_code":"21","insee_code":"21457","zip_code":"21390","name":"Noidan","slug":"noidan","gps_lat":47.34765573643413,"gps_lng":4.41104534883721},{"id":7179,"department_code":"21","insee_code":"21458","zip_code":"21910","name":"Noiron-sous-Gevrey","slug":"noiron sous gevrey","gps_lat":47.18719238805969,"gps_lng":5.08338402985075},{"id":7180,"department_code":"21","insee_code":"21459","zip_code":"21310","name":"Noiron-sur-Bèze","slug":"noiron sur beze","gps_lat":47.4395884,"gps_lng":5.2969092},{"id":7181,"department_code":"21","insee_code":"21460","zip_code":"21400","name":"Noiron-sur-Seine","slug":"noiron sur seine","gps_lat":47.93568933333334,"gps_lng":4.47359742857143},{"id":7182,"department_code":"21","insee_code":"21461","zip_code":"21340","name":"Nolay","slug":"nolay","gps_lat":46.95975030120484,"gps_lng":4.61799921686747},{"id":7183,"department_code":"21","insee_code":"21462","zip_code":"21490","name":"Norges-la-Ville","slug":"norges la ville","gps_lat":47.40698710526318,"gps_lng":5.06555789473684},{"id":7184,"department_code":"21","insee_code":"21463","zip_code":"21390","name":"Normier","slug":"normier","gps_lat":47.36417012345678,"gps_lng":4.43406086419753},{"id":7185,"department_code":"21","insee_code":"21464","zip_code":"21700","name":"Nuits-Saint-Georges","slug":"nuits saint georges","gps_lat":47.14961532467533,"gps_lng":4.93224181818182},{"id":7576,"department_code":"22","insee_code":"22160","zip_code":"22400","name":"Noyal","slug":"noyal","gps_lat":48.44836626506025,"gps_lng":-2.47075096385542},{"id":7926,"department_code":"23","insee_code":"23141","zip_code":"23800","name":"Naillat","slug":"naillat","gps_lat":46.26196058914731,"gps_lng":1.65029618604651},{"id":7927,"department_code":"23","insee_code":"23142","zip_code":"23200","name":"Néoux","slug":"neoux","gps_lat":45.91759869822482,"gps_lng":2.25789201183432},{"id":7928,"department_code":"23","insee_code":"23143","zip_code":"23300","name":"Noth","slug":"noth","gps_lat":46.2432462315271,"gps_lng":1.5755083251231499},{"id":7930,"department_code":"23","insee_code":"23145","zip_code":"23170","name":"Nouhant","slug":"nouhant","gps_lat":46.2873702272727,"gps_lng":2.39202375},{"id":7931,"department_code":"23","insee_code":"23146","zip_code":"23600","name":"Nouzerines","slug":"nouzerines","gps_lat":46.39709378048779,"gps_lng":2.11385073170732},{"id":7932,"department_code":"23","insee_code":"23147","zip_code":"23360","name":"Nouzerolles","slug":"nouzerolles","gps_lat":46.38153401515149,"gps_lng":1.7382707575757599},{"id":7933,"department_code":"23","insee_code":"23148","zip_code":"23350","name":"Nouziers","slug":"nouziers","gps_lat":46.41780496503495,"gps_lng":1.9573541958042},{"id":8310,"department_code":"24","insee_code":"24300","zip_code":"24250","name":"Nabirat","slug":"nabirat","gps_lat":44.76893204545456,"gps_lng":1.298055},{"id":8311,"department_code":"24","insee_code":"24301","zip_code":"24590","name":"Nadaillac","slug":"nadaillac","gps_lat":45.03313655844157,"gps_lng":1.39167207792208},{"id":8312,"department_code":"24","insee_code":"24302","zip_code":"24390","name":"Nailhac","slug":"nailhac","gps_lat":45.22734453038671,"gps_lng":1.15548988950276},{"id":8313,"department_code":"24","insee_code":"24303","zip_code":"24320","name":"Nanteuil-Auriac-de-Bourzac","slug":"nanteuil auriac de bourzac","gps_lat":45.37739124352329,"gps_lng":0.2795089119171},{"id":8314,"department_code":"24","insee_code":"24304","zip_code":"24800","name":"Nantheuil","slug":"nantheuil","gps_lat":45.42515060439561,"gps_lng":0.95590840659341},{"id":8315,"department_code":"24","insee_code":"24305","zip_code":"24800","name":"Nanthiat","slug":"nanthiat","gps_lat":45.40970201005026,"gps_lng":0.98626532663317},{"id":8316,"department_code":"24","insee_code":"24306","zip_code":"24230","name":"Nastringues","slug":"nastringues","gps_lat":44.87583290322581,"gps_lng":0.15120556451613},{"id":8317,"department_code":"24","insee_code":"24307","zip_code":"24440","name":"Naussannes","slug":"naussannes","gps_lat":44.74967768000002,"gps_lng":0.71332816},{"id":8318,"department_code":"24","insee_code":"24308","zip_code":"24460","name":"Négrondes","slug":"negrondes","gps_lat":45.33969800000001,"gps_lng":0.87561393548387},{"id":8319,"department_code":"24","insee_code":"24309","zip_code":"24190","name":"Neuvic","slug":"neuvic","gps_lat":45.09203472573842,"gps_lng":0.47092953586498},{"id":8320,"department_code":"24","insee_code":"24311","zip_code":"24300","name":"Nontron","slug":"nontron","gps_lat":45.53322069651742,"gps_lng":0.67472059701493},{"id":8949,"department_code":"25","insee_code":"25417","zip_code":"25360","name":"Naisey-les-Granges","slug":"naisey les granges","gps_lat":47.20984169811319,"gps_lng":6.23999566037736},{"id":8950,"department_code":"25","insee_code":"25418","zip_code":"25360","name":"Nancray","slug":"nancray","gps_lat":47.25186743243243,"gps_lng":6.17955486486486},{"id":8951,"department_code":"25","insee_code":"25419","zip_code":"25680","name":"Nans","slug":"nans","gps_lat":47.47597367346938,"gps_lng":6.41073918367347},{"id":8952,"department_code":"25","insee_code":"25420","zip_code":"25330","name":"Nans-sous-Sainte-Anne","slug":"nans sous sainte anne","gps_lat":46.97540805555555,"gps_lng":5.9929812962963},{"id":8953,"department_code":"25","insee_code":"25421","zip_code":"25210","name":"Narbief","slug":"narbief","gps_lat":47.12816851351349,"gps_lng":6.69200121621622},{"id":8954,"department_code":"25","insee_code":"25422","zip_code":"25150","name":"Neuchâtel-Urtière","slug":"neuchatel urtiere","gps_lat":47.38031956521741,"gps_lng":6.72919108695652},{"id":8956,"department_code":"25","insee_code":"25425","zip_code":"25500","name":"Noël-Cerneux","slug":"noel cerneux","gps_lat":47.10733224489795,"gps_lng":6.66646510204082},{"id":8957,"department_code":"25","insee_code":"25426","zip_code":"25190","name":"Noirefontaine","slug":"noirefontaine","gps_lat":47.34634605042017,"gps_lng":6.76759487394958},{"id":8958,"department_code":"25","insee_code":"25427","zip_code":"25170","name":"Noironte","slug":"noironte","gps_lat":47.27173507246377,"gps_lng":5.86811260869565},{"id":8959,"department_code":"25","insee_code":"25428","zip_code":"25600","name":"Nommay","slug":"nommay","gps_lat":47.53836757575758,"gps_lng":6.84648272727273},{"id":8960,"department_code":"25","insee_code":"25429","zip_code":"25220","name":"Novillars","slug":"novillars","gps_lat":47.28816655172415,"gps_lng":6.13143068965517},{"id":9363,"department_code":"26","insee_code":"26220","zip_code":"26110","name":"Nyons","slug":"nyons","gps_lat":44.3561686554622,"gps_lng":5.11962050420168},{"id":9894,"department_code":"27","insee_code":"27424","zip_code":"27190","name":"Nagel-Séez-Mesnil","slug":"nagel seez mesnil","gps_lat":48.92006555555557,"gps_lng":0.9473153968254},{"id":9895,"department_code":"27","insee_code":"27425","zip_code":"27170","name":"Nassandres sur Risle","slug":"nassandres sur risle","gps_lat":49.1287898,"gps_lng":0.7326193},{"id":9896,"department_code":"27","insee_code":"27425","zip_code":"27300","name":"Nassandres sur Risle","slug":"nassandres sur risle","gps_lat":49.128952,"gps_lng":0.732727},{"id":9897,"department_code":"27","insee_code":"27425","zip_code":"27550","name":"Nassandres sur Risle","slug":"nassandres sur risle","gps_lat":49.1287898,"gps_lng":0.7326193},{"id":9898,"department_code":"27","insee_code":"27426","zip_code":"27830","name":"Neaufles-Saint-Martin","slug":"neaufles saint martin","gps_lat":49.28001366906477,"gps_lng":1.7240795683453198},{"id":9899,"department_code":"27","insee_code":"27427","zip_code":"27250","name":"Neaufles-Auvergny","slug":"neaufles auvergny","gps_lat":48.87284060606058,"gps_lng":0.73440777777778},{"id":9901,"department_code":"27","insee_code":"27429","zip_code":"27730","name":"Neuilly","slug":"neuilly","gps_lat":48.93063616438355,"gps_lng":1.41865150684932},{"id":9905,"department_code":"27","insee_code":"27433","zip_code":"27800","name":"Neuville-sur-Authou","slug":"neuville sur authou","gps_lat":49.20768464912282,"gps_lng":0.63112570175439},{"id":9906,"department_code":"27","insee_code":"27434","zip_code":"27560","name":"Noards","slug":"noards","gps_lat":49.21032934426232,"gps_lng":0.50691672131148},{"id":9908,"department_code":"27","insee_code":"27436","zip_code":"27190","name":"Nogent-le-Sec","slug":"nogent le sec","gps_lat":48.92321729508198,"gps_lng":0.99992713114754},{"id":9909,"department_code":"27","insee_code":"27437","zip_code":"27150","name":"Nojeon-en-Vexin","slug":"nojeon en vexin","gps_lat":49.33403641975308,"gps_lng":1.56065925925926},{"id":9910,"department_code":"27","insee_code":"27438","zip_code":"27320","name":"Nonancourt","slug":"nonancourt","gps_lat":48.77224893805311,"gps_lng":1.1901514159292},{"id":9911,"department_code":"27","insee_code":"27439","zip_code":"27930","name":"Normanville","slug":"normanville","gps_lat":49.07295496453899,"gps_lng":1.16139262411347},{"id":9912,"department_code":"27","insee_code":"27440","zip_code":"27940","name":"Notre-Dame-de-l'Isle","slug":"notre dame de l isle","gps_lat":49.15559637362639,"gps_lng":1.45082175824176},{"id":9913,"department_code":"27","insee_code":"27441","zip_code":"27800","name":"Notre-Dame-d'Épine","slug":"notre dame d epine","gps_lat":49.19587107142858,"gps_lng":0.59799714285714},{"id":9914,"department_code":"27","insee_code":"27442","zip_code":"27390","name":"Notre-Dame-du-Hamel","slug":"notre dame du hamel","gps_lat":48.89064999999999,"gps_lng":0.5103487037037},{"id":9916,"department_code":"27","insee_code":"27445","zip_code":"27720","name":"Noyers","slug":"noyers","gps_lat":49.24404118644067,"gps_lng":1.67469983050847},{"id":10375,"department_code":"28","insee_code":"28275","zip_code":"28210","name":"Néron","slug":"neron","gps_lat":48.59391888888888,"gps_lng":1.49838865079365},{"id":10376,"department_code":"28","insee_code":"28276","zip_code":"28310","name":"Neuvy-en-Beauce","slug":"neuvy en beauce","gps_lat":48.27511805194808,"gps_lng":1.87375038961039},{"id":10377,"department_code":"28","insee_code":"28277","zip_code":"28800","name":"Neuvy-en-Dunois","slug":"neuvy en dunois","gps_lat":48.20364894736841,"gps_lng":1.5393963157894701},{"id":10378,"department_code":"28","insee_code":"28278","zip_code":"28630","name":"Nogent-le-Phaye","slug":"nogent le phaye","gps_lat":48.45093933884299,"gps_lng":1.57209859504132},{"id":10379,"department_code":"28","insee_code":"28279","zip_code":"28210","name":"Nogent-le-Roi","slug":"nogent le roi","gps_lat":48.63458953020134,"gps_lng":1.52817758389262},{"id":10380,"department_code":"28","insee_code":"28280","zip_code":"28400","name":"Nogent-le-Rotrou","slug":"nogent le rotrou","gps_lat":48.31500189830509,"gps_lng":0.80689555932203},{"id":10381,"department_code":"28","insee_code":"28281","zip_code":"28120","name":"Nogent-sur-Eure","slug":"nogent sur eure","gps_lat":48.39085485148517,"gps_lng":1.38464673267327},{"id":10382,"department_code":"28","insee_code":"28282","zip_code":"28120","name":"Nonvilliers-Grandhoux","slug":"nonvilliers grandhoux","gps_lat":48.33582491525421,"gps_lng":1.14581254237288},{"id":10383,"department_code":"28","insee_code":"28283","zip_code":"28140","name":"Nottonville","slug":"nottonville","gps_lat":48.12150330708661,"gps_lng":1.51949448818898},{"id":10651,"department_code":"29","insee_code":"29153","zip_code":"29920","name":"Névez","slug":"nevez","gps_lat":47.81140830466832,"gps_lng":-3.76707174447174},{"id":11031,"department_code":"2B","insee_code":"2B175","zip_code":"20225","name":"Nessa","slug":"nessa","gps_lat":42.55401564814814,"gps_lng":8.95455981481482},{"id":11032,"department_code":"2B","insee_code":"2B176","zip_code":"20229","name":"Nocario","slug":"nocario","gps_lat":42.39357412698413,"gps_lng":9.35063714285714},{"id":11033,"department_code":"2B","insee_code":"2B177","zip_code":"20242","name":"Noceta","slug":"noceta","gps_lat":42.2060530075188,"gps_lng":9.20922699248121},{"id":11034,"department_code":"2B","insee_code":"2B178","zip_code":"20217","name":"Nonza","slug":"nonza","gps_lat":42.78656849206347,"gps_lng":9.35040285714286},{"id":11035,"department_code":"2B","insee_code":"2B179","zip_code":"20234","name":"Novale","slug":"novale","gps_lat":42.30553646464644,"gps_lng":9.41285080808081},{"id":11036,"department_code":"2B","insee_code":"2B180","zip_code":"20226","name":"Novella","slug":"novella","gps_lat":42.59866778325121,"gps_lng":9.10063221674877},{"id":11346,"department_code":"30","insee_code":"30186","zip_code":"30114","name":"Nages-et-Solorgues","slug":"nages et solorgues","gps_lat":43.78878600000001,"gps_lng":4.22842246153846},{"id":11347,"department_code":"30","insee_code":"30187","zip_code":"30580","name":"Navacelles","slug":"navacelles","gps_lat":44.16298999999999,"gps_lng":4.23344906666667},{"id":11348,"department_code":"30","insee_code":"30188","zip_code":"30360","name":"Ners","slug":"ners","gps_lat":44.02672338709677,"gps_lng":4.16295483870968},{"id":11349,"department_code":"30","insee_code":"30189","zip_code":"30000","name":"Nîmes","slug":"nimes","gps_lat":43.8791313,"gps_lng":4.3770704},{"id":11350,"department_code":"30","insee_code":"30189","zip_code":"30900","name":"Nîmes","slug":"nimes","gps_lat":43.8333998,"gps_lng":4.3256917999999995},{"id":11351,"department_code":"30","insee_code":"30190","zip_code":"30570","name":"Notre-Dame-de-la-Rouvière","slug":"notre dame de la rouviere","gps_lat":44.05825301675977,"gps_lng":3.71046905027933},{"id":11909,"department_code":"31","insee_code":"31396","zip_code":"31560","name":"Nailloux","slug":"nailloux","gps_lat":43.3675772519084,"gps_lng":1.61343816793893},{"id":11910,"department_code":"31","insee_code":"31397","zip_code":"31350","name":"Nénigan","slug":"nenigan","gps_lat":43.35154345454545,"gps_lng":0.71120181818182},{"id":11911,"department_code":"31","insee_code":"31398","zip_code":"31350","name":"Nizan-Gesse","slug":"nizan gesse","gps_lat":43.23145049180327,"gps_lng":0.59600516393443},{"id":11912,"department_code":"31","insee_code":"31399","zip_code":"31410","name":"Noé","slug":"noe","gps_lat":43.36172173913042,"gps_lng":1.2724026956521701},{"id":11913,"department_code":"31","insee_code":"31400","zip_code":"31540","name":"Nogaret","slug":"nogaret","gps_lat":43.49111822580645,"gps_lng":1.93693338709677},{"id":11914,"department_code":"31","insee_code":"31401","zip_code":"31450","name":"Noueilles","slug":"noueilles","gps_lat":43.41623333333334,"gps_lng":1.52764142857143},{"id":12400,"department_code":"32","insee_code":"32295","zip_code":"32130","name":"Nizas","slug":"nizas","gps_lat":43.49590698795183,"gps_lng":0.98942108433735},{"id":12401,"department_code":"32","insee_code":"32296","zip_code":"32110","name":"Nogaro","slug":"nogaro","gps_lat":43.7642880128205,"gps_lng":-0.03201487179486995},{"id":12402,"department_code":"32","insee_code":"32297","zip_code":"32130","name":"Noilhan","slug":"noilhan","gps_lat":43.53199166666668,"gps_lng":0.93616782608696},{"id":12403,"department_code":"32","insee_code":"32298","zip_code":"32270","name":"Nougaroulet","slug":"nougaroulet","gps_lat":43.68877100591714,"gps_lng":0.71878236686391},{"id":12404,"department_code":"32","insee_code":"32299","zip_code":"32800","name":"Noulens","slug":"noulens","gps_lat":43.80506500000001,"gps_lng":0.16178936170213},{"id":12871,"department_code":"33","insee_code":"33300","zip_code":"33990","name":"Naujac-sur-Mer","slug":"naujac sur mer","gps_lat":45.26809946236558,"gps_lng":-1.05308967741936},{"id":12872,"department_code":"33","insee_code":"33301","zip_code":"33420","name":"Naujan-et-Postiac","slug":"naujan et postiac","gps_lat":44.78807683333336,"gps_lng":-0.17887874999999998},{"id":12873,"department_code":"33","insee_code":"33302","zip_code":"33500","name":"Néac","slug":"neac","gps_lat":44.94085052631579,"gps_lng":-0.17667936842105003},{"id":12874,"department_code":"33","insee_code":"33303","zip_code":"33750","name":"Nérigean","slug":"nerigean","gps_lat":44.84154635714286,"gps_lng":-0.27960514285714},{"id":12875,"department_code":"33","insee_code":"33304","zip_code":"33580","name":"Neuffons","slug":"neuffons","gps_lat":44.64531272727273,"gps_lng":0.01363282828283},{"id":12877,"department_code":"33","insee_code":"33306","zip_code":"33190","name":"Noaillac","slug":"noaillac","gps_lat":44.51364586956521,"gps_lng":-0.016555652173909974},{"id":12878,"department_code":"33","insee_code":"33307","zip_code":"33730","name":"Noaillan","slug":"noaillan","gps_lat":44.47974744075829,"gps_lng":-0.36884393364929},{"id":13299,"department_code":"34","insee_code":"34180","zip_code":"34800","name":"Nébian","slug":"nebian","gps_lat":43.59854795081965,"gps_lng":3.43692032786885},{"id":13300,"department_code":"34","insee_code":"34181","zip_code":"34320","name":"Neffiès","slug":"neffies","gps_lat":43.53807453124999,"gps_lng":3.3389771875},{"id":13301,"department_code":"34","insee_code":"34182","zip_code":"34120","name":"Nézignan-l'Évêque","slug":"nezignan l eveque","gps_lat":43.42339873563219,"gps_lng":3.40281666666667},{"id":13302,"department_code":"34","insee_code":"34183","zip_code":"34440","name":"Nissan-lez-Enserune","slug":"nissan lez enserune","gps_lat":43.28394768421053,"gps_lng":3.11867084210526},{"id":13303,"department_code":"34","insee_code":"34184","zip_code":"34320","name":"Nizas","slug":"nizas","gps_lat":43.51517126436781,"gps_lng":3.41666229885057},{"id":13304,"department_code":"34","insee_code":"34185","zip_code":"34380","name":"Notre-Dame-de-Londres","slug":"notre dame de londres","gps_lat":43.82673712121211,"gps_lng":3.76011848484848},{"id":13658,"department_code":"35","insee_code":"35204","zip_code":"35410","name":"Nouvoitou","slug":"nouvoitou","gps_lat":48.03197532967032,"gps_lng":-1.55708868131868},{"id":13659,"department_code":"35","insee_code":"35205","zip_code":"35560","name":"Noyal-sous-Bazouges","slug":"noyal sous bazouges","gps_lat":48.41516930348261,"gps_lng":-1.62670975124378},{"id":13660,"department_code":"35","insee_code":"35206","zip_code":"35230","name":"Noyal-Châtillon-sur-Seiche","slug":"noyal chatillon sur seiche","gps_lat":48.05157311355313,"gps_lng":-1.65706963369963},{"id":13661,"department_code":"35","insee_code":"35207","zip_code":"35530","name":"Noyal-sur-Vilaine","slug":"noyal sur vilaine","gps_lat":48.09526509505704,"gps_lng":-1.5063823193916401},{"id":13947,"department_code":"36","insee_code":"36137","zip_code":"36220","name":"Néons-sur-Creuse","slug":"neons sur creuse","gps_lat":46.733939107142874,"gps_lng":0.91413133928571},{"id":13948,"department_code":"36","insee_code":"36138","zip_code":"36400","name":"Néret","slug":"neret","gps_lat":46.56844206349207,"gps_lng":2.14143841269841},{"id":13949,"department_code":"36","insee_code":"36139","zip_code":"36500","name":"Neuillay-les-Bois","slug":"neuillay les bois","gps_lat":46.76037440677967,"gps_lng":1.47419816949153},{"id":13950,"department_code":"36","insee_code":"36140","zip_code":"36100","name":"Neuvy-Pailloux","slug":"neuvy pailloux","gps_lat":46.90485029702968,"gps_lng":1.87271772277228},{"id":13951,"department_code":"36","insee_code":"36141","zip_code":"36230","name":"Neuvy-Saint-Sépulchre","slug":"neuvy saint sepulchre","gps_lat":46.6001514473684,"gps_lng":1.80328065789474},{"id":13952,"department_code":"36","insee_code":"36142","zip_code":"36250","name":"Niherne","slug":"niherne","gps_lat":46.8050218229167,"gps_lng":1.55509223958333},{"id":13953,"department_code":"36","insee_code":"36143","zip_code":"36400","name":"Nohant-Vic","slug":"nohant vic","gps_lat":46.64988859813084,"gps_lng":1.9573321495327098},{"id":13954,"department_code":"36","insee_code":"36144","zip_code":"36800","name":"Nuret-le-Ferron","slug":"nuret le ferron","gps_lat":46.68741337078649,"gps_lng":1.42373028089888},{"id":14209,"department_code":"37","insee_code":"37163","zip_code":"37530","name":"Nazelles-Négron","slug":"nazelles negron","gps_lat":47.43691375,"gps_lng":0.948566},{"id":14210,"department_code":"37","insee_code":"37165","zip_code":"37190","name":"Neuil","slug":"neuil","gps_lat":47.18517347826086,"gps_lng":0.52215086956522},{"id":14211,"department_code":"37","insee_code":"37166","zip_code":"37380","name":"Neuillé-le-Lierre","slug":"neuille le lierre","gps_lat":47.50735,"gps_lng":0.9097251875},{"id":14212,"department_code":"37","insee_code":"37167","zip_code":"37360","name":"Neuillé-Pont-Pierre","slug":"neuille pont pierre","gps_lat":47.55323438502675,"gps_lng":0.54329139037433},{"id":14213,"department_code":"37","insee_code":"37168","zip_code":"37160","name":"Neuilly-le-Brignon","slug":"neuilly le brignon","gps_lat":46.96542886363637,"gps_lng":0.7858946969697},{"id":14214,"department_code":"37","insee_code":"37169","zip_code":"37110","name":"Neuville-sur-Brenne","slug":"neuville sur brenne","gps_lat":47.61515378151262,"gps_lng":0.91053731092437},{"id":14215,"department_code":"37","insee_code":"37170","zip_code":"37370","name":"Neuvy-le-Roi","slug":"neuvy le roi","gps_lat":47.61074236051503,"gps_lng":0.58374927038627},{"id":14216,"department_code":"37","insee_code":"37171","zip_code":"37210","name":"Noizay","slug":"noizay","gps_lat":47.42014819444444,"gps_lng":0.89623055555556},{"id":14217,"department_code":"37","insee_code":"37172","zip_code":"37390","name":"Notre-Dame-d'Oé","slug":"notre dame d oe","gps_lat":47.45355522388061,"gps_lng":0.70423492537313},{"id":14218,"department_code":"37","insee_code":"37173","zip_code":"37460","name":"Nouans-les-Fontaines","slug":"nouans les fontaines","gps_lat":47.12631403141361,"gps_lng":1.3087757591623},{"id":14219,"department_code":"37","insee_code":"37174","zip_code":"37800","name":"Nouâtre","slug":"nouatre","gps_lat":47.0323550617284,"gps_lng":0.56456555555556},{"id":14220,"department_code":"37","insee_code":"37175","zip_code":"37380","name":"Nouzilly","slug":"nouzilly","gps_lat":47.53762125000004,"gps_lng":0.73925763888889},{"id":14221,"department_code":"37","insee_code":"37176","zip_code":"37800","name":"Noyant-de-Touraine","slug":"noyant de touraine","gps_lat":47.10765555555557,"gps_lng":0.57345303030303},{"id":14573,"department_code":"38","insee_code":"38273","zip_code":"38350","name":"Nantes-en-Ratier","slug":"nantes en ratier","gps_lat":44.91953327586204,"gps_lng":5.82713870689655},{"id":14574,"department_code":"38","insee_code":"38274","zip_code":"38260","name":"Nantoin","slug":"nantoin","gps_lat":45.44314591836735,"gps_lng":5.26806204081633},{"id":14576,"department_code":"38","insee_code":"38276","zip_code":"38300","name":"Nivolas-Vermelle","slug":"nivolas vermelle","gps_lat":45.56121891891892,"gps_lng":5.30832612612613},{"id":14577,"department_code":"38","insee_code":"38277","zip_code":"38450","name":"Notre-Dame-de-Commiers","slug":"notre dame de commiers","gps_lat":45.00942528571428,"gps_lng":5.70771628571429},{"id":14578,"department_code":"38","insee_code":"38278","zip_code":"38470","name":"Notre-Dame-de-l'Osier","slug":"notre dame de l osier","gps_lat":45.23625421487601,"gps_lng":5.41441347107438},{"id":14579,"department_code":"38","insee_code":"38279","zip_code":"38220","name":"Notre-Dame-de-Mésage","slug":"notre dame de mesage","gps_lat":45.07044999999999,"gps_lng":5.74914596774194},{"id":14580,"department_code":"38","insee_code":"38280","zip_code":"38144","name":"Notre-Dame-de-Vaulx","slug":"notre dame de vaulx","gps_lat":44.992988,"gps_lng":5.73894438095238},{"id":14581,"department_code":"38","insee_code":"38281","zip_code":"38360","name":"Noyarey","slug":"noyarey","gps_lat":45.24136904761905,"gps_lng":5.60666396825397},{"id":14970,"department_code":"39","insee_code":"39130","zip_code":"39150","name":"Nanchez","slug":"nanchez","gps_lat":46.51661602649008,"gps_lng":5.84745920529801},{"id":15186,"department_code":"39","insee_code":"39379","zip_code":"39140","name":"Nance","slug":"nance","gps_lat":46.75358315315314,"gps_lng":5.41843945945946},{"id":15187,"department_code":"39","insee_code":"39380","zip_code":"39270","name":"Nancuise","slug":"nancuise","gps_lat":46.47242746031745,"gps_lng":5.5317973015873},{"id":15189,"department_code":"39","insee_code":"39385","zip_code":"39120","name":"Neublans-Abergement","slug":"neublans abergement","gps_lat":46.89911990990992,"gps_lng":5.34490846846847},{"id":15190,"department_code":"39","insee_code":"39386","zip_code":"39800","name":"Neuvilley","slug":"neuvilley","gps_lat":46.8960209090909,"gps_lng":5.5994978181818205},{"id":15191,"department_code":"39","insee_code":"39387","zip_code":"39380","name":"Nevy-lès-Dole","slug":"nevy les dole","gps_lat":46.99989032520323,"gps_lng":5.51226430894309},{"id":15192,"department_code":"39","insee_code":"39388","zip_code":"39210","name":"Nevy-sur-Seille","slug":"nevy sur seille","gps_lat":46.73684376811595,"gps_lng":5.64294927536232},{"id":15193,"department_code":"39","insee_code":"39389","zip_code":"39300","name":"Ney","slug":"ney","gps_lat":46.73472971153847,"gps_lng":5.88499788461538},{"id":15194,"department_code":"39","insee_code":"39390","zip_code":"39570","name":"Nogna","slug":"nogna","gps_lat":46.60584428571428,"gps_lng":5.63872163265306},{"id":15195,"department_code":"39","insee_code":"39391","zip_code":"39250","name":"Nozeroy","slug":"nozeroy","gps_lat":46.77015140624999,"gps_lng":6.038969140625},{"id":15570,"department_code":"40","insee_code":"40202","zip_code":"40180","name":"Narrosse","slug":"narrosse","gps_lat":43.68938554347826,"gps_lng":-1.01150663043478},{"id":15571,"department_code":"40","insee_code":"40203","zip_code":"40330","name":"Nassiet","slug":"nassiet","gps_lat":43.59847336898395,"gps_lng":-0.6913085026738},{"id":15572,"department_code":"40","insee_code":"40204","zip_code":"40250","name":"Nerbis","slug":"nerbis","gps_lat":43.74941153846154,"gps_lng":-0.7192270000000001},{"id":15573,"department_code":"40","insee_code":"40205","zip_code":"40380","name":"Nousse","slug":"nousse","gps_lat":43.72327024390243,"gps_lng":-0.82018991869919},{"id":15847,"department_code":"41","insee_code":"41158","zip_code":"41100","name":"Naveil","slug":"naveil","gps_lat":47.78675779527558,"gps_lng":1.0211005511811},{"id":15848,"department_code":"41","insee_code":"41159","zip_code":"41210","name":"Neung-sur-Beuvron","slug":"neung sur beuvron","gps_lat":47.53908374545453,"gps_lng":1.8157608},{"id":15849,"department_code":"41","insee_code":"41160","zip_code":"41250","name":"Neuvy","slug":"neuvy","gps_lat":47.56253557522125,"gps_lng":1.5947339823008901},{"id":15850,"department_code":"41","insee_code":"41161","zip_code":"41600","name":"Nouan-le-Fuzelier","slug":"nouan le fuzelier","gps_lat":47.54346910377356,"gps_lng":2.03994608490566},{"id":15851,"department_code":"41","insee_code":"41163","zip_code":"41310","name":"Nourray","slug":"nourray","gps_lat":47.72078835820895,"gps_lng":1.0483547761194},{"id":15852,"department_code":"41","insee_code":"41164","zip_code":"41140","name":"Noyers-sur-Cher","slug":"noyers sur cher","gps_lat":47.27890348837211,"gps_lng":1.41096},{"id":16120,"department_code":"42","insee_code":"42152","zip_code":"42720","name":"Nandax","slug":"nandax","gps_lat":46.09825855932205,"gps_lng":4.17282889830509},{"id":16121,"department_code":"42","insee_code":"42153","zip_code":"42470","name":"Neaux","slug":"neaux","gps_lat":45.96069070351756,"gps_lng":4.16876663316583},{"id":16122,"department_code":"42","insee_code":"42154","zip_code":"42510","name":"Néronde","slug":"neronde","gps_lat":45.83820236024846,"gps_lng":4.2319601242236},{"id":16123,"department_code":"42","insee_code":"42155","zip_code":"42510","name":"Nervieux","slug":"nervieux","gps_lat":45.81257778378377,"gps_lng":4.13716897297297},{"id":16124,"department_code":"42","insee_code":"42156","zip_code":"42590","name":"Neulise","slug":"neulise","gps_lat":45.90026792452831,"gps_lng":4.17056443396226},{"id":16125,"department_code":"42","insee_code":"42157","zip_code":"42640","name":"Noailly","slug":"noailly","gps_lat":46.14215638888885,"gps_lng":3.99712541666667},{"id":16127,"department_code":"42","insee_code":"42159","zip_code":"42440","name":"Noirétable","slug":"noiretable","gps_lat":45.81291510416671,"gps_lng":3.7427731250000003},{"id":16128,"department_code":"42","insee_code":"42160","zip_code":"42260","name":"Nollieux","slug":"nollieux","gps_lat":45.8181844680851,"gps_lng":3.98870606382979},{"id":16129,"department_code":"42","insee_code":"42161","zip_code":"42120","name":"Notre-Dame-de-Boisset","slug":"notre dame de boisset","gps_lat":45.9876889908257,"gps_lng":4.13391376146789},{"id":16662,"department_code":"44","insee_code":"44109","zip_code":"44000","name":"Nantes","slug":"nantes","gps_lat":47.2239586,"gps_lng":-1.5408058},{"id":16663,"department_code":"44","insee_code":"44109","zip_code":"44100","name":"Nantes","slug":"nantes","gps_lat":47.20803480000001,"gps_lng":-1.5963603},{"id":16664,"department_code":"44","insee_code":"44109","zip_code":"44200","name":"Nantes","slug":"nantes","gps_lat":47.20146769999999,"gps_lng":-1.5411258},{"id":16665,"department_code":"44","insee_code":"44109","zip_code":"44300","name":"Nantes","slug":"nantes","gps_lat":47.2482829,"gps_lng":-1.5439361},{"id":16666,"department_code":"44","insee_code":"44110","zip_code":"44390","name":"Nort-sur-Erdre","slug":"nort sur erdre","gps_lat":47.44458243346012,"gps_lng":-1.51668783269962},{"id":16667,"department_code":"44","insee_code":"44111","zip_code":"44130","name":"Notre-Dame-des-Landes","slug":"notre dame des landes","gps_lat":47.38507056179774,"gps_lng":-1.72421786516854},{"id":16668,"department_code":"44","insee_code":"44112","zip_code":"44110","name":"Noyal-sur-Brutz","slug":"noyal sur brutz","gps_lat":47.77196548148148,"gps_lng":-1.34460555555556},{"id":16669,"department_code":"44","insee_code":"44113","zip_code":"44170","name":"Nozay","slug":"nozay","gps_lat":47.57470415458936,"gps_lng":-1.60422038647343},{"id":16980,"department_code":"45","insee_code":"45220","zip_code":"45340","name":"Nancray-sur-Rimarde","slug":"nancray sur rimarde","gps_lat":48.0652394623656,"gps_lng":2.31851311827957},{"id":16981,"department_code":"45","insee_code":"45222","zip_code":"45210","name":"Nargis","slug":"nargis","gps_lat":48.105864,"gps_lng":2.74823095238095},{"id":16982,"department_code":"45","insee_code":"45223","zip_code":"45270","name":"Nesploy","slug":"nesploy","gps_lat":47.99823486842107,"gps_lng":2.37185539473684},{"id":16983,"department_code":"45","insee_code":"45224","zip_code":"45170","name":"Neuville-aux-Bois","slug":"neuville aux bois","gps_lat":48.06201056179775,"gps_lng":2.06819460674157},{"id":16985,"department_code":"45","insee_code":"45226","zip_code":"45510","name":"Neuvy-en-Sullias","slug":"neuvy en sullias","gps_lat":47.77790161073825,"gps_lng":2.24350275167785},{"id":16986,"department_code":"45","insee_code":"45227","zip_code":"45500","name":"Nevoy","slug":"nevoy","gps_lat":47.73276333333334,"gps_lng":2.58647010752688},{"id":16987,"department_code":"45","insee_code":"45228","zip_code":"45340","name":"Nibelle","slug":"nibelle","gps_lat":48.02076037974683,"gps_lng":2.32483025316456},{"id":16988,"department_code":"45","insee_code":"45229","zip_code":"45290","name":"Nogent-sur-Vernisson","slug":"nogent sur vernisson","gps_lat":47.83754320312499,"gps_lng":2.716144609375},{"id":16989,"department_code":"45","insee_code":"45230","zip_code":"45260","name":"Noyers","slug":"noyers","gps_lat":47.90896184,"gps_lng":2.5365116800000003},{"id":17301,"department_code":"46","insee_code":"46209","zip_code":"46350","name":"Nadaillac-de-Rouge","slug":"nadaillac de rouge","gps_lat":44.85090561983471,"gps_lng":1.43113347107438},{"id":17302,"department_code":"46","insee_code":"46210","zip_code":"46360","name":"Nadillac","slug":"nadillac","gps_lat":44.56114557377049,"gps_lng":1.5116202459016401},{"id":17303,"department_code":"46","insee_code":"46211","zip_code":"46150","name":"Nuzéjouls","slug":"nuzejouls","gps_lat":44.5358432,"gps_lng":1.376706},{"id":17614,"department_code":"47","insee_code":"47195","zip_code":"47600","name":"Nérac","slug":"nerac","gps_lat":44.12957968085106,"gps_lng":0.34280166666667},{"id":17615,"department_code":"47","insee_code":"47196","zip_code":"47190","name":"Nicole","slug":"nicole","gps_lat":44.33266417910447,"gps_lng":0.33698940298507},{"id":17616,"department_code":"47","insee_code":"47197","zip_code":"47600","name":"Nomdieu","slug":"nomdieu","gps_lat":44.08388842519687,"gps_lng":0.4650957480315},{"id":17830,"department_code":"48","insee_code":"48104","zip_code":"48260","name":"Nasbinals","slug":"nasbinals","gps_lat":44.64764002325587,"gps_lng":3.06248046511628},{"id":17831,"department_code":"48","insee_code":"48105","zip_code":"48300","name":"Naussac-Fontanes","slug":"naussac fontanes","gps_lat":44.76226864341089,"gps_lng":3.7979776744186102},{"id":17832,"department_code":"48","insee_code":"48106","zip_code":"48310","name":"Noalhac","slug":"noalhac","gps_lat":44.79870179153093,"gps_lng":3.11361407166124},{"id":18028,"department_code":"49","insee_code":"49224","zip_code":"49680","name":"Neuillé","slug":"neuille","gps_lat":47.33433097087378,"gps_lng":-0.023566893203879946},{"id":18029,"department_code":"49","insee_code":"49228","zip_code":"49390","name":"Noyant-Villages","slug":"noyant villages","gps_lat":47.512893,"gps_lng":0.114414},{"id":18030,"department_code":"49","insee_code":"49228","zip_code":"49490","name":"Noyant-Villages","slug":"noyant villages","gps_lat":47.512893,"gps_lng":0.114414},{"id":18031,"department_code":"49","insee_code":"49231","zip_code":"49340","name":"Nuaillé","slug":"nuaille","gps_lat":47.08663489583335,"gps_lng":-0.781113125},{"id":18404,"department_code":"50","insee_code":"50368","zip_code":"50190","name":"Nay","slug":"nay","gps_lat":49.23935453608248,"gps_lng":-1.37166958762887},{"id":18405,"department_code":"50","insee_code":"50369","zip_code":"50260","name":"Négreville","slug":"negreville","gps_lat":49.50215549222798,"gps_lng":-1.5569496373057001},{"id":18406,"department_code":"50","insee_code":"50370","zip_code":"50390","name":"Néhou","slug":"nehou","gps_lat":49.42890294354836,"gps_lng":-1.56126387096774},{"id":18408,"department_code":"50","insee_code":"50372","zip_code":"50250","name":"Neufmesnil","slug":"neufmesnil","gps_lat":49.31237354545458,"gps_lng":-1.53467545454545},{"id":18409,"department_code":"50","insee_code":"50373","zip_code":"50480","name":"Neuville-au-Plain","slug":"neuville au plain","gps_lat":49.42271118421054,"gps_lng":-1.33294868421053},{"id":18410,"department_code":"50","insee_code":"50374","zip_code":"50250","name":"Neuville-en-Beaumont","slug":"neuville en beaumont","gps_lat":49.3493438888889,"gps_lng":-1.59670222222222},{"id":18411,"department_code":"50","insee_code":"50376","zip_code":"50200","name":"Nicorps","slug":"nicorps","gps_lat":49.03584912751677,"gps_lng":-1.41066617449664},{"id":18412,"department_code":"50","insee_code":"50378","zip_code":"50210","name":"Notre-Dame-de-Cenilly","slug":"notre dame de cenilly","gps_lat":49.00785179487176,"gps_lng":-1.26481131410257},{"id":18413,"department_code":"50","insee_code":"50379","zip_code":"50370","name":"Notre-Dame-de-Livoye","slug":"notre dame de livoye","gps_lat":48.74727864285715,"gps_lng":-1.19707814285714},{"id":18414,"department_code":"50","insee_code":"50382","zip_code":"50690","name":"Nouainville","slug":"nouainville","gps_lat":49.61922545454546,"gps_lng":-1.68096257575758},{"id":18987,"department_code":"51","insee_code":"51393","zip_code":"51480","name":"Nanteuil-la-Forêt","slug":"nanteuil la foret","gps_lat":49.13058620689656,"gps_lng":3.92404765517241},{"id":18988,"department_code":"51","insee_code":"51395","zip_code":"51120","name":"Nesle-la-Reposte","slug":"nesle la reposte","gps_lat":48.6261258252427,"gps_lng":3.55396436893204},{"id":18989,"department_code":"51","insee_code":"51396","zip_code":"51700","name":"Nesle-le-Repons","slug":"nesle le repons","gps_lat":49.04699606557377,"gps_lng":3.71592639344262},{"id":18993,"department_code":"51","insee_code":"51402","zip_code":"51310","name":"Neuvy","slug":"neuvy","gps_lat":48.73925888888886,"gps_lng":3.5105496031746},{"id":18994,"department_code":"51","insee_code":"51403","zip_code":"51420","name":"Nogent-l'Abbesse","slug":"nogent l abbesse","gps_lat":49.25006520000002,"gps_lng":4.1576808},{"id":18995,"department_code":"51","insee_code":"51404","zip_code":"51330","name":"Noirlieu","slug":"noirlieu","gps_lat":48.93884600000001,"gps_lng":4.81146781818182},{"id":18996,"department_code":"51","insee_code":"51406","zip_code":"51300","name":"Norrois","slug":"norrois","gps_lat":48.67034047619049,"gps_lng":4.6195175},{"id":18998,"department_code":"51","insee_code":"51409","zip_code":"51240","name":"Nuisement-sur-Coole","slug":"nuisement sur coole","gps_lat":48.87553513888889,"gps_lng":4.30042222222222},{"id":19508,"department_code":"52","insee_code":"52347","zip_code":"52170","name":"Narcy","slug":"narcy","gps_lat":48.5823345652174,"gps_lng":5.10334956521739},{"id":19509,"department_code":"52","insee_code":"52348","zip_code":"52360","name":"Neuilly-l'Évêque","slug":"neuilly l eveque","gps_lat":47.91947252631581,"gps_lng":5.439836},{"id":19510,"department_code":"52","insee_code":"52349","zip_code":"52000","name":"Neuilly-sur-Suize","slug":"neuilly sur suize","gps_lat":48.03705436781609,"gps_lng":5.12719747126437},{"id":19511,"department_code":"52","insee_code":"52350","zip_code":"52400","name":"Neuvelle-lès-Voisey","slug":"neuvelle les voisey","gps_lat":47.86265014285715,"gps_lng":5.79049057142857},{"id":19512,"department_code":"52","insee_code":"52352","zip_code":"52800","name":"Ninville","slug":"ninville","gps_lat":48.07135377952758,"gps_lng":5.44201464566929},{"id":19513,"department_code":"52","insee_code":"52353","zip_code":"52800","name":"Nogent","slug":"nogent","gps_lat":48.04177766578244,"gps_lng":5.36299098143236},{"id":19514,"department_code":"52","insee_code":"52354","zip_code":"52600","name":"Noidant-Chatenoy","slug":"noidant chatenoy","gps_lat":47.79100354166668,"gps_lng":5.378315},{"id":19515,"department_code":"52","insee_code":"52355","zip_code":"52200","name":"Noidant-le-Rocheux","slug":"noidant le rocheux","gps_lat":47.82604491525423,"gps_lng":5.25553805084746},{"id":19516,"department_code":"52","insee_code":"52356","zip_code":"52300","name":"Nomécourt","slug":"nomecourt","gps_lat":48.4345840186916,"gps_lng":5.07603598130841},{"id":19517,"department_code":"52","insee_code":"52357","zip_code":"52230","name":"Noncourt-sur-le-Rongeant","slug":"noncourt sur le rongeant","gps_lat":48.42040151162791,"gps_lng":5.25392197674419},{"id":19518,"department_code":"52","insee_code":"52358","zip_code":"52240","name":"Noyers","slug":"noyers","gps_lat":48.0623366935484,"gps_lng":5.48308306451613},{"id":19519,"department_code":"52","insee_code":"52359","zip_code":"52110","name":"Nully","slug":"nully","gps_lat":48.36837880681817,"gps_lng":4.81695238636364},{"id":19820,"department_code":"53","insee_code":"53163","zip_code":"53150","name":"Neau","slug":"neau","gps_lat":48.1679630857143,"gps_lng":-0.47068451428571},{"id":19821,"department_code":"53","insee_code":"53164","zip_code":"53250","name":"Neuilly-le-Vendin","slug":"neuilly le vendin","gps_lat":48.49194045454545,"gps_lng":-0.32666513636364003},{"id":19822,"department_code":"53","insee_code":"53165","zip_code":"53400","name":"Niafles","slug":"niafles","gps_lat":47.8468548148148,"gps_lng":-1.0038981481481501},{"id":19823,"department_code":"53","insee_code":"53168","zip_code":"53970","name":"Nuillé-sur-Vicoin","slug":"nuille sur vicoin","gps_lat":47.98262224299067,"gps_lng":-0.78329742990654},{"id":20311,"department_code":"54","insee_code":"54395","zip_code":"54000","name":"Nancy","slug":"nancy","gps_lat":48.6896459,"gps_lng":6.1737197},{"id":20312,"department_code":"54","insee_code":"54395","zip_code":"54100","name":"Nancy","slug":"nancy","gps_lat":48.70236569999999,"gps_lng":6.1477722},{"id":20313,"department_code":"54","insee_code":"54396","zip_code":"54540","name":"Neufmaisons","slug":"neufmaisons","gps_lat":48.44908497512438,"gps_lng":6.86780129353234},{"id":20314,"department_code":"54","insee_code":"54397","zip_code":"54230","name":"Neuves-Maisons","slug":"neuves maisons","gps_lat":48.61818239583334,"gps_lng":6.10817083333333},{"id":20315,"department_code":"54","insee_code":"54398","zip_code":"54540","name":"Neuviller-lès-Badonviller","slug":"neuviller les badonviller","gps_lat":48.52099650485435,"gps_lng":6.88067669902913},{"id":20316,"department_code":"54","insee_code":"54399","zip_code":"54290","name":"Neuviller-sur-Moselle","slug":"neuviller sur moselle","gps_lat":48.49044298507462,"gps_lng":6.27956925373134},{"id":20317,"department_code":"54","insee_code":"54400","zip_code":"54610","name":"Nomeny","slug":"nomeny","gps_lat":48.87876396449702,"gps_lng":6.23051852071006},{"id":20318,"department_code":"54","insee_code":"54401","zip_code":"54450","name":"Nonhigny","slug":"nonhigny","gps_lat":48.54769817307694,"gps_lng":6.88939625},{"id":20319,"department_code":"54","insee_code":"54402","zip_code":"54150","name":"Norroy-le-Sec","slug":"norroy le sec","gps_lat":49.2770366153846,"gps_lng":5.80777415384616},{"id":20320,"department_code":"54","insee_code":"54403","zip_code":"54700","name":"Norroy-lès-Pont-à-Mousson","slug":"norroy les pont a mousson","gps_lat":48.93273153846156,"gps_lng":6.01204483516484},{"id":20321,"department_code":"54","insee_code":"54404","zip_code":"54385","name":"Noviant-aux-Prés","slug":"noviant aux pres","gps_lat":48.84514782945737,"gps_lng":5.8883311627907},{"id":20829,"department_code":"55","insee_code":"55368","zip_code":"55190","name":"Naives-en-Blois","slug":"naives en blois","gps_lat":48.66512923076924,"gps_lng":5.55025294871795},{"id":20830,"department_code":"55","insee_code":"55369","zip_code":"55000","name":"Naives-Rosières","slug":"naives rosieres","gps_lat":48.80127040322581,"gps_lng":5.2262785483871},{"id":20831,"department_code":"55","insee_code":"55370","zip_code":"55500","name":"Naix-aux-Forges","slug":"naix aux forges","gps_lat":48.63214481203006,"gps_lng":5.37082834586466},{"id":20832,"department_code":"55","insee_code":"55371","zip_code":"55500","name":"Nançois-le-Grand","slug":"nancois le grand","gps_lat":48.71651457831325,"gps_lng":5.39221},{"id":20833,"department_code":"55","insee_code":"55372","zip_code":"55500","name":"Nançois-sur-Ornain","slug":"nancois sur ornain","gps_lat":48.72251723684209,"gps_lng":5.3170523684210504},{"id":20834,"department_code":"55","insee_code":"55373","zip_code":"55500","name":"Nant-le-Grand","slug":"nant le grand","gps_lat":48.67896933962263,"gps_lng":5.23128726415094},{"id":20835,"department_code":"55","insee_code":"55374","zip_code":"55500","name":"Nant-le-Petit","slug":"nant le petit","gps_lat":48.65239496644294,"gps_lng":5.22391711409396},{"id":20836,"department_code":"55","insee_code":"55375","zip_code":"55270","name":"Nantillois","slug":"nantillois","gps_lat":49.30239499999999,"gps_lng":5.13119892857143},{"id":20837,"department_code":"55","insee_code":"55376","zip_code":"55500","name":"Nantois","slug":"nantois","gps_lat":48.62762811764705,"gps_lng":5.34644258823529},{"id":20838,"department_code":"55","insee_code":"55377","zip_code":"55700","name":"Nepvant","slug":"nepvant","gps_lat":49.53815163934424,"gps_lng":5.22586524590164},{"id":20839,"department_code":"55","insee_code":"55378","zip_code":"55800","name":"Nettancourt","slug":"nettancourt","gps_lat":48.87221311111111,"gps_lng":4.93480444444444},{"id":20841,"department_code":"55","insee_code":"55380","zip_code":"55260","name":"Neuville-en-Verdunois","slug":"neuville en verdunois","gps_lat":48.94590096551725,"gps_lng":5.30644365517241},{"id":20842,"department_code":"55","insee_code":"55381","zip_code":"55140","name":"Neuville-lès-Vaucouleurs","slug":"neuville les vaucouleurs","gps_lat":48.57731347457627,"gps_lng":5.66149110169491},{"id":20843,"department_code":"55","insee_code":"55382","zip_code":"55800","name":"Neuville-sur-Ornain","slug":"neuville sur ornain","gps_lat":48.82211320000002,"gps_lng":5.05288592},{"id":20844,"department_code":"55","insee_code":"55383","zip_code":"55120","name":"Neuvilly-en-Argonne","slug":"neuvilly en argonne","gps_lat":49.16320118852454,"gps_lng":5.0231274590164},{"id":20845,"department_code":"55","insee_code":"55384","zip_code":"55260","name":"Nicey-sur-Aire","slug":"nicey sur aire","gps_lat":48.89127386666667,"gps_lng":5.34955293333333},{"id":20846,"department_code":"55","insee_code":"55385","zip_code":"55120","name":"Nixéville-Blercourt","slug":"nixeville blercourt","gps_lat":49.11091467532466,"gps_lng":5.25474772727273},{"id":20847,"department_code":"55","insee_code":"55386","zip_code":"55210","name":"Nonsard-Lamarche","slug":"nonsard lamarche","gps_lat":48.93271784883719,"gps_lng":5.75973313953488},{"id":20848,"department_code":"55","insee_code":"55387","zip_code":"55230","name":"Nouillonpont","slug":"nouillonpont","gps_lat":49.35854196581194,"gps_lng":5.65675256410256},{"id":20849,"department_code":"55","insee_code":"55388","zip_code":"55800","name":"Noyers-Auzécourt","slug":"noyers auzecourt","gps_lat":48.88403325925925,"gps_lng":4.97801407407407},{"id":20850,"department_code":"55","insee_code":"55389","zip_code":"55250","name":"Nubécourt","slug":"nubecourt","gps_lat":49.0083874074074,"gps_lng":5.17371808641975},{"id":21157,"department_code":"56","insee_code":"56145","zip_code":"56430","name":"Néant-sur-Yvel","slug":"neant sur yvel","gps_lat":48.02249811827954,"gps_lng":-2.3333561827957},{"id":21158,"department_code":"56","insee_code":"56146","zip_code":"56300","name":"Neulliac","slug":"neulliac","gps_lat":48.12419564748201,"gps_lng":-2.96772165467626},{"id":21159,"department_code":"56","insee_code":"56147","zip_code":"56130","name":"Nivillac","slug":"nivillac","gps_lat":47.53342756198348,"gps_lng":-2.25218301652893},{"id":21160,"department_code":"56","insee_code":"56148","zip_code":"56690","name":"Nostang","slug":"nostang","gps_lat":47.76044772486772,"gps_lng":-3.17598883597884},{"id":21161,"department_code":"56","insee_code":"56149","zip_code":"56190","name":"Noyal-Muzillac","slug":"noyal muzillac","gps_lat":47.60217813432832,"gps_lng":-2.4573763432835802},{"id":21162,"department_code":"56","insee_code":"56151","zip_code":"56920","name":"Noyal-Pontivy","slug":"noyal pontivy","gps_lat":48.06023846026492,"gps_lng":-2.89099486754967},{"id":21743,"department_code":"57","insee_code":"57495","zip_code":"57220","name":"Narbéfontaine","slug":"narbefontaine","gps_lat":49.13610788461541,"gps_lng":6.5478719230769205},{"id":21744,"department_code":"57","insee_code":"57496","zip_code":"57670","name":"Nébing","slug":"nebing","gps_lat":48.90580336633664,"gps_lng":6.81199376237624},{"id":21745,"department_code":"57","insee_code":"57497","zip_code":"57670","name":"Nelling","slug":"nelling","gps_lat":48.96995760416666,"gps_lng":6.85884333333333},{"id":21746,"department_code":"57","insee_code":"57498","zip_code":"57700","name":"Neufchef","slug":"neufchef","gps_lat":49.31866741379313,"gps_lng":6.01525155172414},{"id":21747,"department_code":"57","insee_code":"57499","zip_code":"57910","name":"Neufgrange","slug":"neufgrange","gps_lat":49.07612085714287,"gps_lng":7.06474647619047},{"id":21748,"department_code":"57","insee_code":"57500","zip_code":"57830","name":"Neufmoulins","slug":"neufmoulins","gps_lat":48.67810951612903,"gps_lng":6.9711970967742},{"id":21749,"department_code":"57","insee_code":"57501","zip_code":"57670","name":"Neufvillage","slug":"neufvillage","gps_lat":48.9345457142857,"gps_lng":6.77912904761905},{"id":21750,"department_code":"57","insee_code":"57502","zip_code":"57320","name":"Neunkirchen-lès-Bouzonville","slug":"neunkirchen les bouzonville","gps_lat":49.34733130434782,"gps_lng":6.56250333333333},{"id":21751,"department_code":"57","insee_code":"57504","zip_code":"57560","name":"Niderhoff","slug":"niderhoff","gps_lat":48.62868461538461,"gps_lng":7.00753759615385},{"id":21752,"department_code":"57","insee_code":"57505","zip_code":"57565","name":"Niderviller","slug":"niderviller","gps_lat":48.71096679245284,"gps_lng":7.10114094339623},{"id":21753,"department_code":"57","insee_code":"57506","zip_code":"57930","name":"Niederstinzel","slug":"niederstinzel","gps_lat":48.87059978723406,"gps_lng":7.02182361702127},{"id":21754,"department_code":"57","insee_code":"57507","zip_code":"57220","name":"Niedervisse","slug":"niedervisse","gps_lat":49.16129315789472,"gps_lng":6.5637782894736905},{"id":21755,"department_code":"57","insee_code":"57508","zip_code":"57240","name":"Nilvange","slug":"nilvange","gps_lat":49.34284091954022,"gps_lng":6.04920448275862},{"id":21756,"department_code":"57","insee_code":"57509","zip_code":"57790","name":"Nitting","slug":"nitting","gps_lat":48.6576925609756,"gps_lng":7.04933676829268},{"id":21757,"department_code":"57","insee_code":"57510","zip_code":"57645","name":"Noisseville","slug":"noisseville","gps_lat":49.1337050819672,"gps_lng":6.26824426229508},{"id":21758,"department_code":"57","insee_code":"57511","zip_code":"57140","name":"Norroy-le-Veneur","slug":"norroy le veneur","gps_lat":49.1786776,"gps_lng":6.1094219},{"id":21759,"department_code":"57","insee_code":"57512","zip_code":"57645","name":"Nouilly","slug":"nouilly","gps_lat":49.1340676470588,"gps_lng":6.25652529411765},{"id":21760,"department_code":"57","insee_code":"57513","zip_code":"57720","name":"Nousseviller-lès-Bitche","slug":"nousseviller les bitche","gps_lat":49.10184145833333,"gps_lng":7.37310854166667},{"id":21761,"department_code":"57","insee_code":"57514","zip_code":"57990","name":"Nousseviller-Saint-Nabor","slug":"nousseviller saint nabor","gps_lat":49.12871189873416,"gps_lng":6.97193329113924},{"id":21762,"department_code":"57","insee_code":"57515","zip_code":"57680","name":"Novéant-sur-Moselle","slug":"noveant sur moselle","gps_lat":49.03791826086958,"gps_lng":6.03449365217391},{"id":22185,"department_code":"58","insee_code":"58188","zip_code":"58350","name":"Nannay","slug":"nannay","gps_lat":47.26029797468356,"gps_lng":3.16622778481013},{"id":22186,"department_code":"58","insee_code":"58189","zip_code":"58400","name":"Narcy","slug":"narcy","gps_lat":47.23551692307693,"gps_lng":3.10283644230769},{"id":22187,"department_code":"58","insee_code":"58190","zip_code":"58190","name":"Neuffontaines","slug":"neuffontaines","gps_lat":47.35193561983471,"gps_lng":3.73371214876033},{"id":22188,"department_code":"58","insee_code":"58191","zip_code":"58420","name":"Neuilly","slug":"neuilly","gps_lat":47.24104564102565,"gps_lng":3.51635435897436},{"id":22189,"department_code":"58","insee_code":"58192","zip_code":"58300","name":"Neuville-lès-Decize","slug":"neuville les decize","gps_lat":46.78319159509201,"gps_lng":3.30380282208589},{"id":22190,"department_code":"58","insee_code":"58193","zip_code":"58450","name":"Neuvy-sur-Loire","slug":"neuvy sur loire","gps_lat":47.5416118309859,"gps_lng":2.8886876056338},{"id":22191,"department_code":"58","insee_code":"58194","zip_code":"58000","name":"Nevers","slug":"nevers","gps_lat":46.98818468085107,"gps_lng":3.16012241134752},{"id":22193,"department_code":"58","insee_code":"58196","zip_code":"58700","name":"Nolay","slug":"nolay","gps_lat":47.12345651452284,"gps_lng":3.32138112033195},{"id":22194,"department_code":"58","insee_code":"58197","zip_code":"58190","name":"Nuars","slug":"nuars","gps_lat":47.3887627586207,"gps_lng":3.71213393103448},{"id":22727,"department_code":"59","insee_code":"59422","zip_code":"59161","name":"Naves","slug":"naves","gps_lat":50.20160252631581,"gps_lng":3.31806578947368},{"id":22728,"department_code":"59","insee_code":"59423","zip_code":"59940","name":"Neuf-Berquin","slug":"neuf berquin","gps_lat":50.66701911764708,"gps_lng":2.66280352941176},{"id":22729,"department_code":"59","insee_code":"59424","zip_code":"59330","name":"Neuf-Mesnil","slug":"neuf mesnil","gps_lat":50.26592387096773,"gps_lng":3.91226032258065},{"id":22730,"department_code":"59","insee_code":"59425","zip_code":"59218","name":"Neuville-en-Avesnois","slug":"neuville en avesnois","gps_lat":50.19932221238938,"gps_lng":3.58569318584071},{"id":22731,"department_code":"59","insee_code":"59426","zip_code":"59960","name":"Neuville-en-Ferrain","slug":"neuville en ferrain","gps_lat":50.75217235955055,"gps_lng":3.15851494382022},{"id":22733,"department_code":"59","insee_code":"59428","zip_code":"59554","name":"Neuville-Saint-Rémy","slug":"neuville saint remy","gps_lat":50.18747657142855,"gps_lng":3.21941728571429},{"id":22734,"department_code":"59","insee_code":"59429","zip_code":"59293","name":"Neuville-sur-Escaut","slug":"neuville sur escaut","gps_lat":50.29022123595504,"gps_lng":3.35181831460674},{"id":22735,"department_code":"59","insee_code":"59430","zip_code":"59360","name":"Neuvilly","slug":"neuvilly","gps_lat":50.13441921568629,"gps_lng":3.5084218627451},{"id":22736,"department_code":"59","insee_code":"59431","zip_code":"59850","name":"Nieppe","slug":"nieppe","gps_lat":50.69843867924529,"gps_lng":2.8214679245283},{"id":22737,"department_code":"59","insee_code":"59432","zip_code":"59400","name":"Niergnies","slug":"niergnies","gps_lat":50.14096328767123,"gps_lng":3.25557890410959},{"id":22738,"department_code":"59","insee_code":"59433","zip_code":"59143","name":"Nieurlet","slug":"nieurlet","gps_lat":50.79649229166665,"gps_lng":2.2742603125},{"id":22739,"department_code":"59","insee_code":"59434","zip_code":"59230","name":"Nivelle","slug":"nivelle","gps_lat":50.46802657894735,"gps_lng":3.45513412280702},{"id":22740,"department_code":"59","insee_code":"59435","zip_code":"59310","name":"Nomain","slug":"nomain","gps_lat":50.50078249999999,"gps_lng":3.24778763157895},{"id":22741,"department_code":"59","insee_code":"59436","zip_code":"59670","name":"Noordpeene","slug":"noordpeene","gps_lat":50.79453494382023,"gps_lng":2.3687131460674102},{"id":22742,"department_code":"59","insee_code":"59437","zip_code":"59139","name":"Noyelles-lès-Seclin","slug":"noyelles les seclin","gps_lat":50.57430064516129,"gps_lng":3.01988887096774},{"id":22743,"department_code":"59","insee_code":"59438","zip_code":"59159","name":"Noyelles-sur-Escaut","slug":"noyelles sur escaut","gps_lat":50.13867556818181,"gps_lng":3.17712897727273},{"id":22744,"department_code":"59","insee_code":"59439","zip_code":"59550","name":"Noyelles-sur-Sambre","slug":"noyelles sur sambre","gps_lat":50.16486631067962,"gps_lng":3.79302708737864},{"id":22745,"department_code":"59","insee_code":"59440","zip_code":"59282","name":"Noyelles-sur-Selle","slug":"noyelles sur selle","gps_lat":50.28032409090909,"gps_lng":3.38625651515152},{"id":23408,"department_code":"60","insee_code":"60445","zip_code":"60400","name":"Nampcel","slug":"nampcel","gps_lat":49.49580252173912,"gps_lng":3.09555052173913},{"id":23409,"department_code":"60","insee_code":"60446","zip_code":"60440","name":"Nanteuil-le-Haudouin","slug":"nanteuil le haudouin","gps_lat":49.14190587500002,"gps_lng":2.8062620000000003},{"id":23410,"department_code":"60","insee_code":"60447","zip_code":"60320","name":"Néry","slug":"nery","gps_lat":49.27233125,"gps_lng":2.7802672794117598},{"id":23411,"department_code":"60","insee_code":"60448","zip_code":"60890","name":"Neufchelles","slug":"neufchelles","gps_lat":49.11762170542638,"gps_lng":3.05261387596899},{"id":23412,"department_code":"60","insee_code":"60449","zip_code":"60190","name":"Neufvy-sur-Aronde","slug":"neufvy sur aronde","gps_lat":49.51172876106197,"gps_lng":2.6562617699115},{"id":23413,"department_code":"60","insee_code":"60450","zip_code":"60530","name":"Neuilly-en-Thelle","slug":"neuilly en thelle","gps_lat":49.22898672897198,"gps_lng":2.28070009345794},{"id":23414,"department_code":"60","insee_code":"60451","zip_code":"60290","name":"Neuilly-sous-Clermont","slug":"neuilly sous clermont","gps_lat":49.34843094736841,"gps_lng":2.40358863157895},{"id":23415,"department_code":"60","insee_code":"60452","zip_code":"60119","name":"Neuville-Bosc","slug":"neuville bosc","gps_lat":49.20391799999999,"gps_lng":2.0127085},{"id":23423,"department_code":"60","insee_code":"60461","zip_code":"60510","name":"Nivillers","slug":"nivillers","gps_lat":49.45063137254902,"gps_lng":2.17046196078431},{"id":23424,"department_code":"60","insee_code":"60462","zip_code":"60430","name":"Noailles","slug":"noailles","gps_lat":49.32214174418604,"gps_lng":2.19667639534884},{"id":23425,"department_code":"60","insee_code":"60463","zip_code":"60180","name":"Nogent-sur-Oise","slug":"nogent sur oise","gps_lat":49.27930909909909,"gps_lng":2.46069018018018},{"id":23426,"department_code":"60","insee_code":"60464","zip_code":"60840","name":"Nointel","slug":"nointel","gps_lat":49.38710028985507,"gps_lng":2.48753420289855},{"id":23427,"department_code":"60","insee_code":"60465","zip_code":"60480","name":"Noirémont","slug":"noiremont","gps_lat":49.548817375,"gps_lng":2.214865625},{"id":23428,"department_code":"60","insee_code":"60466","zip_code":"60130","name":"Noroy","slug":"noroy","gps_lat":49.44571326923075,"gps_lng":2.51012403846154},{"id":23429,"department_code":"60","insee_code":"60468","zip_code":"60130","name":"Nourard-le-Franc","slug":"nourard le franc","gps_lat":49.49989827160493,"gps_lng":2.35852530864198},{"id":23430,"department_code":"60","insee_code":"60469","zip_code":"60730","name":"Novillers","slug":"novillers","gps_lat":49.27386326530611,"gps_lng":2.22217183673469},{"id":23431,"department_code":"60","insee_code":"60470","zip_code":"60480","name":"Noyers-Saint-Martin","slug":"noyers saint martin","gps_lat":49.55192888888887,"gps_lng":2.26701577777778},{"id":23432,"department_code":"60","insee_code":"60471","zip_code":"60400","name":"Noyon","slug":"noyon","gps_lat":49.57592593457945,"gps_lng":3.01107574766355},{"id":23897,"department_code":"61","insee_code":"61301","zip_code":"61500","name":"Neauphe-sous-Essai","slug":"neauphe sous essai","gps_lat":48.56215272727271,"gps_lng":0.1927801010101},{"id":23898,"department_code":"61","insee_code":"61302","zip_code":"61160","name":"Neauphe-sur-Dive","slug":"neauphe sur dive","gps_lat":48.84901657718123,"gps_lng":0.09207456375839},{"id":23899,"department_code":"61","insee_code":"61303","zip_code":"61160","name":"Nécy","slug":"necy","gps_lat":48.83060287128714,"gps_lng":-0.11823455445544995},{"id":23900,"department_code":"61","insee_code":"61304","zip_code":"61250","name":"Neuilly-le-Bisson","slug":"neuilly le bisson","gps_lat":48.50242096153845,"gps_lng":0.22362692307692},{"id":23901,"department_code":"61","insee_code":"61307","zip_code":"61120","name":"Neuville-sur-Touques","slug":"neuville sur touques","gps_lat":48.86710877049182,"gps_lng":0.28030049180328},{"id":23902,"department_code":"61","insee_code":"61308","zip_code":"61210","name":"Neuvy-au-Houlme","slug":"neuvy au houlme","gps_lat":48.82306677824265,"gps_lng":-0.20154209205021},{"id":23904,"department_code":"61","insee_code":"61310","zip_code":"61240","name":"Nonant-le-Pin","slug":"nonant le pin","gps_lat":48.70627011428571,"gps_lng":0.20834862857143},{"id":24648,"department_code":"62","insee_code":"62599","zip_code":"62142","name":"Nabringhen","slug":"nabringhen","gps_lat":50.74059285714286,"gps_lng":1.86064726190476},{"id":24649,"department_code":"62","insee_code":"62600","zip_code":"62550","name":"Nédon","slug":"nedon","gps_lat":50.51589639999998,"gps_lng":2.35945733333333},{"id":24650,"department_code":"62","insee_code":"62601","zip_code":"62550","name":"Nédonchel","slug":"nedonchel","gps_lat":50.52616833333335,"gps_lng":2.3532460784313702},{"id":24651,"department_code":"62","insee_code":"62602","zip_code":"62180","name":"Nempont-Saint-Firmin","slug":"nempont saint firmin","gps_lat":50.36092706666667,"gps_lng":1.7433177333333298},{"id":24652,"department_code":"62","insee_code":"62603","zip_code":"62152","name":"Nesles","slug":"nesles","gps_lat":50.62263094594594,"gps_lng":1.6602441891891901},{"id":24653,"department_code":"62","insee_code":"62604","zip_code":"62152","name":"Neufchâtel-Hardelot","slug":"neufchatel hardelot","gps_lat":50.61663691275169,"gps_lng":1.62505711409396},{"id":24654,"department_code":"62","insee_code":"62605","zip_code":"62770","name":"Neulette","slug":"neulette","gps_lat":50.3826629032258,"gps_lng":2.16616},{"id":24655,"department_code":"62","insee_code":"62606","zip_code":"62840","name":"Neuve-Chapelle","slug":"neuve chapelle","gps_lat":50.587388125,"gps_lng":2.780741875},{"id":24656,"department_code":"62","insee_code":"62607","zip_code":"62130","name":"Neuville-au-Cornet","slug":"neuville au cornet","gps_lat":50.33488523809524,"gps_lng":2.36818023809524},{"id":24657,"department_code":"62","insee_code":"62608","zip_code":"62124","name":"Neuville-Bourjonval","slug":"neuville bourjonval","gps_lat":50.06610166666668,"gps_lng":3.01992259259259},{"id":24658,"department_code":"62","insee_code":"62609","zip_code":"62580","name":"Neuville-Saint-Vaast","slug":"neuville saint vaast","gps_lat":50.36231049504948,"gps_lng":2.7549004950495},{"id":24659,"department_code":"62","insee_code":"62610","zip_code":"62170","name":"Neuville-sous-Montreuil","slug":"neuville sous montreuil","gps_lat":50.47898818897638,"gps_lng":1.79043748031496},{"id":24660,"department_code":"62","insee_code":"62611","zip_code":"62217","name":"Neuville-Vitasse","slug":"neuville vitasse","gps_lat":50.24974080645162,"gps_lng":2.82067241935484},{"id":24661,"department_code":"62","insee_code":"62612","zip_code":"62580","name":"Neuvireuil","slug":"neuvireuil","gps_lat":50.35472346153847,"gps_lng":2.9161138461538503},{"id":24662,"department_code":"62","insee_code":"62613","zip_code":"62380","name":"Nielles-lès-Bléquin","slug":"nielles les blequin","gps_lat":50.67262237410071,"gps_lng":2.0264564028777},{"id":24663,"department_code":"62","insee_code":"62614","zip_code":"62610","name":"Nielles-lès-Ardres","slug":"nielles les ardres","gps_lat":50.85152265624998,"gps_lng":2.0085209375},{"id":24664,"department_code":"62","insee_code":"62615","zip_code":"62185","name":"Nielles-lès-Calais","slug":"nielles les calais","gps_lat":50.90815836734694,"gps_lng":1.83552020408163},{"id":24665,"department_code":"62","insee_code":"62616","zip_code":"62390","name":"Nœux-lès-Auxi","slug":"noeux les auxi","gps_lat":50.24057291666668,"gps_lng":2.17870927083333},{"id":24666,"department_code":"62","insee_code":"62617","zip_code":"62290","name":"Nœux-les-Mines","slug":"noeux les mines","gps_lat":50.47623500000002,"gps_lng":2.66315701923077},{"id":24667,"department_code":"62","insee_code":"62618","zip_code":"62890","name":"Nordausques","slug":"nordausques","gps_lat":50.81403197530864,"gps_lng":2.08251185185185},{"id":24668,"department_code":"62","insee_code":"62619","zip_code":"62128","name":"Noreuil","slug":"noreuil","gps_lat":50.16826946666666,"gps_lng":2.9380981333333303},{"id":24669,"department_code":"62","insee_code":"62620","zip_code":"62120","name":"Norrent-Fontes","slug":"norrent fontes","gps_lat":50.5891334259259,"gps_lng":2.41277055555555},{"id":24670,"department_code":"62","insee_code":"62621","zip_code":"62370","name":"Nortkerque","slug":"nortkerque","gps_lat":50.87468430379746,"gps_lng":2.03833139240506},{"id":24671,"department_code":"62","insee_code":"62622","zip_code":"62890","name":"Nort-Leulinghem","slug":"nort leulinghem","gps_lat":50.79640526315792,"gps_lng":2.08781754385965},{"id":24672,"department_code":"62","insee_code":"62623","zip_code":"62370","name":"Nouvelle-Église","slug":"nouvelle eglise","gps_lat":50.93456276315791,"gps_lng":2.04515710526316},{"id":24673,"department_code":"62","insee_code":"62624","zip_code":"62950","name":"Noyelles-Godault","slug":"noyelles godault","gps_lat":50.42016433333335,"gps_lng":2.99214483333333},{"id":24674,"department_code":"62","insee_code":"62625","zip_code":"62770","name":"Noyelles-lès-Humières","slug":"noyelles les humieres","gps_lat":50.37570352941176,"gps_lng":2.17780647058824},{"id":24675,"department_code":"62","insee_code":"62626","zip_code":"62980","name":"Noyelles-lès-Vermelles","slug":"noyelles les vermelles","gps_lat":50.4913319117647,"gps_lng":2.72859411764706},{"id":24676,"department_code":"62","insee_code":"62627","zip_code":"62490","name":"Noyelles-sous-Bellonne","slug":"noyelles sous bellonne","gps_lat":50.30931969696973,"gps_lng":3.0270946969697},{"id":24677,"department_code":"62","insee_code":"62628","zip_code":"62221","name":"Noyelles-sous-Lens","slug":"noyelles sous lens","gps_lat":50.42804600000002,"gps_lng":2.8809362857142897},{"id":24678,"department_code":"62","insee_code":"62629","zip_code":"62123","name":"Noyellette","slug":"noyellette","gps_lat":50.29764838709679,"gps_lng":2.59305483870968},{"id":24679,"department_code":"62","insee_code":"62630","zip_code":"62810","name":"Noyelle-Vion","slug":"noyelle vion","gps_lat":50.29219935897436,"gps_lng":2.54891012820513},{"id":24680,"department_code":"62","insee_code":"62631","zip_code":"62270","name":"Nuncq-Hautecôte","slug":"nuncq hautecote","gps_lat":50.30626048192772,"gps_lng":2.28442891566265},{"id":25201,"department_code":"63","insee_code":"63248","zip_code":"63210","name":"Nébouzat","slug":"nebouzat","gps_lat":45.71440528089885,"gps_lng":2.90691370786517},{"id":25202,"department_code":"63","insee_code":"63249","zip_code":"63120","name":"Néronde-sur-Dore","slug":"neronde sur dore","gps_lat":45.79599419847327,"gps_lng":3.50334610687023},{"id":25203,"department_code":"63","insee_code":"63250","zip_code":"63320","name":"Neschers","slug":"neschers","gps_lat":45.58824617977529,"gps_lng":3.16373752808989},{"id":25204,"department_code":"63","insee_code":"63251","zip_code":"63560","name":"Neuf-Église","slug":"neuf eglise","gps_lat":46.09667175609759,"gps_lng":2.864202},{"id":25205,"department_code":"63","insee_code":"63252","zip_code":"63160","name":"Neuville","slug":"neuville","gps_lat":45.7494549122807,"gps_lng":3.44286675438596},{"id":25206,"department_code":"63","insee_code":"63253","zip_code":"63290","name":"Noalhat","slug":"noalhat","gps_lat":45.91875516853934,"gps_lng":3.45728247191011},{"id":25207,"department_code":"63","insee_code":"63254","zip_code":"63830","name":"Nohanent","slug":"nohanent","gps_lat":45.81186172413793,"gps_lng":3.05650172413793},{"id":25208,"department_code":"63","insee_code":"63255","zip_code":"63340","name":"Nonette-Orsonnette","slug":"nonette orsonnette","gps_lat":45.47878090909091,"gps_lng":3.29531628787879},{"id":25209,"department_code":"63","insee_code":"63256","zip_code":"63220","name":"Novacelles","slug":"novacelles","gps_lat":45.42998563291139,"gps_lng":3.65363417721519},{"id":25823,"department_code":"64","insee_code":"64412","zip_code":"64190","name":"Nabas","slug":"nabas","gps_lat":43.33284666666668,"gps_lng":-0.89253133333333},{"id":25824,"department_code":"64","insee_code":"64413","zip_code":"64510","name":"Narcastet","slug":"narcastet","gps_lat":43.243041403508784,"gps_lng":-0.3245450877193},{"id":25825,"department_code":"64","insee_code":"64414","zip_code":"64190","name":"Narp","slug":"narp","gps_lat":43.384363437500014,"gps_lng":-0.8271425},{"id":25826,"department_code":"64","insee_code":"64415","zip_code":"64450","name":"Navailles-Angos","slug":"navailles angos","gps_lat":43.41434283333334,"gps_lng":-0.34011683333333},{"id":25827,"department_code":"64","insee_code":"64416","zip_code":"64190","name":"Navarrenx","slug":"navarrenx","gps_lat":43.3285345890411,"gps_lng":-0.73664123287671},{"id":25828,"department_code":"64","insee_code":"64417","zip_code":"64800","name":"Nay","slug":"nay","gps_lat":43.17337792207792,"gps_lng":-0.25954194805194997},{"id":25829,"department_code":"64","insee_code":"64418","zip_code":"64150","name":"Noguères","slug":"nogueres","gps_lat":43.36973113207548,"gps_lng":-0.6055160377358499},{"id":25830,"department_code":"64","insee_code":"64419","zip_code":"64420","name":"Nousty","slug":"nousty","gps_lat":43.26439425925927,"gps_lng":-0.21684518518519003},{"id":26290,"department_code":"65","insee_code":"65327","zip_code":"65150","name":"Nestier","slug":"nestier","gps_lat":43.05986166666666,"gps_lng":0.4783246969697},{"id":26291,"department_code":"65","insee_code":"65328","zip_code":"65200","name":"Neuilh","slug":"neuilh","gps_lat":43.07489785714286,"gps_lng":0.07072357142857},{"id":26292,"department_code":"65","insee_code":"65329","zip_code":"65150","name":"Nistos","slug":"nistos","gps_lat":43.00040940677963,"gps_lng":0.47636457627119},{"id":26293,"department_code":"65","insee_code":"65330","zip_code":"65500","name":"Nouilhan","slug":"nouilhan","gps_lat":43.42737039473683,"gps_lng":0.04015776315789},{"id":26559,"department_code":"66","insee_code":"66120","zip_code":"66340","name":"Nahuja","slug":"nahuja","gps_lat":42.4260435897436,"gps_lng":1.99517384615385},{"id":26560,"department_code":"66","insee_code":"66121","zip_code":"66170","name":"Néfiach","slug":"nefiach","gps_lat":42.69378202380952,"gps_lng":2.65728726190476},{"id":26561,"department_code":"66","insee_code":"66122","zip_code":"66500","name":"Nohèdes","slug":"nohedes","gps_lat":42.62526978723404,"gps_lng":2.26376968085106},{"id":26562,"department_code":"66","insee_code":"66123","zip_code":"66360","name":"Nyer","slug":"nyer","gps_lat":42.50165523148149,"gps_lng":2.2700546296296302},{"id":26882,"department_code":"67","insee_code":"67228","zip_code":"67370","name":"Neugartheim-Ittlenheim","slug":"neugartheim ittlenheim","gps_lat":48.65636523076923,"gps_lng":7.54295215384616},{"id":26962,"department_code":"67","insee_code":"67314","zip_code":"67130","name":"Natzwiller","slug":"natzwiller","gps_lat":48.44663373831778,"gps_lng":7.25056738317757},{"id":26963,"department_code":"67","insee_code":"67315","zip_code":"67630","name":"Neewiller-près-Lauterbourg","slug":"neewiller pres lauterbourg","gps_lat":48.95154318181817,"gps_lng":8.12333306818182},{"id":26964,"department_code":"67","insee_code":"67317","zip_code":"67220","name":"Neubois","slug":"neubois","gps_lat":48.3022651694915,"gps_lng":7.31826932203389},{"id":26965,"department_code":"67","insee_code":"67319","zip_code":"67480","name":"Neuhaeusel","slug":"neuhaeusel","gps_lat":48.82156594594595,"gps_lng":8.0913845945946},{"id":26966,"department_code":"67","insee_code":"67320","zip_code":"67220","name":"Neuve-Église","slug":"neuve eglise","gps_lat":48.32553516666666,"gps_lng":7.307696},{"id":26967,"department_code":"67","insee_code":"67321","zip_code":"67130","name":"Neuviller-la-Roche","slug":"neuviller la roche","gps_lat":48.43312978417266,"gps_lng":7.25634553956834},{"id":26968,"department_code":"67","insee_code":"67322","zip_code":"67330","name":"Neuwiller-lès-Saverne","slug":"neuwiller les saverne","gps_lat":48.81934673218674,"gps_lng":7.35494936117935},{"id":26969,"department_code":"67","insee_code":"67324","zip_code":"67110","name":"Niederbronn-les-Bains","slug":"niederbronn les bains","gps_lat":48.95722918644066,"gps_lng":7.64363227118644},{"id":26970,"department_code":"67","insee_code":"67325","zip_code":"67280","name":"Niederhaslach","slug":"niederhaslach","gps_lat":48.53464784615385,"gps_lng":7.34531446153846},{"id":26971,"department_code":"67","insee_code":"67326","zip_code":"67207","name":"Niederhausbergen","slug":"niederhausbergen","gps_lat":48.6236392857143,"gps_lng":7.70487410714286},{"id":26972,"department_code":"67","insee_code":"67327","zip_code":"67630","name":"Niederlauterbach","slug":"niederlauterbach","gps_lat":48.97706710382516,"gps_lng":8.10713715846994},{"id":26973,"department_code":"67","insee_code":"67328","zip_code":"67350","name":"Niedermodern","slug":"niedermodern","gps_lat":48.84100171052632,"gps_lng":7.63410789473684},{"id":26974,"department_code":"67","insee_code":"67329","zip_code":"67210","name":"Niedernai","slug":"niedernai","gps_lat":48.44131951048951,"gps_lng":7.53310237762238},{"id":26975,"department_code":"67","insee_code":"67330","zip_code":"67470","name":"Niederrœdern","slug":"niederroedern","gps_lat":48.91087713375799,"gps_lng":8.05169815286624},{"id":26976,"department_code":"67","insee_code":"67331","zip_code":"67500","name":"Niederschaeffolsheim","slug":"niederschaeffolsheim","gps_lat":48.77113249999998,"gps_lng":7.74349839285714},{"id":26977,"department_code":"67","insee_code":"67333","zip_code":"67330","name":"Niedersoultzbach","slug":"niedersoultzbach","gps_lat":48.84993088888888,"gps_lng":7.47196044444444},{"id":26978,"department_code":"67","insee_code":"67334","zip_code":"67510","name":"Niedersteinbach","slug":"niedersteinbach","gps_lat":49.03911749999998,"gps_lng":7.71257857142857},{"id":26979,"department_code":"67","insee_code":"67335","zip_code":"67520","name":"Nordheim","slug":"nordheim","gps_lat":48.63997987500001,"gps_lng":7.5004655},{"id":26980,"department_code":"67","insee_code":"67336","zip_code":"67150","name":"Nordhouse","slug":"nordhouse","gps_lat":48.44804389830504,"gps_lng":7.6852086440678},{"id":26981,"department_code":"67","insee_code":"67337","zip_code":"67680","name":"Nothalten","slug":"nothalten","gps_lat":48.35578568627449,"gps_lng":7.41347509803922},{"id":27413,"department_code":"68","insee_code":"68230","zip_code":"68740","name":"Nambsheim","slug":"nambsheim","gps_lat":47.94225675,"gps_lng":7.559481},{"id":27414,"department_code":"68","insee_code":"68231","zip_code":"68600","name":"Neuf-Brisach","slug":"neuf brisach","gps_lat":48.01989435897435,"gps_lng":7.52462641025641},{"id":27415,"department_code":"68","insee_code":"68232","zip_code":"68220","name":"Neuwiller","slug":"neuwiller","gps_lat":47.52547186440679,"gps_lng":7.51207440677966},{"id":27416,"department_code":"68","insee_code":"68234","zip_code":"68127","name":"Niederentzen","slug":"niederentzen","gps_lat":47.94671083333333,"gps_lng":7.39226770833333},{"id":27417,"department_code":"68","insee_code":"68235","zip_code":"68127","name":"Niederhergheim","slug":"niederhergheim","gps_lat":47.99820614942526,"gps_lng":7.36459454022988},{"id":27418,"department_code":"68","insee_code":"68237","zip_code":"68230","name":"Niedermorschwihr","slug":"niedermorschwihr","gps_lat":48.10036686567165,"gps_lng":7.25627701492537},{"id":27419,"department_code":"68","insee_code":"68238","zip_code":"68680","name":"Niffer","slug":"niffer","gps_lat":47.71522285714286,"gps_lng":7.50965238095238},{"id":27705,"department_code":"69","insee_code":"69143","zip_code":"69250","name":"Neuville-sur-Saône","slug":"neuville sur saone","gps_lat":45.88110193548387,"gps_lng":4.84331096774194},{"id":28198,"department_code":"70","insee_code":"70376","zip_code":"70100","name":"Nantilly","slug":"nantilly","gps_lat":47.46072917355372,"gps_lng":5.53392239669421},{"id":28199,"department_code":"70","insee_code":"70378","zip_code":"70000","name":"Navenne","slug":"navenne","gps_lat":47.60187647058824,"gps_lng":6.16423196078431},{"id":28200,"department_code":"70","insee_code":"70380","zip_code":"70160","name":"Neurey-en-Vaux","slug":"neurey en vaux","gps_lat":47.73819107843138,"gps_lng":6.1984387254902},{"id":28201,"department_code":"70","insee_code":"70381","zip_code":"70000","name":"Neurey-lès-la-Demie","slug":"neurey les la demie","gps_lat":47.56466402061857,"gps_lng":6.19618463917526},{"id":28202,"department_code":"70","insee_code":"70383","zip_code":"70190","name":"Neuvelle-lès-Cromary","slug":"neuvelle les cromary","gps_lat":47.40531188888889,"gps_lng":6.07024166666667},{"id":28203,"department_code":"70","insee_code":"70384","zip_code":"70130","name":"Neuvelle-lès-la-Charité","slug":"neuvelle les la charite","gps_lat":47.53276615384615,"gps_lng":5.95590579487179},{"id":28206,"department_code":"70","insee_code":"70387","zip_code":"70130","name":"Noidans-le-Ferroux","slug":"noidans le ferroux","gps_lat":47.5668261111111,"gps_lng":5.94990166666667},{"id":28207,"department_code":"70","insee_code":"70388","zip_code":"70000","name":"Noidans-lès-Vesoul","slug":"noidans les vesoul","gps_lat":47.61395604651162,"gps_lng":6.12071627906976},{"id":28208,"department_code":"70","insee_code":"70389","zip_code":"70100","name":"Noiron","slug":"noiron","gps_lat":47.38455071428572,"gps_lng":5.62570706349207},{"id":28209,"department_code":"70","insee_code":"70390","zip_code":"70000","name":"Noroy-le-Bourg","slug":"noroy le bourg","gps_lat":47.60400512,"gps_lng":6.29612524},{"id":28707,"department_code":"71","insee_code":"71328","zip_code":"71240","name":"Nanton","slug":"nanton","gps_lat":46.61603544117647,"gps_lng":4.82028294117647},{"id":28708,"department_code":"71","insee_code":"71329","zip_code":"71270","name":"Navilly","slug":"navilly","gps_lat":46.92476815384617,"gps_lng":5.14648092307692},{"id":28709,"department_code":"71","insee_code":"71330","zip_code":"71130","name":"Neuvy-Grandchamp","slug":"neuvy grandchamp","gps_lat":46.59639066157762,"gps_lng":3.92296055979643},{"id":28710,"department_code":"71","insee_code":"71331","zip_code":"71600","name":"Nochize","slug":"nochize","gps_lat":46.39955484076431,"gps_lng":4.16875299363057},{"id":29159,"department_code":"72","insee_code":"72214","zip_code":"72260","name":"Nauvay","slug":"nauvay","gps_lat":48.25396774647885,"gps_lng":0.3936385915493},{"id":29160,"department_code":"72","insee_code":"72215","zip_code":"72600","name":"Neufchâtel-en-Saosnois","slug":"neufchatel en saosnois","gps_lat":48.374572109375,"gps_lng":0.254218671875},{"id":29161,"department_code":"72","insee_code":"72216","zip_code":"72240","name":"Neuvillalais","slug":"neuvillalais","gps_lat":48.15687681818184,"gps_lng":-0.004883124999999988},{"id":29162,"department_code":"72","insee_code":"72217","zip_code":"72190","name":"Neuville-sur-Sarthe","slug":"neuville sur sarthe","gps_lat":48.07492865284977,"gps_lng":0.21507621761658},{"id":29163,"department_code":"72","insee_code":"72218","zip_code":"72140","name":"Neuvillette-en-Charnie","slug":"neuvillette en charnie","gps_lat":48.08185803652967,"gps_lng":-0.19864940639269002},{"id":29164,"department_code":"72","insee_code":"72219","zip_code":"72240","name":"Neuvy-en-Champagne","slug":"neuvy en champagne","gps_lat":48.07327770186335,"gps_lng":-0.019971925465840035},{"id":29165,"department_code":"72","insee_code":"72220","zip_code":"72110","name":"Nogent-le-Bernard","slug":"nogent le bernard","gps_lat":48.23952130612248,"gps_lng":0.50109469387755},{"id":29166,"department_code":"72","insee_code":"72221","zip_code":"72500","name":"Nogent-sur-Loir","slug":"nogent sur loir","gps_lat":47.65824426966292,"gps_lng":0.39707112359551},{"id":29167,"department_code":"72","insee_code":"72222","zip_code":"72260","name":"Nouans","slug":"nouans","gps_lat":48.23724698795181,"gps_lng":0.22687807228916},{"id":29168,"department_code":"72","insee_code":"72223","zip_code":"72430","name":"Noyen-sur-Sarthe","slug":"noyen sur sarthe","gps_lat":47.86281378378377,"gps_lng":-0.09337261261260998},{"id":29169,"department_code":"72","insee_code":"72224","zip_code":"72370","name":"Nuillé-le-Jalais","slug":"nuille le jalais","gps_lat":48.02152474747474,"gps_lng":0.4849103030303},{"id":29177,"department_code":"72","insee_code":"72232","zip_code":"72300","name":"Notre-Dame-du-Pé","slug":"notre dame du pe","gps_lat":47.72706881250001,"gps_lng":-0.33826449999999997},{"id":29478,"department_code":"73","insee_code":"73184","zip_code":"73470","name":"Nances","slug":"nances","gps_lat":45.58777506493507,"gps_lng":5.79308376623377},{"id":29479,"department_code":"73","insee_code":"73186","zip_code":"73590","name":"Notre-Dame-de-Bellecombe","slug":"notre dame de bellecombe","gps_lat":45.79496744186045,"gps_lng":6.54496610465116},{"id":29481,"department_code":"73","insee_code":"73188","zip_code":"73460","name":"Notre-Dame-des-Millières","slug":"notre dame des millieres","gps_lat":45.61583988372094,"gps_lng":6.35902872093023},{"id":29482,"department_code":"73","insee_code":"73189","zip_code":"73130","name":"Notre-Dame-du-Cruet","slug":"notre dame du cruet","gps_lat":45.37684696969697,"gps_lng":6.31183939393939},{"id":29483,"department_code":"73","insee_code":"73190","zip_code":"73600","name":"Notre-Dame-du-Pré","slug":"notre dame du pre","gps_lat":45.50445000000001,"gps_lng":6.5935738848920895},{"id":29484,"department_code":"73","insee_code":"73191","zip_code":"73470","name":"Novalaise","slug":"novalaise","gps_lat":45.59267844339621,"gps_lng":5.77307339622641},{"id":29792,"department_code":"74","insee_code":"74196","zip_code":"74300","name":"Nancy-sur-Cluses","slug":"nancy sur cluses","gps_lat":46.02557038095239,"gps_lng":6.5792849523809505},{"id":29793,"department_code":"74","insee_code":"74197","zip_code":"74380","name":"Nangy","slug":"nangy","gps_lat":46.14912091836737,"gps_lng":6.30769908163265},{"id":29794,"department_code":"74","insee_code":"74198","zip_code":"74370","name":"Nâves-Parmelan","slug":"naves parmelan","gps_lat":45.93542690476191,"gps_lng":6.19234940476191},{"id":29795,"department_code":"74","insee_code":"74199","zip_code":"74140","name":"Nernier","slug":"nernier","gps_lat":46.36219892307695,"gps_lng":6.30686953846154},{"id":29796,"department_code":"74","insee_code":"74200","zip_code":"74500","name":"Neuvecelle","slug":"neuvecelle","gps_lat":46.39353319444445,"gps_lng":6.60856597222222},{"id":29797,"department_code":"74","insee_code":"74201","zip_code":"74160","name":"Neydens","slug":"neydens","gps_lat":46.11593115107911,"gps_lng":6.10428870503597},{"id":29798,"department_code":"74","insee_code":"74202","zip_code":"74330","name":"Nonglard","slug":"nonglard","gps_lat":45.92125945945946,"gps_lng":6.02471837837838},{"id":29799,"department_code":"74","insee_code":"74203","zip_code":"74500","name":"Novel","slug":"novel","gps_lat":46.36182009433963,"gps_lng":6.76908198113208},{"id":30353,"department_code":"76","insee_code":"76459","zip_code":"76270","name":"Nesle-Hodeng","slug":"nesle hodeng","gps_lat":49.70129838509318,"gps_lng":1.51837186335404},{"id":30354,"department_code":"76","insee_code":"76460","zip_code":"76340","name":"Nesle-Normandeuse","slug":"nesle normandeuse","gps_lat":49.90415531746032,"gps_lng":1.6714646031745999},{"id":30355,"department_code":"76","insee_code":"76461","zip_code":"76680","name":"Neufbosc","slug":"neufbosc","gps_lat":49.64472583333333,"gps_lng":1.35917333333333},{"id":30356,"department_code":"76","insee_code":"76462","zip_code":"76270","name":"Neufchâtel-en-Bray","slug":"neufchatel en bray","gps_lat":49.73827437500002,"gps_lng":1.440101375},{"id":30357,"department_code":"76","insee_code":"76463","zip_code":"76220","name":"Neuf-Marché","slug":"neuf marche","gps_lat":49.42581069518718,"gps_lng":1.7014291978609601},{"id":30359,"department_code":"76","insee_code":"76465","zip_code":"76270","name":"Neuville-Ferrières","slug":"neuville ferrieres","gps_lat":49.70927645454545,"gps_lng":1.4525312727272701},{"id":30360,"department_code":"76","insee_code":"76467","zip_code":"76460","name":"Néville","slug":"neville","gps_lat":49.82492158536584,"gps_lng":0.71175341463415},{"id":30361,"department_code":"76","insee_code":"76468","zip_code":"76210","name":"Nointot","slug":"nointot","gps_lat":49.59873747572817,"gps_lng":0.47208970873786},{"id":30362,"department_code":"76","insee_code":"76469","zip_code":"76780","name":"Nolléval","slug":"nolleval","gps_lat":49.48793903765693,"gps_lng":1.48067916317992},{"id":30363,"department_code":"76","insee_code":"76470","zip_code":"76640","name":"Normanville","slug":"normanville","gps_lat":49.69337709677421,"gps_lng":0.58299258064516},{"id":30364,"department_code":"76","insee_code":"76471","zip_code":"76330","name":"Norville","slug":"norville","gps_lat":49.48512012500002,"gps_lng":0.634961125},{"id":30365,"department_code":"76","insee_code":"76472","zip_code":"76510","name":"Notre-Dame-d'Aliermont","slug":"notre dame d aliermont","gps_lat":49.84879089285715,"gps_lng":1.29898041666667},{"id":30366,"department_code":"76","insee_code":"76473","zip_code":"76940","name":"Notre-Dame-de-Bliquetuit","slug":"notre dame de bliquetuit","gps_lat":49.49208050847459,"gps_lng":0.75500016949153},{"id":30367,"department_code":"76","insee_code":"76474","zip_code":"76960","name":"Notre-Dame-de-Bondeville","slug":"notre dame de bondeville","gps_lat":49.48916975999997,"gps_lng":1.05460328},{"id":30371,"department_code":"76","insee_code":"76477","zip_code":"76133","name":"Notre-Dame-du-Bec","slug":"notre dame du bec","gps_lat":49.59339835443036,"gps_lng":0.22160265822785},{"id":30372,"department_code":"76","insee_code":"76478","zip_code":"76590","name":"Notre-Dame-du-Parc","slug":"notre dame du parc","gps_lat":49.75154307692309,"gps_lng":1.12582876923077},{"id":30373,"department_code":"76","insee_code":"76479","zip_code":"76390","name":"Nullemont","slug":"nullemont","gps_lat":49.77356461538462,"gps_lng":1.64838184615385},{"id":30952,"department_code":"77","insee_code":"77326","zip_code":"77176","name":"Nandy","slug":"nandy","gps_lat":48.58176098591551,"gps_lng":2.54876971830986},{"id":30953,"department_code":"77","insee_code":"77327","zip_code":"77370","name":"Nangis","slug":"nangis","gps_lat":48.55192962499998,"gps_lng":3.01172675},{"id":30954,"department_code":"77","insee_code":"77328","zip_code":"77760","name":"Nanteau-sur-Essonne","slug":"nanteau sur essonne","gps_lat":48.32001482142857,"gps_lng":2.41490598214286},{"id":30955,"department_code":"77","insee_code":"77329","zip_code":"77710","name":"Nanteau-sur-Lunain","slug":"nanteau sur lunain","gps_lat":48.25538956043956,"gps_lng":2.82135846153846},{"id":30956,"department_code":"77","insee_code":"77330","zip_code":"77100","name":"Nanteuil-lès-Meaux","slug":"nanteuil les meaux","gps_lat":48.93077806451614,"gps_lng":2.90140935483871},{"id":30957,"department_code":"77","insee_code":"77331","zip_code":"77730","name":"Nanteuil-sur-Marne","slug":"nanteuil sur marne","gps_lat":48.97944674999998,"gps_lng":3.22220125},{"id":30958,"department_code":"77","insee_code":"77332","zip_code":"77230","name":"Nantouillet","slug":"nantouillet","gps_lat":48.99788707692308,"gps_lng":2.70230015384615},{"id":30959,"department_code":"77","insee_code":"77333","zip_code":"77140","name":"Nemours","slug":"nemours","gps_lat":48.25878336842107,"gps_lng":2.71123063157895},{"id":30961,"department_code":"77","insee_code":"77336","zip_code":"77610","name":"Neufmoutiers-en-Brie","slug":"neufmoutiers en brie","gps_lat":48.77387061946903,"gps_lng":2.82887601769911},{"id":30962,"department_code":"77","insee_code":"77337","zip_code":"77186","name":"Noisiel","slug":"noisiel","gps_lat":48.84523557692308,"gps_lng":2.6176990384615397},{"id":30963,"department_code":"77","insee_code":"77338","zip_code":"77940","name":"Noisy-Rudignon","slug":"noisy rudignon","gps_lat":48.33505901639345,"gps_lng":2.93441508196721},{"id":30964,"department_code":"77","insee_code":"77339","zip_code":"77123","name":"Noisy-sur-École","slug":"noisy sur ecole","gps_lat":48.37441489583333,"gps_lng":2.49830520833333},{"id":30965,"department_code":"77","insee_code":"77340","zip_code":"77140","name":"Nonville","slug":"nonville","gps_lat":48.28839452054795,"gps_lng":2.78249561643836},{"id":30966,"department_code":"77","insee_code":"77341","zip_code":"77114","name":"Noyen-sur-Seine","slug":"noyen sur seine","gps_lat":48.45316787878787,"gps_lng":3.34082460606061},{"id":31322,"department_code":"78","insee_code":"78442","zip_code":"78640","name":"Neauphle-le-Château","slug":"neauphle le chateau","gps_lat":48.81112976744187,"gps_lng":1.90327697674419},{"id":31323,"department_code":"78","insee_code":"78443","zip_code":"78640","name":"Neauphle-le-Vieux","slug":"neauphle le vieux","gps_lat":48.81590016,"gps_lng":1.86145336},{"id":31324,"department_code":"78","insee_code":"78444","zip_code":"78980","name":"Neauphlette","slug":"neauphlette","gps_lat":48.93530860000003,"gps_lng":1.5411888999999999},{"id":31325,"department_code":"78","insee_code":"78451","zip_code":"78410","name":"Nézel","slug":"nezel","gps_lat":48.94219410714284,"gps_lng":1.83873607142857},{"id":31326,"department_code":"78","insee_code":"78455","zip_code":"78590","name":"Noisy-le-Roi","slug":"noisy le roi","gps_lat":48.84277874999999,"gps_lng":2.054449375},{"id":31568,"department_code":"79","insee_code":"79189","zip_code":"79400","name":"Nanteuil","slug":"nanteuil","gps_lat":46.42319915492957,"gps_lng":-0.15954291079812},{"id":31569,"department_code":"79","insee_code":"79190","zip_code":"79130","name":"Neuvy-Bouin","slug":"neuvy bouin","gps_lat":46.67856076595747,"gps_lng":-0.44800744680851},{"id":31570,"department_code":"79","insee_code":"79191","zip_code":"79000","name":"Niort","slug":"niort","gps_lat":46.32593893939396,"gps_lng":-0.46813598484847996},{"id":31571,"department_code":"79","insee_code":"79195","zip_code":"79250","name":"Nueil-les-Aubiers","slug":"nueil les aubiers","gps_lat":46.92976051660516,"gps_lng":-0.6044965498154999},{"id":32250,"department_code":"80","insee_code":"80580","zip_code":"80120","name":"Nampont","slug":"nampont","gps_lat":50.34002822695035,"gps_lng":1.75070432624113},{"id":32251,"department_code":"80","insee_code":"80582","zip_code":"80290","name":"Namps-Maisnil","slug":"namps maisnil","gps_lat":49.80469045045044,"gps_lng":2.11996711711712},{"id":32252,"department_code":"80","insee_code":"80583","zip_code":"80160","name":"Nampty","slug":"nampty","gps_lat":49.79357138461539,"gps_lng":2.20994846153846},{"id":32253,"department_code":"80","insee_code":"80584","zip_code":"80260","name":"Naours","slug":"naours","gps_lat":50.04736109243699,"gps_lng":2.2839233613445398},{"id":32254,"department_code":"80","insee_code":"80585","zip_code":"80190","name":"Nesle","slug":"nesle","gps_lat":49.75954972477064,"gps_lng":2.9141624770642203},{"id":32255,"department_code":"80","insee_code":"80586","zip_code":"80140","name":"Nesle-l'Hôpital","slug":"nesle l hopital","gps_lat":49.91456299999998,"gps_lng":1.68927645454545},{"id":32256,"department_code":"80","insee_code":"80587","zip_code":"80140","name":"Neslette","slug":"neslette","gps_lat":49.92636559523809,"gps_lng":1.66596988095238},{"id":32257,"department_code":"80","insee_code":"80588","zip_code":"80132","name":"Neufmoulin","slug":"neufmoulin","gps_lat":50.12621893939394,"gps_lng":1.90403696969697},{"id":32258,"department_code":"80","insee_code":"80589","zip_code":"80150","name":"Neuilly-le-Dien","slug":"neuilly le dien","gps_lat":50.22814138888888,"gps_lng":2.05059583333333},{"id":32259,"department_code":"80","insee_code":"80590","zip_code":"80132","name":"Neuilly-l'Hôpital","slug":"neuilly l hopital","gps_lat":50.16981169014087,"gps_lng":1.87728112676056},{"id":32260,"department_code":"80","insee_code":"80591","zip_code":"80140","name":"Neuville-au-Bois","slug":"neuville au bois","gps_lat":49.97052410256412,"gps_lng":1.78464282051282},{"id":32261,"department_code":"80","insee_code":"80592","zip_code":"80430","name":"Neuville-Coppegueule","slug":"neuville coppegueule","gps_lat":49.85520099099101,"gps_lng":1.73982459459459},{"id":32263,"department_code":"80","insee_code":"80594","zip_code":"80160","name":"Neuville-lès-Lœuilly","slug":"neuville les loeuilly","gps_lat":49.79220632653062,"gps_lng":2.17832306122449},{"id":32265,"department_code":"80","insee_code":"80596","zip_code":"80600","name":"Neuvillette","slug":"neuvillette","gps_lat":50.20695098039215,"gps_lng":2.31596470588235},{"id":32266,"department_code":"80","insee_code":"80597","zip_code":"80390","name":"Nibas","slug":"nibas","gps_lat":50.09127570093457,"gps_lng":1.5898185981308401},{"id":32267,"department_code":"80","insee_code":"80598","zip_code":"80860","name":"Nouvion","slug":"nouvion","gps_lat":50.2135256190476,"gps_lng":1.7844712380952399},{"id":32268,"department_code":"80","insee_code":"80599","zip_code":"80150","name":"Noyelles-en-Chaussée","slug":"noyelles en chaussee","gps_lat":50.21068455882354,"gps_lng":1.9828833823529401},{"id":32269,"department_code":"80","insee_code":"80600","zip_code":"80860","name":"Noyelles-sur-Mer","slug":"noyelles sur mer","gps_lat":50.1934668181818,"gps_lng":1.73194015151515},{"id":32270,"department_code":"80","insee_code":"80601","zip_code":"80240","name":"Nurlu","slug":"nurlu","gps_lat":50.00363123809523,"gps_lng":3.01572047619048},{"id":32671,"department_code":"81","insee_code":"81193","zip_code":"81320","name":"Nages","slug":"nages","gps_lat":43.66115652173913,"gps_lng":2.7871016722407997},{"id":32672,"department_code":"81","insee_code":"81195","zip_code":"81710","name":"Navès","slug":"naves","gps_lat":43.56364093749999,"gps_lng":2.2188615625},{"id":32673,"department_code":"81","insee_code":"81196","zip_code":"81490","name":"Noailhac","slug":"noailhac","gps_lat":43.57620387500002,"gps_lng":2.357829},{"id":32674,"department_code":"81","insee_code":"81197","zip_code":"81170","name":"Noailles","slug":"noailles","gps_lat":44.00992254716981,"gps_lng":1.9882020754717},{"id":32938,"department_code":"82","insee_code":"82134","zip_code":"82800","name":"Nègrepelisse","slug":"negrepelisse","gps_lat":44.06282239436621,"gps_lng":1.52150868544601},{"id":32939,"department_code":"82","insee_code":"82135","zip_code":"82370","name":"Nohic","slug":"nohic","gps_lat":43.8864487368421,"gps_lng":1.43105042105263},{"id":33086,"department_code":"83","insee_code":"83087","zip_code":"83860","name":"Nans-les-Pins","slug":"nans les pins","gps_lat":43.38714321678321,"gps_lng":5.78798727272727},{"id":33087,"department_code":"83","insee_code":"83088","zip_code":"83136","name":"Néoules","slug":"neoules","gps_lat":43.29440075862069,"gps_lng":6.02577903448275},{"id":33451,"department_code":"85","insee_code":"85159","zip_code":"85370","name":"Nalliers","slug":"nalliers","gps_lat":46.468866460177,"gps_lng":-1.03275371681416},{"id":33452,"department_code":"85","insee_code":"85160","zip_code":"85310","name":"Nesmy","slug":"nesmy","gps_lat":46.5980106024096,"gps_lng":-1.41066569277108},{"id":33453,"department_code":"85","insee_code":"85161","zip_code":"85430","name":"Nieul-le-Dolent","slug":"nieul le dolent","gps_lat":46.56665660606063,"gps_lng":-1.51715672727273},{"id":33454,"department_code":"85","insee_code":"85162","zip_code":"85240","name":"Nieul-sur-l'Autise","slug":"nieul sur l autise","gps_lat":46.43354759999999,"gps_lng":-0.6671431999999999},{"id":33455,"department_code":"85","insee_code":"85163","zip_code":"85330","name":"Noirmoutier-en-l'Île","slug":"noirmoutier en l ile","gps_lat":47.01104237499997,"gps_lng":-2.27147425},{"id":33456,"department_code":"85","insee_code":"85164","zip_code":"85690","name":"Notre-Dame-de-Monts","slug":"notre dame de monts","gps_lat":46.84087715328467,"gps_lng":-2.09563445255474},{"id":33476,"department_code":"85","insee_code":"85189","zip_code":"85270","name":"Notre-Dame-de-Riez","slug":"notre dame de riez","gps_lat":46.75103535294116,"gps_lng":-1.90318605882353},{"id":33744,"department_code":"86","insee_code":"86174","zip_code":"86530","name":"Naintré","slug":"naintre","gps_lat":46.77098532467531,"gps_lng":0.49187928571429},{"id":33745,"department_code":"86","insee_code":"86175","zip_code":"86310","name":"Nalliers","slug":"nalliers","gps_lat":46.60981181102363,"gps_lng":0.8800362992126},{"id":33746,"department_code":"86","insee_code":"86176","zip_code":"86150","name":"Nérignac","slug":"nerignac","gps_lat":46.29683505263159,"gps_lng":0.72866094736842},{"id":33747,"department_code":"86","insee_code":"86177","zip_code":"86170","name":"Neuville-de-Poitou","slug":"neuville de poitou","gps_lat":46.68643126760563,"gps_lng":0.24948309859155},{"id":33748,"department_code":"86","insee_code":"86178","zip_code":"86340","name":"Nieuil-l'Espoir","slug":"nieuil l espoir","gps_lat":46.48504148148147,"gps_lng":0.45791092592593},{"id":33749,"department_code":"86","insee_code":"86180","zip_code":"86340","name":"Nouaillé-Maupertuis","slug":"nouaille maupertuis","gps_lat":46.50106864864862,"gps_lng":0.41880702702703},{"id":33750,"department_code":"86","insee_code":"86181","zip_code":"86200","name":"Nueil-sous-Faye","slug":"nueil sous faye","gps_lat":46.97081744,"gps_lng":0.27772752},{"id":33955,"department_code":"87","insee_code":"87103","zip_code":"87140","name":"Nantiat","slug":"nantiat","gps_lat":46.01188074211503,"gps_lng":1.17022821892393},{"id":33956,"department_code":"87","insee_code":"87104","zip_code":"87120","name":"Nedde","slug":"nedde","gps_lat":45.72127095923263,"gps_lng":1.82445611510791},{"id":33957,"department_code":"87","insee_code":"87105","zip_code":"87130","name":"Neuvic-Entier","slug":"neuvic entier","gps_lat":45.73403999999999,"gps_lng":1.64536506134969},{"id":33958,"department_code":"87","insee_code":"87106","zip_code":"87800","name":"Nexon","slug":"nexon","gps_lat":45.66574566579635,"gps_lng":1.18055994778068},{"id":33959,"department_code":"87","insee_code":"87107","zip_code":"87510","name":"Nieul","slug":"nieul","gps_lat":45.92421309446256,"gps_lng":1.17967807817589},{"id":33960,"department_code":"87","insee_code":"87108","zip_code":"87330","name":"Nouic","slug":"nouic","gps_lat":46.05649523109243,"gps_lng":0.91669348739496},{"id":34363,"department_code":"88","insee_code":"88320","zip_code":"88100","name":"Nayemont-les-Fosses","slug":"nayemont les fosses","gps_lat":48.29622159663868,"gps_lng":7.00907176470588},{"id":34364,"department_code":"88","insee_code":"88321","zip_code":"88300","name":"Neufchâteau","slug":"neufchateau","gps_lat":48.35657651006709,"gps_lng":5.6962322818792},{"id":34368,"department_code":"88","insee_code":"88326","zip_code":"88100","name":"Neuvillers-sur-Fave","slug":"neuvillers sur fave","gps_lat":48.28341112149533,"gps_lng":7.03571373831775},{"id":34369,"department_code":"88","insee_code":"88327","zip_code":"88440","name":"Nomexy","slug":"nomexy","gps_lat":48.3062793617021,"gps_lng":6.37228531914893},{"id":34370,"department_code":"88","insee_code":"88328","zip_code":"88470","name":"Nompatelize","slug":"nompatelize","gps_lat":48.32997221153846,"gps_lng":6.85721134615385},{"id":34371,"department_code":"88","insee_code":"88330","zip_code":"88260","name":"Nonville","slug":"nonville","gps_lat":48.08706541284403,"gps_lng":5.98580807339449},{"id":34372,"department_code":"88","insee_code":"88331","zip_code":"88600","name":"Nonzeville","slug":"nonzeville","gps_lat":48.26403392156863,"gps_lng":6.63397294117647},{"id":34373,"department_code":"88","insee_code":"88332","zip_code":"88800","name":"Norroy","slug":"norroy","gps_lat":48.21687523809526,"gps_lng":5.91744404761905},{"id":34374,"department_code":"88","insee_code":"88333","zip_code":"88700","name":"Nossoncourt","slug":"nossoncourt","gps_lat":48.39957116666665,"gps_lng":6.675717},{"id":34809,"department_code":"89","insee_code":"89274","zip_code":"89100","name":"Nailly","slug":"nailly","gps_lat":48.21801238805971,"gps_lng":3.20353850746269},{"id":34810,"department_code":"89","insee_code":"89276","zip_code":"89570","name":"Neuvy-Sautour","slug":"neuvy sautour","gps_lat":48.03885656250001,"gps_lng":3.7867771875000003},{"id":34811,"department_code":"89","insee_code":"89277","zip_code":"89310","name":"Nitry","slug":"nitry","gps_lat":47.67571315384613,"gps_lng":3.87087923076923},{"id":34812,"department_code":"89","insee_code":"89278","zip_code":"89320","name":"Noé","slug":"noe","gps_lat":48.15327243243244,"gps_lng":3.39511675675676},{"id":34813,"department_code":"89","insee_code":"89279","zip_code":"89310","name":"Noyers","slug":"noyers","gps_lat":47.69738382165605,"gps_lng":3.98339401273885},{"id":34814,"department_code":"89","insee_code":"89280","zip_code":"89390","name":"Nuits","slug":"nuits","gps_lat":47.72331264957263,"gps_lng":4.19724905982906},{"id":35068,"department_code":"90","insee_code":"90074","zip_code":"90340","name":"Novillard","slug":"novillard","gps_lat":47.60339336065574,"gps_lng":6.96369590163935},{"id":35221,"department_code":"91","insee_code":"91441","zip_code":"91750","name":"Nainville-les-Roches","slug":"nainville les roches","gps_lat":48.50776676470587,"gps_lng":2.49646838235294},{"id":35223,"department_code":"91","insee_code":"91458","zip_code":"91620","name":"Nozay","slug":"nozay","gps_lat":48.66088344827585,"gps_lng":2.2422524137931},{"id":35320,"department_code":"92","insee_code":"92050","zip_code":"92000","name":"Nanterre","slug":"nanterre","gps_lat":48.89624622641509,"gps_lng":2.21393811320755},{"id":35321,"department_code":"92","insee_code":"92051","zip_code":"92200","name":"Neuilly-sur-Seine","slug":"neuilly sur seine","gps_lat":48.884595,"gps_lng":2.2616955},{"id":35353,"department_code":"93","insee_code":"93049","zip_code":"93360","name":"Neuilly-Plaisance","slug":"neuilly plaisance","gps_lat":48.86486195121952,"gps_lng":2.5127263414634102},{"id":35354,"department_code":"93","insee_code":"93050","zip_code":"93330","name":"Neuilly-sur-Marne","slug":"neuilly sur marne","gps_lat":48.86526206896551,"gps_lng":2.5367218390804602},{"id":35355,"department_code":"93","insee_code":"93051","zip_code":"93160","name":"Noisy-le-Grand","slug":"noisy le grand","gps_lat":48.83600000000001,"gps_lng":2.56563018348624},{"id":35356,"department_code":"93","insee_code":"93053","zip_code":"93130","name":"Noisy-le-Sec","slug":"noisy le sec","gps_lat":48.88746432098765,"gps_lng":2.45495283950617},{"id":35398,"department_code":"94","insee_code":"94052","zip_code":"94130","name":"Nogent-sur-Marne","slug":"nogent sur marne","gps_lat":48.83654240000001,"gps_lng":2.4769032},{"id":35399,"department_code":"94","insee_code":"94053","zip_code":"94880","name":"Noiseau","slug":"noiseau","gps_lat":48.77420786885246,"gps_lng":2.55670475409836},{"id":35545,"department_code":"95","insee_code":"95445","zip_code":"95590","name":"Nerville-la-Forêt","slug":"nerville la foret","gps_lat":49.090265,"gps_lng":2.28430653846154},{"id":35546,"department_code":"95","insee_code":"95446","zip_code":"95690","name":"Nesles-la-Vallée","slug":"nesles la vallee","gps_lat":49.12898566433564,"gps_lng":2.17554230769231},{"id":35547,"department_code":"95","insee_code":"95447","zip_code":"95640","name":"Neuilly-en-Vexin","slug":"neuilly en vexin","gps_lat":49.1733724137931,"gps_lng":1.9834994827586199},{"id":35548,"department_code":"95","insee_code":"95450","zip_code":"95000","name":"Neuville-sur-Oise","slug":"neuville sur oise","gps_lat":49.01726717391306,"gps_lng":2.0648947826087},{"id":35549,"department_code":"95","insee_code":"95452","zip_code":"95590","name":"Nointel","slug":"nointel","gps_lat":49.13067302325582,"gps_lng":2.28983},{"id":35550,"department_code":"95","insee_code":"95456","zip_code":"95270","name":"Noisy-sur-Oise","slug":"noisy sur oise","gps_lat":49.13803739130435,"gps_lng":2.32599043478261},{"id":35551,"department_code":"95","insee_code":"95459","zip_code":"95420","name":"Nucourt","slug":"nucourt","gps_lat":49.16082133333335,"gps_lng":1.8542561666666701},{"id":35791,"department_code":"987","insee_code":null,"zip_code":null,"name":"Napuka","slug":"napuka","gps_lat":-14.1696989,"gps_lng":-141.165209544717},{"id":35792,"department_code":"987","insee_code":null,"zip_code":null,"name":"Nuku-Hiva","slug":"nuku hiva","gps_lat":-8.8734097,"gps_lng":-140.124482820256},{"id":35793,"department_code":"987","insee_code":null,"zip_code":null,"name":"Nukutavake","slug":"nukutavake","gps_lat":-19.2769352,"gps_lng":-138.825042475908},{"id":35837,"department_code":"988","insee_code":null,"zip_code":"98800","name":"Nouméa","slug":"noumea","gps_lat":-22.2745264,"gps_lng":166.442419}]