[{"id":1022,"department_code":"02","insee_code":"02631","zip_code":"02300","name":"Quierzy","slug":"quierzy","gps_lat":49.56465918518519,"gps_lng":3.14583096296296},{"id":1023,"department_code":"02","insee_code":"02632","zip_code":"02380","name":"Quincy-Basse","slug":"quincy basse","gps_lat":49.50795932432432,"gps_lng":3.38446891891892},{"id":1024,"department_code":"02","insee_code":"02633","zip_code":"02220","name":"Quincy-sous-le-Mont","slug":"quincy sous le mont","gps_lat":49.31076629629629,"gps_lng":3.561335},{"id":1427,"department_code":"03","insee_code":"03212","zip_code":"03380","name":"Quinssaines","slug":"quinssaines","gps_lat":46.30844245398774,"gps_lng":2.49643987730061},{"id":1665,"department_code":"04","insee_code":"04158","zip_code":"04500","name":"Quinson","slug":"quinson","gps_lat":43.70744317757008,"gps_lng":6.02313710280374},{"id":2255,"department_code":"07","insee_code":"07188","zip_code":"07290","name":"Quintenas","slug":"quintenas","gps_lat":45.19828133333332,"gps_lng":4.70467066666667},{"id":2728,"department_code":"08","insee_code":"08350","zip_code":"08400","name":"Quatre-Champs","slug":"quatre champs","gps_lat":49.4470866346154,"gps_lng":4.77847278846154},{"id":2729,"department_code":"08","insee_code":"08351","zip_code":"08400","name":"Quilly","slug":"quilly","gps_lat":49.40888037037039,"gps_lng":4.59074148148148},{"id":3104,"department_code":"09","insee_code":"09239","zip_code":"09460","name":"Quérigut","slug":"querigut","gps_lat":42.6863948888889,"gps_lng":2.11380844444444},{"id":3105,"department_code":"09","insee_code":"09240","zip_code":"09400","name":"Quié","slug":"quie","gps_lat":42.8415210638298,"gps_lng":1.59310489361702},{"id":3929,"department_code":"11","insee_code":"11304","zip_code":"11500","name":"Quillan","slug":"quillan","gps_lat":42.88206545126354,"gps_lng":2.17242155234657},{"id":3930,"department_code":"11","insee_code":"11305","zip_code":"11360","name":"Quintillan","slug":"quintillan","gps_lat":42.95752300884956,"gps_lng":2.70177504424779},{"id":3931,"department_code":"11","insee_code":"11306","zip_code":"11500","name":"Quirbajou","slug":"quirbajou","gps_lat":42.82910372093024,"gps_lng":2.1786423255814},{"id":4250,"department_code":"12","insee_code":"12194","zip_code":"12800","name":"Quins","slug":"quins","gps_lat":44.23264385269123,"gps_lng":2.37033974504249},{"id":4886,"department_code":"14","insee_code":"14528","zip_code":"14130","name":"Quetteville","slug":"quetteville","gps_lat":49.35079309352517,"gps_lng":0.30379992805755},{"id":5199,"department_code":"15","insee_code":"15157","zip_code":"15600","name":"Quézac","slug":"quezac","gps_lat":44.75652352173915,"gps_lng":2.18205782608695},{"id":6342,"department_code":"18","insee_code":"18189","zip_code":"18110","name":"Quantilly","slug":"quantilly","gps_lat":47.23295127450981,"gps_lng":2.44625549019608},{"id":6343,"department_code":"18","insee_code":"18190","zip_code":"18120","name":"Quincy","slug":"quincy","gps_lat":47.12491732758618,"gps_lng":2.15859310344828},{"id":6615,"department_code":"19","insee_code":"19170","zip_code":"19120","name":"Queyssac-les-Vignes","slug":"queyssac les vignes","gps_lat":44.96376208860762,"gps_lng":1.77079962025316},{"id":7233,"department_code":"21","insee_code":"21513","zip_code":"21220","name":"Quemigny-Poisot","slug":"quemigny poisot","gps_lat":47.23799919354837,"gps_lng":4.85091274193549},{"id":7234,"department_code":"21","insee_code":"21514","zip_code":"21510","name":"Quemigny-sur-Seine","slug":"quemigny sur seine","gps_lat":47.66223658119657,"gps_lng":4.66068286324787},{"id":7235,"department_code":"21","insee_code":"21515","zip_code":"21800","name":"Quetigny","slug":"quetigny","gps_lat":47.31841873563219,"gps_lng":5.1135808045977},{"id":7236,"department_code":"21","insee_code":"21516","zip_code":"21500","name":"Quincerot","slug":"quincerot","gps_lat":47.61903707317073,"gps_lng":4.26576036585366},{"id":7237,"department_code":"21","insee_code":"21517","zip_code":"21700","name":"Quincey","slug":"quincey","gps_lat":47.10634062500002,"gps_lng":4.9723015},{"id":7238,"department_code":"21","insee_code":"21518","zip_code":"21500","name":"Quincy-le-Vicomte","slug":"quincy le vicomte","gps_lat":47.61518825396826,"gps_lng":4.24497518518519},{"id":7667,"department_code":"22","insee_code":"22256","zip_code":"22260","name":"Quemper-Guézennec","slug":"quemper guezennec","gps_lat":48.69808707142858,"gps_lng":-3.09946278571429},{"id":7668,"department_code":"22","insee_code":"22257","zip_code":"22450","name":"Quemperven","slug":"quemperven","gps_lat":48.72752795811522,"gps_lng":-3.33970670157068},{"id":7669,"department_code":"22","insee_code":"22258","zip_code":"22120","name":"Quessoy","slug":"quessoy","gps_lat":48.42486092643052,"gps_lng":-2.64622776566757},{"id":7670,"department_code":"22","insee_code":"22259","zip_code":"22100","name":"Quévert","slug":"quevert","gps_lat":48.46565098484849,"gps_lng":-2.08513340909091},{"id":7672,"department_code":"22","insee_code":"22261","zip_code":"22400","name":"Quintenic","slug":"quintenic","gps_lat":48.51237432432433,"gps_lng":-2.4211413513513502},{"id":7673,"department_code":"22","insee_code":"22262","zip_code":"22800","name":"Quintin","slug":"quintin","gps_lat":48.40352155555555,"gps_lng":-2.91222844444444},{"id":8350,"department_code":"24","insee_code":"24345","zip_code":"24140","name":"Queyssac","slug":"queyssac","gps_lat":44.91455867469879,"gps_lng":0.53502084337349},{"id":8351,"department_code":"24","insee_code":"24346","zip_code":"24530","name":"Quinsac","slug":"quinsac","gps_lat":45.43462316546761,"gps_lng":0.69918136690647},{"id":9008,"department_code":"25","insee_code":"25475","zip_code":"25440","name":"Quingey","slug":"quingey","gps_lat":47.10628812030077,"gps_lng":5.88613022556391},{"id":9950,"department_code":"27","insee_code":"27483","zip_code":"27400","name":"Quatremare","slug":"quatremare","gps_lat":49.18475201923074,"gps_lng":1.08080586538462},{"id":9951,"department_code":"27","insee_code":"27485","zip_code":"27680","name":"Quillebeuf-sur-Seine","slug":"quillebeuf sur seine","gps_lat":49.473833,"gps_lng":0.5126755},{"id":9952,"department_code":"27","insee_code":"27486","zip_code":"27110","name":"Quittebeuf","slug":"quittebeuf","gps_lat":49.10941264705885,"gps_lng":1.00065183823529},{"id":10720,"department_code":"29","insee_code":"29229","zip_code":"29180","name":"Quéménéven","slug":"quemeneven","gps_lat":48.11841311403507,"gps_lng":-4.14270675438597},{"id":10721,"department_code":"29","insee_code":"29230","zip_code":"29310","name":"Querrien","slug":"querrien","gps_lat":47.9616769900498,"gps_lng":-3.54990047263682},{"id":10722,"department_code":"29","insee_code":"29232","zip_code":"29000","name":"Quimper","slug":"quimper","gps_lat":47.99010443509615,"gps_lng":-4.09192235576923},{"id":10723,"department_code":"29","insee_code":"29233","zip_code":"29300","name":"Quimperlé","slug":"quimperle","gps_lat":47.85330728571429,"gps_lng":-3.55980975},{"id":10880,"department_code":"2A","insee_code":"2A253","zip_code":"20142","name":"Quasquara","slug":"quasquara","gps_lat":41.91043044776119,"gps_lng":9.0073247761194},{"id":10881,"department_code":"2A","insee_code":"2A254","zip_code":"20122","name":"Quenza","slug":"quenza","gps_lat":41.79771368279572,"gps_lng":9.1937723655914},{"id":11090,"department_code":"2B","insee_code":"2B255","zip_code":"20237","name":"Quercitello","slug":"quercitello","gps_lat":42.43130762886597,"gps_lng":9.35726618556701},{"id":11371,"department_code":"30","insee_code":"30210","zip_code":"30260","name":"Quissac","slug":"quissac","gps_lat":43.91848185483873,"gps_lng":3.98998560483871},{"id":11957,"department_code":"31","insee_code":"31445","zip_code":"31130","name":"Quint-Fonsegrives","slug":"quint fonsegrives","gps_lat":43.5819271153846,"gps_lng":1.54312173076923},{"id":12917,"department_code":"33","insee_code":"33348","zip_code":"33340","name":"Queyrac","slug":"queyrac","gps_lat":45.35026153061225,"gps_lng":-1.0094071428571398},{"id":12918,"department_code":"33","insee_code":"33349","zip_code":"33360","name":"Quinsac","slug":"quinsac","gps_lat":44.75588944444442,"gps_lng":-0.49104097222222},{"id":13345,"department_code":"34","insee_code":"34226","zip_code":"34310","name":"Quarante","slug":"quarante","gps_lat":43.35051736842105,"gps_lng":2.9772511842105303},{"id":13685,"department_code":"35","insee_code":"35233","zip_code":"35190","name":"Québriac","slug":"quebriac","gps_lat":48.35934152542374,"gps_lng":-1.81392163841808},{"id":13686,"department_code":"35","insee_code":"35234","zip_code":"35290","name":"Quédillac","slug":"quedillac","gps_lat":48.23751299999999,"gps_lng":-2.14918752173913},{"id":14626,"department_code":"38","insee_code":"38328","zip_code":"38950","name":"Quaix-en-Chartreuse","slug":"quaix en chartreuse","gps_lat":45.25751516853931,"gps_lng":5.7313506741573},{"id":14627,"department_code":"38","insee_code":"38329","zip_code":"38970","name":"Quet-en-Beaumont","slug":"quet en beaumont","gps_lat":44.83550760416667,"gps_lng":5.87917947916667},{"id":14628,"department_code":"38","insee_code":"38330","zip_code":"38470","name":"Quincieu","slug":"quincieu","gps_lat":45.28039338709677,"gps_lng":5.38546306451613},{"id":15249,"department_code":"39","insee_code":"39447","zip_code":"39570","name":"Quintigny","slug":"quintigny","gps_lat":46.73481674698794,"gps_lng":5.52201602409639},{"id":16460,"department_code":"43","insee_code":"43158","zip_code":"43260","name":"Queyrières","slug":"queyrieres","gps_lat":45.07309843137258,"gps_lng":4.09825470588235},{"id":16695,"department_code":"44","insee_code":"44139","zip_code":"44750","name":"Quilly","slug":"quilly","gps_lat":47.45492045751637,"gps_lng":-1.94033346405229},{"id":17018,"department_code":"45","insee_code":"45259","zip_code":"45270","name":"Quiers-sur-Bézonde","slug":"quiers sur bezonde","gps_lat":47.98450329032259,"gps_lng":2.42970541935484},{"id":17325,"department_code":"46","insee_code":"46233","zip_code":"46320","name":"Quissac","slug":"quissac","gps_lat":44.62647265486726,"gps_lng":1.71844619469027},{"id":18442,"department_code":"50","insee_code":"50417","zip_code":"50630","name":"Quettehou","slug":"quettehou","gps_lat":49.58619790960452,"gps_lng":-1.32805367231638},{"id":18443,"department_code":"50","insee_code":"50419","zip_code":"50660","name":"Quettreville-sur-Sienne","slug":"quettreville sur sienne","gps_lat":48.968051257309924,"gps_lng":-1.46312926900585},{"id":18444,"department_code":"50","insee_code":"50420","zip_code":"50750","name":"Quibou","slug":"quibou","gps_lat":49.07092611398963,"gps_lng":-1.20880227979275},{"id":18445,"department_code":"50","insee_code":"50421","zip_code":"50310","name":"Quinéville","slug":"quineville","gps_lat":49.511948130081294,"gps_lng":-1.30623991869919},{"id":19038,"department_code":"51","insee_code":"51451","zip_code":"51120","name":"Queudes","slug":"queudes","gps_lat":48.66065052631578,"gps_lng":3.75277157894737},{"id":19839,"department_code":"53","insee_code":"53186","zip_code":"53360","name":"Quelaines-Saint-Gault","slug":"quelaines saint gault","gps_lat":47.92632893103449,"gps_lng":-0.80036482758621},{"id":20359,"department_code":"54","insee_code":"54442","zip_code":"54330","name":"Quevilloncourt","slug":"quevilloncourt","gps_lat":48.47259099999999,"gps_lng":6.10252933333333},{"id":20867,"department_code":"55","insee_code":"55410","zip_code":"55600","name":"Quincy-Landzécourt","slug":"quincy landzecourt","gps_lat":49.49567809090912,"gps_lng":5.29894145454545},{"id":21194,"department_code":"56","insee_code":"56184","zip_code":"56230","name":"Questembert","slug":"questembert","gps_lat":47.6534109486166,"gps_lng":-2.44070717391304},{"id":21195,"department_code":"56","insee_code":"56185","zip_code":"56530","name":"Quéven","slug":"queven","gps_lat":47.7870139906103,"gps_lng":-3.42168356807512},{"id":21196,"department_code":"56","insee_code":"56186","zip_code":"56170","name":"Quiberon","slug":"quiberon","gps_lat":47.48292482269505,"gps_lng":-3.11540486997636},{"id":21197,"department_code":"56","insee_code":"56188","zip_code":"56310","name":"Quistinic","slug":"quistinic","gps_lat":47.91812635738833,"gps_lng":-3.13200467353952},{"id":22782,"department_code":"59","insee_code":"59478","zip_code":"59380","name":"Quaëdypre","slug":"quaedypre","gps_lat":50.93214330357147,"gps_lng":2.46221919642857},{"id":22783,"department_code":"59","insee_code":"59479","zip_code":"59243","name":"Quarouble","slug":"quarouble","gps_lat":50.41015692307691,"gps_lng":3.62666532544379},{"id":22784,"department_code":"59","insee_code":"59480","zip_code":"59269","name":"Quérénaing","slug":"querenaing","gps_lat":50.28530111111111,"gps_lng":3.50905111111111},{"id":22786,"department_code":"59","insee_code":"59482","zip_code":"59890","name":"Quesnoy-sur-Deûle","slug":"quesnoy sur deule","gps_lat":50.71465589285715,"gps_lng":3.00942017857143},{"id":22787,"department_code":"59","insee_code":"59483","zip_code":"59680","name":"Quiévelon","slug":"quievelon","gps_lat":50.23510593749999,"gps_lng":4.0664275},{"id":22788,"department_code":"59","insee_code":"59484","zip_code":"59920","name":"Quiévrechain","slug":"quievrechain","gps_lat":50.39432672413795,"gps_lng":3.66299577586207},{"id":22789,"department_code":"59","insee_code":"59485","zip_code":"59214","name":"Quiévy","slug":"quievy","gps_lat":50.16038972972972,"gps_lng":3.42178364864865},{"id":23480,"department_code":"60","insee_code":"60519","zip_code":"60640","name":"Quesmy","slug":"quesmy","gps_lat":49.63192795454547,"gps_lng":3.05556818181818},{"id":23482,"department_code":"60","insee_code":"60521","zip_code":"60220","name":"Quincampoix-Fleuzy","slug":"quincampoix fleuzy","gps_lat":49.7480481300813,"gps_lng":1.7641800813008102},{"id":23483,"department_code":"60","insee_code":"60522","zip_code":"60130","name":"Quinquempoix","slug":"quinquempoix","gps_lat":49.54556707317073,"gps_lng":2.42214707317073},{"id":24722,"department_code":"62","insee_code":"62673","zip_code":"62860","name":"Quéant","slug":"queant","gps_lat":50.17228294117646,"gps_lng":2.98505215686274},{"id":24723,"department_code":"62","insee_code":"62674","zip_code":"62500","name":"Quelmes","slug":"quelmes","gps_lat":50.73342801724136,"gps_lng":2.1310999137931},{"id":24724,"department_code":"62","insee_code":"62675","zip_code":"62380","name":"Quercamps","slug":"quercamps","gps_lat":50.75152136363636,"gps_lng":2.04500659090909},{"id":24725,"department_code":"62","insee_code":"62676","zip_code":"62120","name":"Quernes","slug":"quernes","gps_lat":50.60156784313726,"gps_lng":2.36949107843137},{"id":24727,"department_code":"62","insee_code":"62678","zip_code":"62240","name":"Quesques","slug":"quesques","gps_lat":50.70236384180788,"gps_lng":1.94134785310735},{"id":24728,"department_code":"62","insee_code":"62679","zip_code":"62830","name":"Questrecques","slug":"questrecques","gps_lat":50.66432584,"gps_lng":1.74820632},{"id":24729,"department_code":"62","insee_code":"62680","zip_code":"62490","name":"Quiéry-la-Motte","slug":"quiery la motte","gps_lat":50.3647108219178,"gps_lng":2.98929232876712},{"id":24730,"department_code":"62","insee_code":"62681","zip_code":"62120","name":"Quiestède","slug":"quiestede","gps_lat":50.67902983050848,"gps_lng":2.32797915254237},{"id":24731,"department_code":"62","insee_code":"62682","zip_code":"62650","name":"Quilen","slug":"quilen","gps_lat":50.52938475409836,"gps_lng":1.93368147540984},{"id":24732,"department_code":"62","insee_code":"62683","zip_code":"62390","name":"Quœux-Haut-Maînil","slug":"quoeux haut mainil","gps_lat":50.30115835051546,"gps_lng":2.10512793814433},{"id":25246,"department_code":"63","insee_code":"63294","zip_code":"63780","name":"Queuille","slug":"queuille","gps_lat":45.97336456521737,"gps_lng":2.8376352173913},{"id":27024,"department_code":"67","insee_code":"67382","zip_code":"67117","name":"Quatzenheim","slug":"quatzenheim","gps_lat":48.62792833333334,"gps_lng":7.57732166666667},{"id":27721,"department_code":"69","insee_code":"69162","zip_code":"69430","name":"Quincié-en-Beaujolais","slug":"quincie en beaujolais","gps_lat":46.11294019108281,"gps_lng":4.60792484076433},{"id":27722,"department_code":"69","insee_code":"69163","zip_code":"69650","name":"Quincieux","slug":"quincieux","gps_lat":45.91236189473685,"gps_lng":4.77258326315789},{"id":28248,"department_code":"70","insee_code":"70431","zip_code":"70190","name":"Quenoche","slug":"quenoche","gps_lat":47.46736345238095,"gps_lng":6.10440297619048},{"id":28249,"department_code":"70","insee_code":"70432","zip_code":"70200","name":"Quers","slug":"quers","gps_lat":47.72626877551018,"gps_lng":6.43496517006802},{"id":28250,"department_code":"70","insee_code":"70433","zip_code":"70000","name":"Quincey","slug":"quincey","gps_lat":47.59454204225352,"gps_lng":6.19742781690141},{"id":29500,"department_code":"73","insee_code":"73211","zip_code":"73720","name":"Queige","slug":"queige","gps_lat":45.70111139130434,"gps_lng":6.46624617391304},{"id":29812,"department_code":"74","insee_code":"74219","zip_code":"74600","name":"Quintal","slug":"quintal","gps_lat":45.8348110989011,"gps_lng":6.08562472527473},{"id":30406,"department_code":"76","insee_code":"76513","zip_code":"76840","name":"Quevillon","slug":"quevillon","gps_lat":49.41849178571429,"gps_lng":0.95414339285714},{"id":30407,"department_code":"76","insee_code":"76514","zip_code":"76520","name":"Quévreville-la-Poterie","slug":"quevreville la poterie","gps_lat":49.35430211764706,"gps_lng":1.18968894117647},{"id":30408,"department_code":"76","insee_code":"76515","zip_code":"76860","name":"Quiberville","slug":"quiberville","gps_lat":49.89766774193548,"gps_lng":0.92576709677419},{"id":30409,"department_code":"76","insee_code":"76516","zip_code":"76270","name":"Quièvrecourt","slug":"quievrecourt","gps_lat":49.72587175572517,"gps_lng":1.42000229007634},{"id":30410,"department_code":"76","insee_code":"76517","zip_code":"76230","name":"Quincampoix","slug":"quincampoix","gps_lat":49.51811806666669,"gps_lng":1.17654773333333},{"id":31002,"department_code":"77","insee_code":"77381","zip_code":"77720","name":"Quiers","slug":"quiers","gps_lat":48.61342789473686,"gps_lng":2.95875622807018},{"id":31003,"department_code":"77","insee_code":"77382","zip_code":"77860","name":"Quincy-Voisins","slug":"quincy voisins","gps_lat":48.89690111111113,"gps_lng":2.87900212121212},{"id":32313,"department_code":"80","insee_code":"80649","zip_code":"80120","name":"Quend","slug":"quend","gps_lat":50.32132533333333,"gps_lng":1.62223},{"id":32314,"department_code":"80","insee_code":"80650","zip_code":"80115","name":"Querrieu","slug":"querrieu","gps_lat":49.93942803418803,"gps_lng":2.41308846153846},{"id":32317,"department_code":"80","insee_code":"80654","zip_code":"80132","name":"Quesnoy-le-Montant","slug":"quesnoy le montant","gps_lat":50.10443822580645,"gps_lng":1.6901664516129},{"id":32318,"department_code":"80","insee_code":"80655","zip_code":"80270","name":"Quesnoy-sur-Airaines","slug":"quesnoy sur airaines","gps_lat":49.95060311688313,"gps_lng":1.9956993506493501},{"id":32319,"department_code":"80","insee_code":"80656","zip_code":"80710","name":"Quevauvillers","slug":"quevauvillers","gps_lat":49.81133119565219,"gps_lng":2.07093206521739},{"id":32320,"department_code":"80","insee_code":"80657","zip_code":"80250","name":"Quiry-le-Sec","slug":"quiry le sec","gps_lat":49.66998904761906,"gps_lng":2.38248666666667},{"id":32321,"department_code":"80","insee_code":"80658","zip_code":"80400","name":"Quivières","slug":"quivieres","gps_lat":49.82729196078429,"gps_lng":3.02575156862745},{"id":33770,"department_code":"86","insee_code":"86203","zip_code":"86150","name":"Queaux","slug":"queaux","gps_lat":46.3096504516129,"gps_lng":0.63950638709677},{"id":33771,"department_code":"86","insee_code":"86204","zip_code":"86190","name":"Quinçay","slug":"quincay","gps_lat":46.60903336363637,"gps_lng":0.22439972727273},{"id":34847,"department_code":"89","insee_code":"89318","zip_code":"89630","name":"Quarré-les-Tombes","slug":"quarre les tombes","gps_lat":47.35994043478256,"gps_lng":4.01199690821256},{"id":34848,"department_code":"89","insee_code":"89319","zip_code":"89290","name":"Quenne","slug":"quenne","gps_lat":47.77788738095238,"gps_lng":3.65192630952381},{"id":34849,"department_code":"89","insee_code":"89320","zip_code":"89740","name":"Quincerot","slug":"quincerot","gps_lat":47.94215930555557,"gps_lng":4.16434472222222},{"id":35239,"department_code":"91","insee_code":"91514","zip_code":"91480","name":"Quincy-sous-Sénart","slug":"quincy sous senart","gps_lat":48.67557422222223,"gps_lng":2.53466755555556}]